trip_distance,tpep_pickup_datetime,tpep_dropoff_datetime,total_amount,tolls_amount,tip_amount,store_and_fwd_flag,stop_time,start_time,region_name,postal_code,pickup_longitude,pickup_latitude,payment_type,passenger_count,mta_tax,longitude,latitude,improvement_surcharge,fare_amount,extra,dropoff_longitude,dropoff_latitude,city_name,all_day,VendorID,STATION_NAME,STATION,RatecodeID,REPORTTPYE,PeakWindDirection,MonthlyWetBulbTemp,MonthlyTotalSnowfall,MonthlyTotalSeasonToDateHeatingDD,MonthlyTotalSeasonToDateCoolingDD,MonthlyTotalLiquidPrecip,MonthlyTotalHeatingDegreeDays,MonthlyTotalCoolingDegreeDays,MonthlyStationPressure,MonthlySeaLevelPressure,MonthlyMinimumTemp,MonthlyMinSeaLevelPressureValue,MonthlyMinSeaLevelPressureTime,MonthlyMinSeaLevelPressureDate,MonthlyMeanTemp,MonthlyMaximumTemp,MonthlyMaxSeaLevelPressureValue,MonthlyMaxSeaLevelPressureTime,MonthlyMaxSeaLevelPressureDate,MonthlyGreatestSnowfallDate,MonthlyGreatestSnowfall,MonthlyGreatestSnowDepthDate,MonthlyGreatestSnowDepth,MonthlyGreatestPrecipDate,MonthlyGreatestPrecip,MonthlyDewpointTemp,MonthlyDeptFromNormalPrecip,MonthlyDeptFromNormalMinimumTemp,MonthlyDeptFromNormalMaximumTemp,MonthlyDeptFromNormalHeatingDD,MonthlyDeptFromNormalCoolingDD,MonthlyDeptFromNormalAverageTemp,MonthlyDaysWithLT32Temp,MonthlyDaysWithLT0Temp,MonthlyDaysWithGT90Temp,MonthlyDaysWithGT32Temp,MonthlyDaysWithGT1Snow,MonthlyDaysWithGT010Precip,MonthlyDaysWithGT001Precip,MonthlyAvgHeatingDegreeDays,MonthlyAvgCoolingDegreeDays,MonthlyAverageWindSpeed,MonthlyAverageRH,LONGITUDE,LATITUDE,HOURLYWindSpeed,HOURLYWindGustSpeed,HOURLYWindDirection,HOURLYWETBULBTEMPF,HOURLYWETBULBTEMPC,HOURLYVISIBILITY,HOURLYStationPressure,HOURLYSeaLevelPressure,HOURLYSKYCONDITIONS,HOURLYRelativeHumidity,HOURLYPressureTendency,HOURLYPressureChange,HOURLYPrecip,HOURLYPRSENTWEATHERTYPE,HOURLYDewPointTempF,HOURLYDewPointTempC,HOURLYDRYBULBTEMPF,HOURLYDRYBULBTEMPC,HOURLYAltimeterSetting,ELEVATION,DATE,DAILYWeather,DAILYSustainedWindSpeed,DAILYSustainedWindDirection,DAILYSunset,DAILYSunrise,DAILYSnowfall,DAILYSnowDepth,DAILYPrecip,DAILYPeakWindSpeed,DAILYMinimumDryBulbTemp,DAILYMaximumDryBulbTemp,DAILYHeatingDegreeDays,DAILYDeptFromNormalAverageTemp,DAILYCoolingDegreeDays,DAILYAverageWindSpeed,DAILYAverageWetBulbTemp,DAILYAverageStationPressure,DAILYAverageSeaLevelPressure,DAILYAverageRelativeHumidity,DAILYAverageDryBulbTemp,DAILYAverageDewPointTemp
1.10,2016-01-01 00:00:00,2016-01-01 00:00:00,8.8,0,0,N,None,None,None,None,-73.990371704101563,40.734695434570313,2,2,0.5,None,None,0.3,7.5,0.5,-73.981842041015625,40.732406616210937,None,None,2,NY CITY CENTRAL PARK NY US,WBAN:94728,1,FM-15,None,None,None,None,None,None,None,None,None,None,None,None,-9999,-9999,None,None,None,-9999,-9999,None,None,None,None,None,None,None,None,None,None,None,None,None,None,None,None,None,None,None,None,None,None,None,None,-73.9669,40.7889,5,None,VRB,36,2.4,10.00,29.91,30.06,OVC:08 37,51,8,None,0.00,None,25,-3.9,42,5.6,30.08,39.6,2016-01-01 00:51,None,None,None,2139,1220,None,None,None,None,None,None,None,None,None,None,None,None,None,None,None,None
4.90,2016-01-01 00:00:00,2016-01-01 00:00:00,19.3,0,0,N,None,None,None,None,-73.980781555175781,40.729911804199219,1,5,0.5,None,None,0.3,18,0.5,-73.944473266601563,40.716678619384766,None,None,2,NY CITY CENTRAL PARK NY US,WBAN:94728,1,FM-15,None,None,None,None,None,None,None,None,None,None,None,None,-9999,-9999,None,None,None,-9999,-9999,None,None,None,None,None,None,None,None,None,None,None,None,None,None,None,None,None,None,None,None,None,None,None,None,-73.9669,40.7889,5,None,VRB,36,2.4,10.00,29.91,30.06,OVC:08 37,51,8,None,0.00,None,25,-3.9,42,5.6,30.08,39.6,2016-01-01 00:51,None,None,None,2139,1220,None,None,None,None,None,None,None,None,None,None,None,None,None,None,None,None
10.54,2016-01-01 00:00:00,2016-01-01 00:00:00,34.3,0,0,N,None,None,None,None,-73.984550476074219,40.6795654296875,1,1,0.5,None,None,0.3,33,0.5,-73.950271606445313,40.788925170898438,None,None,2,NY CITY CENTRAL PARK NY US,WBAN:94728,1,FM-15,None,None,None,None,None,None,None,None,None,None,None,None,-9999,-9999,None,None,None,-9999,-9999,None,None,None,None,None,None,None,None,None,None,None,None,None,None,None,None,None,None,None,None,None,None,None,None,-73.9669,40.7889,5,None,VRB,36,2.4,10.00,29.91,30.06,OVC:08 37,51,8,None,0.00,None,25,-3.9,42,5.6,30.08,39.6,2016-01-01 00:51,None,None,None,2139,1220,None,None,None,None,None,None,None,None,None,None,None,None,None,None,None,None
4.75,2016-01-01 00:00:00,2016-01-01 00:00:00,17.3,0,0,N,None,None,None,None,-73.99346923828125,40.718990325927734,2,1,0.5,None,None,0.3,16.5,0,-73.962242126464844,40.657333374023437,None,None,2,NY CITY CENTRAL PARK NY US,WBAN:94728,1,FM-15,None,None,None,None,None,None,None,None,None,None,None,None,-9999,-9999,None,None,None,-9999,-9999,None,None,None,None,None,None,None,None,None,None,None,None,None,None,None,None,None,None,None,None,None,None,None,None,-73.9669,40.7889,5,None,VRB,36,2.4,10.00,29.91,30.06,OVC:08 37,51,8,None,0.00,None,25,-3.9,42,5.6,30.08,39.6,2016-01-01 00:51,None,None,None,2139,1220,None,None,None,None,None,None,None,None,None,None,None,None,None,None,None,None
1.76,2016-01-01 00:00:00,2016-01-01 00:00:00,8.8,0,0,N,2016-12-31 00:00:00 | 2016-07-03 00:00:00,2016-01-01 00:00:00 | 2015-10-08 00:00:00,New York | New York,10022 | 10019,-73.960624694824219,40.781330108642578,2,3,0.5,-73.968 | -73.9844951,40.759 | 40.7632328,0.3,8,0,-73.977264404296875,40.758514404296875,New York | New York,2 | 2,2,NY CITY CENTRAL PARK NY US,WBAN:94728,1,FM-15,None,None,None,None,None,None,None,None,None,None,None,None,-9999,-9999,None,None,None,-9999,-9999,None,None,None,None,None,None,None,None,None,None,None,None,None,None,None,None,None,None,None,None,None,None,None,None,-73.9669,40.7889,5,None,VRB,36,2.4,10.00,29.91,30.06,OVC:08 37,51,8,None,0.00,None,25,-3.9,42,5.6,30.08,39.6,2016-01-01 00:51,None,None,None,2139,1220,None,None,None,None,None,None,None,None,None,None,None,None,None,None,None,None
5.52,2016-01-01 00:00:00,2016-01-01 00:18:30,20.3,0,0,N,None,None,None,None,-73.980117797851563,40.743049621582031,2,2,0.5,None,None,0.3,19,0.5,-73.913490295410156,40.763141632080078,None,None,2,NY CITY CENTRAL PARK NY US,WBAN:94728,1,FM-15,None,None,None,None,None,None,None,None,None,None,None,None,-9999,-9999,None,None,None,-9999,-9999,None,None,None,None,None,None,None,None,None,None,None,None,None,None,None,None,None,None,None,None,None,None,None,None,-73.9669,40.7889,5,None,VRB,36,2.4,10.00,29.91,30.06,OVC:08 37,51,8,None,0.00,None,25,-3.9,42,5.6,30.08,39.6,2016-01-01 00:51,None,None,None,2139,1220,None,None,None,None,None,None,None,None,None,None,None,None,None,None,None,None
7.45,2016-01-01 00:00:00,2016-01-01 00:26:45,27.3,0,0,N,None,None,None,None,-73.994056701660156,40.719989776611328,2,2,0.5,None,None,0.3,26,0.5,-73.966361999511719,40.789871215820313,None,None,2,NY CITY CENTRAL PARK NY US,WBAN:94728,1,FM-15,None,None,None,None,None,None,None,None,None,None,None,None,-9999,-9999,None,None,None,-9999,-9999,None,None,None,None,None,None,None,None,None,None,None,None,None,None,None,None,None,None,None,None,None,None,None,None,-73.9669,40.7889,5,None,VRB,36,2.4,10.00,29.91,30.06,OVC:08 37,51,8,None,0.00,None,25,-3.9,42,5.6,30.08,39.6,2016-01-01 00:51,None,None,None,2139,1220,None,None,None,None,None,None,None,None,None,None,None,None,None,None,None,None
1.20,2016-01-01 00:00:01,2016-01-01 00:11:55,10.3,0,0,N,None,None,None,None,-73.979423522949219,40.744613647460938,2,1,0.5,None,None,0.3,9,0.5,-73.992034912109375,40.753944396972656,None,None,1,NY CITY CENTRAL PARK NY US,WBAN:94728,1,FM-15,None,None,None,None,None,None,None,None,None,None,None,None,-9999,-9999,None,None,None,-9999,-9999,None,None,None,None,None,None,None,None,None,None,None,None,None,None,None,None,None,None,None,None,None,None,None,None,-73.9669,40.7889,5,None,VRB,36,2.4,10.00,29.91,30.06,OVC:08 37,51,8,None,0.00,None,25,-3.9,42,5.6,30.08,39.6,2016-01-01 00:51,None,None,None,2139,1220,None,None,None,None,None,None,None,None,None,None,None,None,None,None,None,None
6.00,2016-01-01 00:00:02,2016-01-01 00:11:14,19.3,0,0,N,None,None,None,None,-73.947151184082031,40.791046142578125,2,1,0.5,None,None,0.3,18,0.5,-73.920768737792969,40.865577697753906,None,None,1,NY CITY CENTRAL PARK NY US,WBAN:94728,1,FM-15,None,None,None,None,None,None,None,None,None,None,None,None,-9999,-9999,None,None,None,-9999,-9999,None,None,None,None,None,None,None,None,None,None,None,None,None,None,None,None,None,None,None,None,None,None,None,None,-73.9669,40.7889,5,None,VRB,36,2.4,10.00,29.91,30.06,OVC:08 37,51,8,None,0.00,None,25,-3.9,42,5.6,30.08,39.6,2016-01-01 00:51,None,None,None,2139,1220,None,None,None,None,None,None,None,None,None,None,None,None,None,None,None,None
3.21,2016-01-01 00:00:02,2016-01-01 00:11:08,12.8,0,0,N,None,None,None,None,-73.998344421386719,40.723896026611328,2,1,0.5,None,None,0.3,11.5,0.5,-73.995849609375,40.688400268554688,None,None,2,NY CITY CENTRAL PARK NY US,WBAN:94728,1,FM-15,None,None,None,None,None,None,None,None,None,None,None,None,-9999,-9999,None,None,None,-9999,-9999,None,None,None,None,None,None,None,None,None,None,None,None,None,None,None,None,None,None,None,None,None,None,None,None,-73.9669,40.7889,5,None,VRB,36,2.4,10.00,29.91,30.06,OVC:08 37,51,8,None,0.00,None,25,-3.9,42,5.6,30.08,39.6,2016-01-01 00:51,None,None,None,2139,1220,None,None,None,None,None,None,None,None,None,None,None,None,None,None,None,None
.79,2016-01-01 00:00:03,2016-01-01 00:06:19,7.3,0,0,N,None,None,None,None,-74.006149291992188,40.744918823242188,2,1,0.5,None,None,0.3,6,0.5,-73.993797302246094,40.741439819335938,None,None,2,NY CITY CENTRAL PARK NY US,WBAN:94728,1,FM-15,None,None,None,None,None,None,None,None,None,None,None,None,-9999,-9999,None,None,None,-9999,-9999,None,None,None,None,None,None,None,None,None,None,None,None,None,None,None,None,None,None,None,None,None,None,None,None,-73.9669,40.7889,5,None,VRB,36,2.4,10.00,29.91,30.06,OVC:08 37,51,8,None,0.00,None,25,-3.9,42,5.6,30.08,39.6,2016-01-01 00:51,None,None,None,2139,1220,None,None,None,None,None,None,None,None,None,None,None,None,None,None,None,None
2.43,2016-01-01 00:00:03,2016-01-01 00:15:49,17.29,0,3.99,N,None,None,None,None,-73.969329833984375,40.763538360595703,1,6,0.5,None,None,0.3,12,0.5,-73.995689392089844,40.744251251220703,None,None,2,NY CITY CENTRAL PARK NY US,WBAN:94728,1,FM-15,None,None,None,None,None,None,None,None,None,None,None,None,-9999,-9999,None,None,None,-9999,-9999,None,None,None,None,None,None,None,None,None,None,None,None,None,None,None,None,None,None,None,None,None,None,None,None,-73.9669,40.7889,5,None,VRB,36,2.4,10.00,29.91,30.06,OVC:08 37,51,8,None,0.00,None,25,-3.9,42,5.6,30.08,39.6,2016-01-01 00:51,None,None,None,2139,1220,None,None,None,None,None,None,None,None,None,None,None,None,None,None,None,None
.01,2016-01-01 00:00:03,2016-01-01 00:00:11,3.8,0,0,N,None,None,None,None,-73.989021301269531,40.721538543701172,2,4,0.5,None,None,0.3,2.5,0.5,-73.988960266113281,40.721698760986328,None,None,2,NY CITY CENTRAL PARK NY US,WBAN:94728,1,FM-15,None,None,None,None,None,None,None,None,None,None,None,None,-9999,-9999,None,None,None,-9999,-9999,None,None,None,None,None,None,None,None,None,None,None,None,None,None,None,None,None,None,None,None,None,None,None,None,-73.9669,40.7889,5,None,VRB,36,2.4,10.00,29.91,30.06,OVC:08 37,51,8,None,0.00,None,25,-3.9,42,5.6,30.08,39.6,2016-01-01 00:51,None,None,None,2139,1220,None,None,None,None,None,None,None,None,None,None,None,None,None,None,None,None
3.70,2016-01-01 00:00:04,2016-01-01 00:14:32,18.35,0,3.05,N,None,None,None,None,-74.004302978515625,40.742240905761719,1,1,0.5,None,None,0.3,14,0.5,-74.007362365722656,40.706935882568359,None,None,1,NY CITY CENTRAL PARK NY US,WBAN:94728,1,FM-15,None,None,None,None,None,None,None,None,None,None,None,None,-9999,-9999,None,None,None,-9999,-9999,None,None,None,None,None,None,None,None,None,None,None,None,None,None,None,None,None,None,None,None,None,None,None,None,-73.9669,40.7889,5,None,VRB,36,2.4,10.00,29.91,30.06,OVC:08 37,51,8,None,0.00,None,25,-3.9,42,5.6,30.08,39.6,2016-01-01 00:51,None,None,None,2139,1220,None,None,None,None,None,None,None,None,None,None,None,None,None,None,None,None
2.20,2016-01-01 00:00:05,2016-01-01 00:14:27,13.8,0,1.5,N,None,None,None,None,-73.991996765136719,40.718578338623047,1,2,0.5,None,None,0.3,11,0.5,-74.005134582519531,40.739944458007813,None,None,1,NY CITY CENTRAL PARK NY US,WBAN:94728,1,FM-15,None,None,None,None,None,None,None,None,None,None,None,None,-9999,-9999,None,None,None,-9999,-9999,None,None,None,None,None,None,None,None,None,None,None,None,None,None,None,None,None,None,None,None,None,None,None,None,-73.9669,40.7889,5,None,VRB,36,2.4,10.00,29.91,30.06,OVC:08 37,51,8,None,0.00,None,25,-3.9,42,5.6,30.08,39.6,2016-01-01 00:51,None,None,None,2139,1220,None,None,None,None,None,None,None,None,None,None,None,None,None,None,None,None
.54,2016-01-01 00:00:05,2016-01-01 00:07:17,7.3,0,0,N,2016-07-03 00:00:00,2015-10-08 00:00:00,New York,10019,-73.985160827636719,40.768951416015625,2,1,0.5,-73.9844951,40.7632328,0.3,6,0.5,-73.990226745605469,40.761730194091797,New York,2,2,NY CITY CENTRAL PARK NY US,WBAN:94728,1,FM-15,None,None,None,None,None,None,None,None,None,None,None,None,-9999,-9999,None,None,None,-9999,-9999,None,None,None,None,None,None,None,None,None,None,None,None,None,None,None,None,None,None,None,None,None,None,None,None,-73.9669,40.7889,5,None,VRB,36,2.4,10.00,29.91,30.06,OVC:08 37,51,8,None,0.00,None,25,-3.9,42,5.6,30.08,39.6,2016-01-01 00:51,None,None,None,2139,1220,None,None,None,None,None,None,None,None,None,None,None,None,None,None,None,None
1.92,2016-01-01 00:00:05,2016-01-01 00:07:14,8.8,0,0,N,None,None,None,None,-73.973091125488281,40.795360565185547,2,1,0.5,None,None,0.3,7.5,0.5,-73.978370666503906,40.773151397705078,None,None,2,NY CITY CENTRAL PARK NY US,WBAN:94728,1,FM-15,None,None,None,None,None,None,None,None,None,None,None,None,-9999,-9999,None,None,None,-9999,-9999,None,None,None,None,None,None,None,None,None,None,None,None,None,None,None,None,None,None,None,None,None,None,None,None,-73.9669,40.7889,5,None,VRB,36,2.4,10.00,29.91,30.06,OVC:08 37,51,8,None,0.00,None,25,-3.9,42,5.6,30.08,39.6,2016-01-01 00:51,None,None,None,2139,1220,None,None,None,None,None,None,None,None,None,None,None,None,None,None,None,None
1.70,2016-01-01 00:00:06,2016-01-01 00:04:44,9.95,0,1.65,Y,None,None,None,None,-73.982101440429688,40.774696350097656,1,1,0.5,None,None,0.3,7,0.5,-73.970939636230469,40.796707153320313,None,None,1,NY CITY CENTRAL PARK NY US,WBAN:94728,1,FM-15,None,None,None,None,None,None,None,None,None,None,None,None,-9999,-9999,None,None,None,-9999,-9999,None,None,None,None,None,None,None,None,None,None,None,None,None,None,None,None,None,None,None,None,None,None,None,None,-73.9669,40.7889,5,None,VRB,36,2.4,10.00,29.91,30.06,OVC:08 37,51,8,None,0.00,None,25,-3.9,42,5.6,30.08,39.6,2016-01-01 00:51,None,None,None,2139,1220,None,None,None,None,None,None,None,None,None,None,None,None,None,None,None,None
1.38,2016-01-01 00:00:06,2016-01-01 00:07:14,9.96,0,1.66,N,None,None,None,None,-73.994842529296875,40.718498229980469,1,1,0.5,None,None,0.3,7,0.5,-73.98980712890625,40.734230041503906,None,None,2,NY CITY CENTRAL PARK NY US,WBAN:94728,1,FM-15,None,None,None,None,None,None,None,None,None,None,None,None,-9999,-9999,None,None,None,-9999,-9999,None,None,None,None,None,None,None,None,None,None,None,None,None,None,None,None,None,None,None,None,None,None,None,None,-73.9669,40.7889,5,None,VRB,36,2.4,10.00,29.91,30.06,OVC:08 37,51,8,None,0.00,None,25,-3.9,42,5.6,30.08,39.6,2016-01-01 00:51,None,None,None,2139,1220,None,None,None,None,None,None,None,None,None,None,None,None,None,None,None,None
4.90,2016-01-01 00:00:07,2016-01-01 00:20:35,24.36,0,4.06,N,None,None,None,None,-73.953033447265625,40.672115325927734,1,2,0.5,None,None,0.3,19,0.5,-73.986572265625,40.710594177246094,None,None,1,NY CITY CENTRAL PARK NY US,WBAN:94728,1,FM-15,None,None,None,None,None,None,None,None,None,None,None,None,-9999,-9999,None,None,None,-9999,-9999,None,None,None,None,None,None,None,None,None,None,None,None,None,None,None,None,None,None,None,None,None,None,None,None,-73.9669,40.7889,5,None,VRB,36,2.4,10.00,29.91,30.06,OVC:08 37,51,8,None,0.00,None,25,-3.9,42,5.6,30.08,39.6,2016-01-01 00:51,None,None,None,2139,1220,None,None,None,None,None,None,None,None,None,None,None,None,None,None,None,None
1.80,2016-01-01 00:00:07,2016-01-01 00:09:49,10.3,0,0,N,None | None,2016-01-01 00:00:00 | 2016-01-01 00:00:00,New York | New York,None | None,-73.989166259765625,40.726589202880859,2,1,0.5,-74.0064 | -74.0064,40.7142 | 40.7142,0.3,9,0.5,-74.009483337402344,40.715072631835938,New York | New York,1 | 1,1,NY CITY CENTRAL PARK NY US,WBAN:94728,1,FM-15,None,None,None,None,None,None,None,None,None,None,None,None,-9999,-9999,None,None,None,-9999,-9999,None,None,None,None,None,None,None,None,None,None,None,None,None,None,None,None,None,None,None,None,None,None,None,None,-73.9669,40.7889,5,None,VRB,36,2.4,10.00,29.91,30.06,OVC:08 37,51,8,None,0.00,None,25,-3.9,42,5.6,30.08,39.6,2016-01-01 00:51,None,None,None,2139,1220,None,None,None,None,None,None,None,None,None,None,None,None,None,None,None,None
3.09,2016-01-01 00:00:08,2016-01-01 00:18:51,15.8,0,0,N,2016-12-31 00:00:00,2016-01-01 00:00:00,New York,10022,-73.999069213867188,40.720172882080078,2,1,0.5,-73.968,40.759,0.3,14.5,0.5,-73.973388671875,40.756561279296875,New York,2,2,NY CITY CENTRAL PARK NY US,WBAN:94728,1,FM-15,None,None,None,None,None,None,None,None,None,None,None,None,-9999,-9999,None,None,None,-9999,-9999,None,None,None,None,None,None,None,None,None,None,None,None,None,None,None,None,None,None,None,None,None,None,None,None,-73.9669,40.7889,5,None,VRB,36,2.4,10.00,29.91,30.06,OVC:08 37,51,8,None,0.00,None,25,-3.9,42,5.6,30.08,39.6,2016-01-01 00:51,None,None,None,2139,1220,None,None,None,None,None,None,None,None,None,None,None,None,None,None,None,None
.72,2016-01-01 00:00:08,2016-01-01 00:04:37,6.3,0,0,N,None,None,None,None,-73.997138977050781,40.747219085693359,2,1,0.5,None,None,0.3,5,0.5,-74.004486083984375,40.751796722412109,None,None,2,NY CITY CENTRAL PARK NY US,WBAN:94728,1,FM-15,None,None,None,None,None,None,None,None,None,None,None,None,-9999,-9999,None,None,None,-9999,-9999,None,None,None,None,None,None,None,None,None,None,None,None,None,None,None,None,None,None,None,None,None,None,None,None,-73.9669,40.7889,5,None,VRB,36,2.4,10.00,29.91,30.06,OVC:08 37,51,8,None,0.00,None,25,-3.9,42,5.6,30.08,39.6,2016-01-01 00:51,None,None,None,2139,1220,None,None,None,None,None,None,None,None,None,None,None,None,None,None,None,None
.69,2016-01-01 00:00:08,2016-01-01 00:03:24,5.8,0,0,N,None,None,None,None,-73.997413635253906,40.736675262451172,2,1,0.5,None,None,0.3,4.5,0.5,-73.985664367675781,40.732681274414063,None,None,2,NY CITY CENTRAL PARK NY US,WBAN:94728,1,FM-15,None,None,None,None,None,None,None,None,None,None,None,None,-9999,-9999,None,None,None,-9999,-9999,None,None,None,None,None,None,None,None,None,None,None,None,None,None,None,None,None,None,None,None,None,None,None,None,-73.9669,40.7889,5,None,VRB,36,2.4,10.00,29.91,30.06,OVC:08 37,51,8,None,0.00,None,25,-3.9,42,5.6,30.08,39.6,2016-01-01 00:51,None,None,None,2139,1220,None,None,None,None,None,None,None,None,None,None,None,None,None,None,None,None
5.30,2016-01-01 00:00:09,2016-01-01 00:19:03,23.15,0,3.85,N,None,None,None,None,-73.99713134765625,40.736961364746094,1,3,0.5,None,None,0.3,18,0.5,-73.928421020507813,40.755580902099609,None,None,1,NY CITY CENTRAL PARK NY US,WBAN:94728,1,FM-15,None,None,None,None,None,None,None,None,None,None,None,None,-9999,-9999,None,None,None,-9999,-9999,None,None,None,None,None,None,None,None,None,None,None,None,None,None,None,None,None,None,None,None,None,None,None,None,-73.9669,40.7889,5,None,VRB,36,2.4,10.00,29.91,30.06,OVC:08 37,51,8,None,0.00,None,25,-3.9,42,5.6,30.08,39.6,2016-01-01 00:51,None,None,None,2139,1220,None,None,None,None,None,None,None,None,None,None,None,None,None,None,None,None
1.20,2016-01-01 00:00:09,2016-01-01 00:07:18,8.3,0,0,N,None,None,None,None,-73.963912963867188,40.712173461914062,2,2,0.5,None,None,0.3,7,0.5,-73.951332092285156,40.712200164794922,None,None,1,NY CITY CENTRAL PARK NY US,WBAN:94728,1,FM-15,None,None,None,None,None,None,None,None,None,None,None,None,-9999,-9999,None,None,None,-9999,-9999,None,None,None,None,None,None,None,None,None,None,None,None,None,None,None,None,None,None,None,None,None,None,None,None,-73.9669,40.7889,5,None,VRB,36,2.4,10.00,29.91,30.06,OVC:08 37,51,8,None,0.00,None,25,-3.9,42,5.6,30.08,39.6,2016-01-01 00:51,None,None,None,2139,1220,None,None,None,None,None,None,None,None,None,None,None,None,None,None,None,None
.97,2016-01-01 00:00:10,2016-01-01 00:06:15,7.3,0,0,N,None,None,None,None,-73.999397277832031,40.743900299072266,2,2,0.5,None,None,0.3,6,0.5,-73.988876342773438,40.745319366455078,None,None,2,NY CITY CENTRAL PARK NY US,WBAN:94728,1,FM-15,None,None,None,None,None,None,None,None,None,None,None,None,-9999,-9999,None,None,None,-9999,-9999,None,None,None,None,None,None,None,None,None,None,None,None,None,None,None,None,None,None,None,None,None,None,None,None,-73.9669,40.7889,5,None,VRB,36,2.4,10.00,29.91,30.06,OVC:08 37,51,8,None,0.00,None,25,-3.9,42,5.6,30.08,39.6,2016-01-01 00:51,None,None,None,2139,1220,None,None,None,None,None,None,None,None,None,None,None,None,None,None,None,None
.87,2016-01-01 00:00:10,2016-01-01 00:02:20,5.8,0,0,N,None,None,None,None,-73.95440673828125,40.778068542480469,2,1,0.5,None,None,0.3,4.5,0.5,-73.948928833007813,40.788581848144531,None,None,2,NY CITY CENTRAL PARK NY US,WBAN:94728,1,FM-15,None,None,None,None,None,None,None,None,None,None,None,None,-9999,-9999,None,None,None,-9999,-9999,None,None,None,None,None,None,None,None,None,None,None,None,None,None,None,None,None,None,None,None,None,None,None,None,-73.9669,40.7889,5,None,VRB,36,2.4,10.00,29.91,30.06,OVC:08 37,51,8,None,0.00,None,25,-3.9,42,5.6,30.08,39.6,2016-01-01 00:51,None,None,None,2139,1220,None,None,None,None,None,None,None,None,None,None,None,None,None,None,None,None
.13,2016-01-01 00:00:12,2016-01-01 00:01:17,4.3,0,0,N,None,None,None,None,-73.991653442382813,40.754558563232422,2,1,0.5,None,None,0.3,3,0.5,-73.9906005859375,40.756118774414063,None,None,2,NY CITY CENTRAL PARK NY US,WBAN:94728,1,FM-15,None,None,None,None,None,None,None,None,None,None,None,None,-9999,-9999,None,None,None,-9999,-9999,None,None,None,None,None,None,None,None,None,None,None,None,None,None,None,None,None,None,None,None,None,None,None,None,-73.9669,40.7889,5,None,VRB,36,2.4,10.00,29.91,30.06,OVC:08 37,51,8,None,0.00,None,25,-3.9,42,5.6,30.08,39.6,2016-01-01 00:51,None,None,None,2139,1220,None,None,None,None,None,None,None,None,None,None,None,None,None,None,None,None
2.40,2016-01-01 00:00:14,2016-01-01 00:13:02,15.35,0,3.05,N,None | 2016-07-03 00:00:00,2016-01-01 00:00:00 | 2015-10-08 00:00:00,New York | New York,10019 | 10019,-73.995597839355469,40.744239807128906,1,1,0.5,-73.9803996 | -73.9844951,40.7656668 | 40.7632328,0.3,11,0.5,-73.985458374023438,40.768711090087891,New York | New York,1 | 2,1,NY CITY CENTRAL PARK NY US,WBAN:94728,1,FM-15,None,None,None,None,None,None,None,None,None,None,None,None,-9999,-9999,None,None,None,-9999,-9999,None,None,None,None,None,None,None,None,None,None,None,None,None,None,None,None,None,None,None,None,None,None,None,None,-73.9669,40.7889,5,None,VRB,36,2.4,10.00,29.91,30.06,OVC:08 37,51,8,None,0.00,None,25,-3.9,42,5.6,30.08,39.6,2016-01-01 00:51,None,None,None,2139,1220,None,None,None,None,None,None,None,None,None,None,None,None,None,None,None,None
.44,2016-01-01 00:00:14,2016-01-01 00:02:38,6.36,0,1.06,N,None,None,None,None,-73.990272521972656,40.772010803222656,1,2,0.5,None,None,0.3,4,0.5,-73.995040893554687,40.769771575927734,None,None,2,NY CITY CENTRAL PARK NY US,WBAN:94728,1,FM-15,None,None,None,None,None,None,None,None,None,None,None,None,-9999,-9999,None,None,None,-9999,-9999,None,None,None,None,None,None,None,None,None,None,None,None,None,None,None,None,None,None,None,None,None,None,None,None,-73.9669,40.7889,5,None,VRB,36,2.4,10.00,29.91,30.06,OVC:08 37,51,8,None,0.00,None,25,-3.9,42,5.6,30.08,39.6,2016-01-01 00:51,None,None,None,2139,1220,None,None,None,None,None,None,None,None,None,None,None,None,None,None,None,None
1.56,2016-01-01 00:00:15,2016-01-01 00:06:31,8.8,0,0,N,None,None,None,None,-73.940109252929687,40.751152038574219,2,1,0.5,None,None,0.3,7.5,0.5,-73.930023193359375,40.767051696777344,None,None,2,NY CITY CENTRAL PARK NY US,WBAN:94728,1,FM-15,None,None,None,None,None,None,None,None,None,None,None,None,-9999,-9999,None,None,None,-9999,-9999,None,None,None,None,None,None,None,None,None,None,None,None,None,None,None,None,None,None,None,None,None,None,None,None,-73.9669,40.7889,5,None,VRB,36,2.4,10.00,29.91,30.06,OVC:08 37,51,8,None,0.00,None,25,-3.9,42,5.6,30.08,39.6,2016-01-01 00:51,None,None,None,2139,1220,None,None,None,None,None,None,None,None,None,None,None,None,None,None,None,None
2.90,2016-01-01 00:00:16,2016-01-01 00:33:00,21.8,0,0,N,None,None,None,None,-73.982154846191406,40.774879455566406,2,2,0.5,None,None,0.3,20.5,0.5,-73.981361389160156,40.744113922119141,None,None,1,NY CITY CENTRAL PARK NY US,WBAN:94728,1,FM-15,None,None,None,None,None,None,None,None,None,None,None,None,-9999,-9999,None,None,None,-9999,-9999,None,None,None,None,None,None,None,None,None,None,None,None,None,None,None,None,None,None,None,None,None,None,None,None,-73.9669,40.7889,5,None,VRB,36,2.4,10.00,29.91,30.06,OVC:08 37,51,8,None,0.00,None,25,-3.9,42,5.6,30.08,39.6,2016-01-01 00:51,None,None,None,2139,1220,None,None,None,None,None,None,None,None,None,None,None,None,None,None,None,None
1.20,2016-01-01 00:00:17,2016-01-01 00:19:14,13.8,0,0,N,None,None,None,None,-74.008064270019531,40.742069244384766,3,1,0.5,None,None,0.3,12.5,0.5,-74.002288818359375,40.742164611816406,None,None,1,NY CITY CENTRAL PARK NY US,WBAN:94728,1,FM-15,None,None,None,None,None,None,None,None,None,None,None,None,-9999,-9999,None,None,None,-9999,-9999,None,None,None,None,None,None,None,None,None,None,None,None,None,None,None,None,None,None,None,None,None,None,None,None,-73.9669,40.7889,5,None,VRB,36,2.4,10.00,29.91,30.06,OVC:08 37,51,8,None,0.00,None,25,-3.9,42,5.6,30.08,39.6,2016-01-01 00:51,None,None,None,2139,1220,None,None,None,None,None,None,None,None,None,None,None,None,None,None,None,None
1.50,2016-01-01 00:00:17,2016-01-01 00:13:59,14.65,0,3.35,N,None,None,None,None,-74.002677917480469,40.730636596679688,1,1,0.5,None,None,0.3,10,0.5,-73.980422973632813,40.726211547851563,None,None,1,NY CITY CENTRAL PARK NY US,WBAN:94728,1,FM-15,None,None,None,None,None,None,None,None,None,None,None,None,-9999,-9999,None,None,None,-9999,-9999,None,None,None,None,None,None,None,None,None,None,None,None,None,None,None,None,None,None,None,None,None,None,None,None,-73.9669,40.7889,5,None,VRB,36,2.4,10.00,29.91,30.06,OVC:08 37,51,8,None,0.00,None,25,-3.9,42,5.6,30.08,39.6,2016-01-01 00:51,None,None,None,2139,1220,None,None,None,None,None,None,None,None,None,None,None,None,None,None,None,None
2.32,2016-01-01 00:00:17,2016-01-01 00:42:23,20.3,0,0,N,None,None,None,None,-73.981658935546875,40.773738861083984,2,1,0.5,None,None,0.3,19,0.5,-73.995964050292969,40.753837585449219,None,None,2,NY CITY CENTRAL PARK NY US,WBAN:94728,1,FM-15,None,None,None,None,None,None,None,None,None,None,None,None,-9999,-9999,None,None,None,-9999,-9999,None,None,None,None,None,None,None,None,None,None,None,None,None,None,None,None,None,None,None,None,None,None,None,None,-73.9669,40.7889,5,None,VRB,36,2.4,10.00,29.91,30.06,OVC:08 37,51,8,None,0.00,None,25,-3.9,42,5.6,30.08,39.6,2016-01-01 00:51,None,None,None,2139,1220,None,None,None,None,None,None,None,None,None,None,None,None,None,None,None,None
9.63,2016-01-01 00:00:17,2016-01-01 00:14:26,36.79,0,8.49,N,None,None,None,None,-73.981742858886719,40.719158172607422,1,5,0.5,None,None,0.3,27,0.5,-73.938827514648438,40.829181671142578,None,None,2,NY CITY CENTRAL PARK NY US,WBAN:94728,1,FM-15,None,None,None,None,None,None,None,None,None,None,None,None,-9999,-9999,None,None,None,-9999,-9999,None,None,None,None,None,None,None,None,None,None,None,None,None,None,None,None,None,None,None,None,None,None,None,None,-73.9669,40.7889,5,None,VRB,36,2.4,10.00,29.91,30.06,OVC:08 37,51,8,None,0.00,None,25,-3.9,42,5.6,30.08,39.6,2016-01-01 00:51,None,None,None,2139,1220,None,None,None,None,None,None,None,None,None,None,None,None,None,None,None,None
1.17,2016-01-01 00:00:18,2016-01-01 00:05:44,7.3,0,0,N,None,None,None,None,-73.963058471679688,40.775016784667969,2,5,0.5,None,None,0.3,6,0.5,-73.951744079589844,40.778800964355469,None,None,2,NY CITY CENTRAL PARK NY US,WBAN:94728,1,FM-15,None,None,None,None,None,None,None,None,None,None,None,None,-9999,-9999,None,None,None,-9999,-9999,None,None,None,None,None,None,None,None,None,None,None,None,None,None,None,None,None,None,None,None,None,None,None,None,-73.9669,40.7889,5,None,VRB,36,2.4,10.00,29.91,30.06,OVC:08 37,51,8,None,0.00,None,25,-3.9,42,5.6,30.08,39.6,2016-01-01 00:51,None,None,None,2139,1220,None,None,None,None,None,None,None,None,None,None,None,None,None,None,None,None
3.40,2016-01-01 00:00:19,2016-01-01 00:19:33,15.8,0,0,N,None,None,None,None,0,0,2,1,0.5,None,None,0.3,14.5,0.5,0,0,None,None,1,NY CITY CENTRAL PARK NY US,WBAN:94728,1,FM-15,None,None,None,None,None,None,None,None,None,None,None,None,-9999,-9999,None,None,None,-9999,-9999,None,None,None,None,None,None,None,None,None,None,None,None,None,None,None,None,None,None,None,None,None,None,None,None,-73.9669,40.7889,5,None,VRB,36,2.4,10.00,29.91,30.06,OVC:08 37,51,8,None,0.00,None,25,-3.9,42,5.6,30.08,39.6,2016-01-01 00:51,None,None,None,2139,1220,None,None,None,None,None,None,None,None,None,None,None,None,None,None,None,None
1.32,2016-01-01 00:00:19,2016-01-01 00:06:31,7.8,0,0,N,None,None,None,None,-73.961257934570313,40.796199798583984,2,3,0.5,None,None,0.3,6.5,0.5,-73.950050354003906,40.787311553955078,None,None,2,NY CITY CENTRAL PARK NY US,WBAN:94728,1,FM-15,None,None,None,None,None,None,None,None,None,None,None,None,-9999,-9999,None,None,None,-9999,-9999,None,None,None,None,None,None,None,None,None,None,None,None,None,None,None,None,None,None,None,None,None,None,None,None,-73.9669,40.7889,5,None,VRB,36,2.4,10.00,29.91,30.06,OVC:08 37,51,8,None,0.00,None,25,-3.9,42,5.6,30.08,39.6,2016-01-01 00:51,None,None,None,2139,1220,None,None,None,None,None,None,None,None,None,None,None,None,None,None,None,None
13.00,2016-01-01 00:00:20,2016-01-01 00:29:05,37.8,0,0,N,None,None,None,None,-73.98223876953125,40.757701873779297,2,1,0.5,None,None,0.3,36.5,0.5,-73.909309387207031,40.862049102783203,None,None,1,NY CITY CENTRAL PARK NY US,WBAN:94728,1,FM-15,None,None,None,None,None,None,None,None,None,None,None,None,-9999,-9999,None,None,None,-9999,-9999,None,None,None,None,None,None,None,None,None,None,None,None,None,None,None,None,None,None,None,None,None,None,None,None,-73.9669,40.7889,5,None,VRB,36,2.4,10.00,29.91,30.06,OVC:08 37,51,8,None,0.00,None,25,-3.9,42,5.6,30.08,39.6,2016-01-01 00:51,None,None,None,2139,1220,None,None,None,None,None,None,None,None,None,None,None,None,None,None,None,None
.70,2016-01-01 00:00:21,2016-01-01 00:17:30,12.3,0,0,Y,None,None,None,None,-73.894126892089844,40.636573791503906,2,1,0.5,None,None,0.3,11,0.5,-73.892501831054687,40.634834289550781,None,None,1,NY CITY CENTRAL PARK NY US,WBAN:94728,1,FM-15,None,None,None,None,None,None,None,None,None,None,None,None,-9999,-9999,None,None,None,-9999,-9999,None,None,None,None,None,None,None,None,None,None,None,None,None,None,None,None,None,None,None,None,None,None,None,None,-73.9669,40.7889,5,None,VRB,36,2.4,10.00,29.91,30.06,OVC:08 37,51,8,None,0.00,None,25,-3.9,42,5.6,30.08,39.6,2016-01-01 00:51,None,None,None,2139,1220,None,None,None,None,None,None,None,None,None,None,None,None,None,None,None,None
5.40,2016-01-01 00:00:21,2016-01-01 00:32:09,25.8,0,0,N,None,None,None,None,-73.946418762207031,40.789138793945313,2,1,0.5,None,None,0.3,24.5,0.5,-73.915901184082031,40.851547241210937,None,None,1,NY CITY CENTRAL PARK NY US,WBAN:94728,1,FM-15,None,None,None,None,None,None,None,None,None,None,None,None,-9999,-9999,None,None,None,-9999,-9999,None,None,None,None,None,None,None,None,None,None,None,None,None,None,None,None,None,None,None,None,None,None,None,None,-73.9669,40.7889,5,None,VRB,36,2.4,10.00,29.91,30.06,OVC:08 37,51,8,None,0.00,None,25,-3.9,42,5.6,30.08,39.6,2016-01-01 00:51,None,None,None,2139,1220,None,None,None,None,None,None,None,None,None,None,None,None,None,None,None,None
3.30,2016-01-01 00:00:22,2016-01-01 00:12:12,15.96,0,2.66,N,None,None,None,None,-73.975677490234375,40.749099731445313,1,1,0.5,None,None,0.3,12,0.5,-73.973648071289063,40.78369140625,None,None,2,NY CITY CENTRAL PARK NY US,WBAN:94728,1,FM-15,None,None,None,None,None,None,None,None,None,None,None,None,-9999,-9999,None,None,None,-9999,-9999,None,None,None,None,None,None,None,None,None,None,None,None,None,None,None,None,None,None,None,None,None,None,None,None,-73.9669,40.7889,5,None,VRB,36,2.4,10.00,29.91,30.06,OVC:08 37,51,8,None,0.00,None,25,-3.9,42,5.6,30.08,39.6,2016-01-01 00:51,None,None,None,2139,1220,None,None,None,None,None,None,None,None,None,None,None,None,None,None,None,None
2.94,2016-01-01 00:00:22,2016-01-01 00:13:37,13.3,0,0,N,None,None,None,None,-73.949691772460938,40.784618377685547,2,6,0.5,None,None,0.3,12,0.5,-73.971031188964844,40.751018524169922,None,None,2,NY CITY CENTRAL PARK NY US,WBAN:94728,1,FM-15,None,None,None,None,None,None,None,None,None,None,None,None,-9999,-9999,None,None,None,-9999,-9999,None,None,None,None,None,None,None,None,None,None,None,None,None,None,None,None,None,None,None,None,None,None,None,None,-73.9669,40.7889,5,None,VRB,36,2.4,10.00,29.91,30.06,OVC:08 37,51,8,None,0.00,None,25,-3.9,42,5.6,30.08,39.6,2016-01-01 00:51,None,None,None,2139,1220,None,None,None,None,None,None,None,None,None,None,None,None,None,None,None,None
5.23,2016-01-01 00:00:22,2016-01-01 00:13:58,18.8,0,0,N,2022-04-16 02:00:00,2016-01-01 00:00:00,New York,None,-73.981849670410156,40.716880798339844,2,2,0.5,-73.9651814,40.7745779,0.3,17.5,0.5,-73.969329833984375,40.769378662109375,New York,1,2,NY CITY CENTRAL PARK NY US,WBAN:94728,1,FM-15,None,None,None,None,None,None,None,None,None,None,None,None,-9999,-9999,None,None,None,-9999,-9999,None,None,None,None,None,None,None,None,None,None,None,None,None,None,None,None,None,None,None,None,None,None,None,None,-73.9669,40.7889,5,None,VRB,36,2.4,10.00,29.91,30.06,OVC:08 37,51,8,None,0.00,None,25,-3.9,42,5.6,30.08,39.6,2016-01-01 00:51,None,None,None,2139,1220,None,None,None,None,None,None,None,None,None,None,None,None,None,None,None,None
1.30,2016-01-01 00:00:26,2016-01-01 00:07:41,10.55,0,1.75,N,None,None,None,None,-73.96588134765625,40.688564300537109,1,1,0.5,None,None,0.3,7.5,0.5,-73.962692260742187,40.671928405761719,None,None,1,NY CITY CENTRAL PARK NY US,WBAN:94728,1,FM-15,None,None,None,None,None,None,None,None,None,None,None,None,-9999,-9999,None,None,None,-9999,-9999,None,None,None,None,None,None,None,None,None,None,None,None,None,None,None,None,None,None,None,None,None,None,None,None,-73.9669,40.7889,5,None,VRB,36,2.4,10.00,29.91,30.06,OVC:08 37,51,8,None,0.00,None,25,-3.9,42,5.6,30.08,39.6,2016-01-01 00:51,None,None,None,2139,1220,None,None,None,None,None,None,None,None,None,None,None,None,None,None,None,None
4.70,2016-01-01 00:00:27,2016-01-01 00:17:41,20.3,0,2,N,None | None,2016-01-01 00:00:00 | 2016-01-01 00:00:00,New York | New York,None | None,-73.995864868164063,40.767772674560547,1,1,0.5,-74.0064 | -74.0064,40.7142 | 40.7142,0.3,17,0.5,-74.009605407714844,40.709926605224609,New York | New York,1 | 1,1,NY CITY CENTRAL PARK NY US,WBAN:94728,1,FM-15,None,None,None,None,None,None,None,None,None,None,None,None,-9999,-9999,None,None,None,-9999,-9999,None,None,None,None,None,None,None,None,None,None,None,None,None,None,None,None,None,None,None,None,None,None,None,None,-73.9669,40.7889,5,None,VRB,36,2.4,10.00,29.91,30.06,OVC:08 37,51,8,None,0.00,None,25,-3.9,42,5.6,30.08,39.6,2016-01-01 00:51,None,None,None,2139,1220,None,None,None,None,None,None,None,None,None,None,None,None,None,None,None,None
.83,2016-01-01 00:00:27,2016-01-01 00:08:40,8.3,0,0,N,None,None,None,None,-73.978767395019531,40.745105743408203,2,1,0.5,None,None,0.3,7,0.5,-73.992210388183594,40.749309539794922,None,None,2,NY CITY CENTRAL PARK NY US,WBAN:94728,1,FM-15,None,None,None,None,None,None,None,None,None,None,None,None,-9999,-9999,None,None,None,-9999,-9999,None,None,None,None,None,None,None,None,None,None,None,None,None,None,None,None,None,None,None,None,None,None,None,None,-73.9669,40.7889,5,None,VRB,36,2.4,10.00,29.91,30.06,OVC:08 37,51,8,None,0.00,None,25,-3.9,42,5.6,30.08,39.6,2016-01-01 00:51,None,None,None,2139,1220,None,None,None,None,None,None,None,None,None,None,None,None,None,None,None,None
15.40,2016-01-01 00:00:28,2016-01-01 00:22:51,51.35,0,8.55,N,None,None,None,None,-73.97650146484375,40.733562469482422,1,1,0.5,None,None,0.3,41.5,0.5,-73.854263305664062,40.891788482666016,None,None,1,NY CITY CENTRAL PARK NY US,WBAN:94728,1,FM-15,None,None,None,None,None,None,None,None,None,None,None,None,-9999,-9999,None,None,None,-9999,-9999,None,None,None,None,None,None,None,None,None,None,None,None,None,None,None,None,None,None,None,None,None,None,None,None,-73.9669,40.7889,5,None,VRB,36,2.4,10.00,29.91,30.06,OVC:08 37,51,8,None,0.00,None,25,-3.9,42,5.6,30.08,39.6,2016-01-01 00:51,None,None,None,2139,1220,None,None,None,None,None,None,None,None,None,None,None,None,None,None,None,None
1.64,2016-01-01 00:00:29,2016-01-01 00:08:45,9.8,0,0,N,None,None,None,None,-73.969375610351562,40.785236358642578,1,3,0.5,None,None,0.3,8.5,0.5,-73.945564270019531,40.777980804443359,None,None,2,NY CITY CENTRAL PARK NY US,WBAN:94728,1,FM-15,None,None,None,None,None,None,None,None,None,None,None,None,-9999,-9999,None,None,None,-9999,-9999,None,None,None,None,None,None,None,None,None,None,None,None,None,None,None,None,None,None,None,None,None,None,None,None,-73.9669,40.7889,5,None,VRB,36,2.4,10.00,29.91,30.06,OVC:08 37,51,8,None,0.00,None,25,-3.9,42,5.6,30.08,39.6,2016-01-01 00:51,None,None,None,2139,1220,None,None,None,None,None,None,None,None,None,None,None,None,None,None,None,None
5.10,2016-01-01 00:00:30,2016-01-01 00:15:47,21.62,0,2.82,N,None,None,None,None,-73.990585327148438,40.745880126953125,1,1,0.5,None,None,0.3,17.5,0.5,-73.969886779785156,40.801265716552734,None,None,1,NY CITY CENTRAL PARK NY US,WBAN:94728,1,FM-15,None,None,None,None,None,None,None,None,None,None,None,None,-9999,-9999,None,None,None,-9999,-9999,None,None,None,None,None,None,None,None,None,None,None,None,None,None,None,None,None,None,None,None,None,None,None,None,-73.9669,40.7889,5,None,VRB,36,2.4,10.00,29.91,30.06,OVC:08 37,51,8,None,0.00,None,25,-3.9,42,5.6,30.08,39.6,2016-01-01 00:51,None,None,None,2139,1220,None,None,None,None,None,None,None,None,None,None,None,None,None,None,None,None
1.10,2016-01-01 00:00:30,2016-01-01 00:18:25,12.8,0,0,N,None,None,None,None,-73.974342346191406,40.756660461425781,2,1,0.5,None,None,0.3,11.5,0.5,-73.981483459472656,40.753715515136719,None,None,2,NY CITY CENTRAL PARK NY US,WBAN:94728,1,FM-15,None,None,None,None,None,None,None,None,None,None,None,None,-9999,-9999,None,None,None,-9999,-9999,None,None,None,None,None,None,None,None,None,None,None,None,None,None,None,None,None,None,None,None,None,None,None,None,-73.9669,40.7889,5,None,VRB,36,2.4,10.00,29.91,30.06,OVC:08 37,51,8,None,0.00,None,25,-3.9,42,5.6,30.08,39.6,2016-01-01 00:51,None,None,None,2139,1220,None,None,None,None,None,None,None,None,None,None,None,None,None,None,None,None
.35,2016-01-01 00:00:30,2016-01-01 00:03:06,6.89,0,1.59,N,None,None,None,None,-73.992347717285156,40.743438720703125,1,1,0.5,None,None,0.3,4,0.5,-73.996421813964844,40.746063232421875,None,None,2,NY CITY CENTRAL PARK NY US,WBAN:94728,1,FM-15,None,None,None,None,None,None,None,None,None,None,None,None,-9999,-9999,None,None,None,-9999,-9999,None,None,None,None,None,None,None,None,None,None,None,None,None,None,None,None,None,None,None,None,None,None,None,None,-73.9669,40.7889,5,None,VRB,36,2.4,10.00,29.91,30.06,OVC:08 37,51,8,None,0.00,None,25,-3.9,42,5.6,30.08,39.6,2016-01-01 00:51,None,None,None,2139,1220,None,None,None,None,None,None,None,None,None,None,None,None,None,None,None,None
1.30,2016-01-01 00:00:31,2016-01-01 00:03:57,6.8,0,0,N,None,None,None,None,-73.933525085449219,40.802928924560547,2,1,0.5,None,None,0.3,5.5,0.5,-73.945671081542969,40.785984039306641,None,None,1,NY CITY CENTRAL PARK NY US,WBAN:94728,1,FM-15,None,None,None,None,None,None,None,None,None,None,None,None,-9999,-9999,None,None,None,-9999,-9999,None,None,None,None,None,None,None,None,None,None,None,None,None,None,None,None,None,None,None,None,None,None,None,None,-73.9669,40.7889,5,None,VRB,36,2.4,10.00,29.91,30.06,OVC:08 37,51,8,None,0.00,None,25,-3.9,42,5.6,30.08,39.6,2016-01-01 00:51,None,None,None,2139,1220,None,None,None,None,None,None,None,None,None,None,None,None,None,None,None,None
7.25,2016-01-01 00:00:32,2016-01-01 00:27:02,27.3,0,0,N,None,None,None,None,-73.972953796386719,40.755718231201172,2,5,0.5,None,None,0.3,26,0.5,-73.978813171386719,40.684551239013672,None,None,2,NY CITY CENTRAL PARK NY US,WBAN:94728,1,FM-15,None,None,None,None,None,None,None,None,None,None,None,None,-9999,-9999,None,None,None,-9999,-9999,None,None,None,None,None,None,None,None,None,None,None,None,None,None,None,None,None,None,None,None,None,None,None,None,-73.9669,40.7889,5,None,VRB,36,2.4,10.00,29.91,30.06,OVC:08 37,51,8,None,0.00,None,25,-3.9,42,5.6,30.08,39.6,2016-01-01 00:51,None,None,None,2139,1220,None,None,None,None,None,None,None,None,None,None,None,None,None,None,None,None
3.60,2016-01-01 00:00:32,2016-01-01 00:13:20,17.76,0,2.96,N,None,None,None,None,-73.9969482421875,40.720500946044922,1,5,0.5,None,None,0.3,13.5,0.5,-73.958183288574219,40.721790313720703,None,None,2,NY CITY CENTRAL PARK NY US,WBAN:94728,1,FM-15,None,None,None,None,None,None,None,None,None,None,None,None,-9999,-9999,None,None,None,-9999,-9999,None,None,None,None,None,None,None,None,None,None,None,None,None,None,None,None,None,None,None,None,None,None,None,None,-73.9669,40.7889,5,None,VRB,36,2.4,10.00,29.91,30.06,OVC:08 37,51,8,None,0.00,None,25,-3.9,42,5.6,30.08,39.6,2016-01-01 00:51,None,None,None,2139,1220,None,None,None,None,None,None,None,None,None,None,None,None,None,None,None,None
.32,2016-01-01 00:00:32,2016-01-01 00:09:37,8.3,0,0,N,None,None,None,None,-73.993759155273438,40.751621246337891,1,6,0.5,None,None,0.3,7,0.5,-73.990867614746094,40.756088256835937,None,None,2,NY CITY CENTRAL PARK NY US,WBAN:94728,1,FM-15,None,None,None,None,None,None,None,None,None,None,None,None,-9999,-9999,None,None,None,-9999,-9999,None,None,None,None,None,None,None,None,None,None,None,None,None,None,None,None,None,None,None,None,None,None,None,None,-73.9669,40.7889,5,None,VRB,36,2.4,10.00,29.91,30.06,OVC:08 37,51,8,None,0.00,None,25,-3.9,42,5.6,30.08,39.6,2016-01-01 00:51,None,None,None,2139,1220,None,None,None,None,None,None,None,None,None,None,None,None,None,None,None,None
3.70,2016-01-01 00:00:34,2016-01-01 00:10:36,20,0,5.7,N,None,None,None,None,-73.978317260742188,40.763179779052734,1,1,0.5,None,None,0.3,13,0.5,-73.921607971191406,40.741374969482422,None,None,1,NY CITY CENTRAL PARK NY US,WBAN:94728,1,FM-15,None,None,None,None,None,None,None,None,None,None,None,None,-9999,-9999,None,None,None,-9999,-9999,None,None,None,None,None,None,None,None,None,None,None,None,None,None,None,None,None,None,None,None,None,None,None,None,-73.9669,40.7889,5,None,VRB,36,2.4,10.00,29.91,30.06,OVC:08 37,51,8,None,0.00,None,25,-3.9,42,5.6,30.08,39.6,2016-01-01 00:51,None,None,None,2139,1220,None,None,None,None,None,None,None,None,None,None,None,None,None,None,None,None
1.61,2016-01-01 00:00:36,2016-01-01 00:10:02,9.8,0,0,N,None,None,None,None,-73.963752746582031,40.771160125732422,2,1,0.5,None,None,0.3,8.5,0.5,-73.975601196289063,40.752738952636719,None,None,2,NY CITY CENTRAL PARK NY US,WBAN:94728,1,FM-15,None,None,None,None,None,None,None,None,None,None,None,None,-9999,-9999,None,None,None,-9999,-9999,None,None,None,None,None,None,None,None,None,None,None,None,None,None,None,None,None,None,None,None,None,None,None,None,-73.9669,40.7889,5,None,VRB,36,2.4,10.00,29.91,30.06,OVC:08 37,51,8,None,0.00,None,25,-3.9,42,5.6,30.08,39.6,2016-01-01 00:51,None,None,None,2139,1220,None,None,None,None,None,None,None,None,None,None,None,None,None,None,None,None
1.20,2016-01-01 00:00:37,2016-01-01 00:06:01,10.1,0,2.3,N,2016-12-31 00:00:00,2016-01-01 00:00:00,New York,10022,-73.976020812988281,40.744560241699219,1,1,0.5,-73.968,40.759,0.3,6.5,0.5,-73.96649169921875,40.753662109375,New York,2,1,NY CITY CENTRAL PARK NY US,WBAN:94728,1,FM-15,None,None,None,None,None,None,None,None,None,None,None,None,-9999,-9999,None,None,None,-9999,-9999,None,None,None,None,None,None,None,None,None,None,None,None,None,None,None,None,None,None,None,None,None,None,None,None,-73.9669,40.7889,5,None,VRB,36,2.4,10.00,29.91,30.06,OVC:08 37,51,8,None,0.00,None,25,-3.9,42,5.6,30.08,39.6,2016-01-01 00:51,None,None,None,2139,1220,None,None,None,None,None,None,None,None,None,None,None,None,None,None,None,None
8.80,2016-01-01 00:00:38,2016-01-01 00:17:25,32.75,0,5.45,N,None,None,None,None,-73.976791381835938,40.733699798583984,1,1,0.5,None,None,0.3,26,0.5,-73.892143249511719,40.750724792480469,None,None,1,NY CITY CENTRAL PARK NY US,WBAN:94728,1,FM-15,None,None,None,None,None,None,None,None,None,None,None,None,-9999,-9999,None,None,None,-9999,-9999,None,None,None,None,None,None,None,None,None,None,None,None,None,None,None,None,None,None,None,None,None,None,None,None,-73.9669,40.7889,5,None,VRB,36,2.4,10.00,29.91,30.06,OVC:08 37,51,8,None,0.00,None,25,-3.9,42,5.6,30.08,39.6,2016-01-01 00:51,None,None,None,2139,1220,None,None,None,None,None,None,None,None,None,None,None,None,None,None,None,None
14.04,2016-01-01 00:00:38,2016-01-01 00:34:04,43.3,0,0,N,None,None,None,None,-73.984283447265625,40.748058319091797,2,1,0.5,None,None,0.3,42,0.5,-73.992088317871094,40.609176635742187,None,None,2,NY CITY CENTRAL PARK NY US,WBAN:94728,1,FM-15,None,None,None,None,None,None,None,None,None,None,None,None,-9999,-9999,None,None,None,-9999,-9999,None,None,None,None,None,None,None,None,None,None,None,None,None,None,None,None,None,None,None,None,None,None,None,None,-73.9669,40.7889,5,None,VRB,36,2.4,10.00,29.91,30.06,OVC:08 37,51,8,None,0.00,None,25,-3.9,42,5.6,30.08,39.6,2016-01-01 00:51,None,None,None,2139,1220,None,None,None,None,None,None,None,None,None,None,None,None,None,None,None,None
2.20,2016-01-01 00:00:39,2016-01-01 00:08:41,10.3,0,0,N,None,None,None,None,-73.969871520996094,40.768508911132813,2,1,0.5,None,None,0.3,9,0.5,-73.949348449707031,40.787765502929688,None,None,1,NY CITY CENTRAL PARK NY US,WBAN:94728,1,FM-15,None,None,None,None,None,None,None,None,None,None,None,None,-9999,-9999,None,None,None,-9999,-9999,None,None,None,None,None,None,None,None,None,None,None,None,None,None,None,None,None,None,None,None,None,None,None,None,-73.9669,40.7889,5,None,VRB,36,2.4,10.00,29.91,30.06,OVC:08 37,51,8,None,0.00,None,25,-3.9,42,5.6,30.08,39.6,2016-01-01 00:51,None,None,None,2139,1220,None,None,None,None,None,None,None,None,None,None,None,None,None,None,None,None
4.30,2016-01-01 00:00:40,2016-01-01 00:14:03,16.8,0,0,N,None,None,None,None,-73.966178894042969,40.762222290039063,2,1,0.5,None,None,0.3,15.5,0.5,-73.897758483886719,40.743141174316406,None,None,1,NY CITY CENTRAL PARK NY US,WBAN:94728,1,FM-15,None,None,None,None,None,None,None,None,None,None,None,None,-9999,-9999,None,None,None,-9999,-9999,None,None,None,None,None,None,None,None,None,None,None,None,None,None,None,None,None,None,None,None,None,None,None,None,-73.9669,40.7889,5,None,VRB,36,2.4,10.00,29.91,30.06,OVC:08 37,51,8,None,0.00,None,25,-3.9,42,5.6,30.08,39.6,2016-01-01 00:51,None,None,None,2139,1220,None,None,None,None,None,None,None,None,None,None,None,None,None,None,None,None
1.30,2016-01-01 00:00:40,2016-01-01 00:11:05,10.8,0,1,N,None,None,None,None,-74.004379272460937,40.742252349853516,1,2,0.5,None,None,0.3,8.5,0.5,-73.984222412109375,40.738197326660156,None,None,1,NY CITY CENTRAL PARK NY US,WBAN:94728,1,FM-15,None,None,None,None,None,None,None,None,None,None,None,None,-9999,-9999,None,None,None,-9999,-9999,None,None,None,None,None,None,None,None,None,None,None,None,None,None,None,None,None,None,None,None,None,None,None,None,-73.9669,40.7889,5,None,VRB,36,2.4,10.00,29.91,30.06,OVC:08 37,51,8,None,0.00,None,25,-3.9,42,5.6,30.08,39.6,2016-01-01 00:51,None,None,None,2139,1220,None,None,None,None,None,None,None,None,None,None,None,None,None,None,None,None
1.03,2016-01-01 00:00:40,2016-01-01 00:07:33,7.8,0,0,N,None,None,None,None,-73.9913330078125,40.723892211914063,2,1,0.5,None,None,0.3,6.5,0.5,-73.983688354492187,40.721515655517578,None,None,2,NY CITY CENTRAL PARK NY US,WBAN:94728,1,FM-15,None,None,None,None,None,None,None,None,None,None,None,None,-9999,-9999,None,None,None,-9999,-9999,None,None,None,None,None,None,None,None,None,None,None,None,None,None,None,None,None,None,None,None,None,None,None,None,-73.9669,40.7889,5,None,VRB,36,2.4,10.00,29.91,30.06,OVC:08 37,51,8,None,0.00,None,25,-3.9,42,5.6,30.08,39.6,2016-01-01 00:51,None,None,None,2139,1220,None,None,None,None,None,None,None,None,None,None,None,None,None,None,None,None
.00,2016-01-01 00:00:41,2016-01-01 00:00:46,20.8,0,0,N,None,None,None,None,0,0,2,5,0,None,None,0.3,20,0.5,0,0,None,None,2,NY CITY CENTRAL PARK NY US,WBAN:94728,3,FM-15,None,None,None,None,None,None,None,None,None,None,None,None,-9999,-9999,None,None,None,-9999,-9999,None,None,None,None,None,None,None,None,None,None,None,None,None,None,None,None,None,None,None,None,None,None,None,None,-73.9669,40.7889,5,None,VRB,36,2.4,10.00,29.91,30.06,OVC:08 37,51,8,None,0.00,None,25,-3.9,42,5.6,30.08,39.6,2016-01-01 00:51,None,None,None,2139,1220,None,None,None,None,None,None,None,None,None,None,None,None,None,None,None,None
1.10,2016-01-01 00:00:44,2016-01-01 00:05:15,8.3,0,1,N,None,None,None,None,-73.974159240722656,40.795730590820313,1,1,0.5,None,None,0.3,6,0.5,-73.962516784667969,40.804931640625,None,None,2,NY CITY CENTRAL PARK NY US,WBAN:94728,1,FM-15,None,None,None,None,None,None,None,None,None,None,None,None,-9999,-9999,None,None,None,-9999,-9999,None,None,None,None,None,None,None,None,None,None,None,None,None,None,None,None,None,None,None,None,None,None,None,None,-73.9669,40.7889,5,None,VRB,36,2.4,10.00,29.91,30.06,OVC:08 37,51,8,None,0.00,None,25,-3.9,42,5.6,30.08,39.6,2016-01-01 00:51,None,None,None,2139,1220,None,None,None,None,None,None,None,None,None,None,None,None,None,None,None,None
1.85,2016-01-01 00:00:45,2016-01-01 00:09:17,9.8,0,0,N,None | None,2016-01-01 00:00:00 | 2016-01-01 00:00:00,New York | New York,None | None,-73.99420166015625,40.726470947265625,2,6,0.5,-74.0064 | -74.0064,40.7142 | 40.7142,0.3,8.5,0.5,-74.014747619628906,40.716201782226563,New York | New York,1 | 1,2,NY CITY CENTRAL PARK NY US,WBAN:94728,1,FM-15,None,None,None,None,None,None,None,None,None,None,None,None,-9999,-9999,None,None,None,-9999,-9999,None,None,None,None,None,None,None,None,None,None,None,None,None,None,None,None,None,None,None,None,None,None,None,None,-73.9669,40.7889,5,None,VRB,36,2.4,10.00,29.91,30.06,OVC:08 37,51,8,None,0.00,None,25,-3.9,42,5.6,30.08,39.6,2016-01-01 00:51,None,None,None,2139,1220,None,None,None,None,None,None,None,None,None,None,None,None,None,None,None,None
1.43,2016-01-01 00:00:47,2016-01-01 00:12:38,8.8,0,0,N,None,None,None,None,-73.989639282226563,40.734397888183594,2,1,0.5,None,None,0.3,7.5,0.5,-73.978790283203125,40.724113464355469,None,None,2,NY CITY CENTRAL PARK NY US,WBAN:94728,1,FM-15,None,None,None,None,None,None,None,None,None,None,None,None,-9999,-9999,None,None,None,-9999,-9999,None,None,None,None,None,None,None,None,None,None,None,None,None,None,None,None,None,None,None,None,None,None,None,None,-73.9669,40.7889,5,None,VRB,36,2.4,10.00,29.91,30.06,OVC:08 37,51,8,None,0.00,None,25,-3.9,42,5.6,30.08,39.6,2016-01-01 00:51,None,None,None,2139,1220,None,None,None,None,None,None,None,None,None,None,None,None,None,None,None,None
4.93,2016-01-01 00:00:47,2016-01-01 00:18:25,22.56,0,3.76,N,None,None,None,None,-74.001480102539063,40.727439880371094,1,1,0.5,None,None,0.3,17.5,0.5,-73.956451416015625,40.768150329589844,None,None,2,NY CITY CENTRAL PARK NY US,WBAN:94728,1,FM-15,None,None,None,None,None,None,None,None,None,None,None,None,-9999,-9999,None,None,None,-9999,-9999,None,None,None,None,None,None,None,None,None,None,None,None,None,None,None,None,None,None,None,None,None,None,None,None,-73.9669,40.7889,5,None,VRB,36,2.4,10.00,29.91,30.06,OVC:08 37,51,8,None,0.00,None,25,-3.9,42,5.6,30.08,39.6,2016-01-01 00:51,None,None,None,2139,1220,None,None,None,None,None,None,None,None,None,None,None,None,None,None,None,None
.80,2016-01-01 00:00:48,2016-01-01 00:03:38,7.25,0,1.45,N,None,None,None,None,-73.979156494140625,40.740509033203125,1,1,0.5,None,None,0.3,4.5,0.5,-73.988525390625,40.734645843505859,None,None,1,NY CITY CENTRAL PARK NY US,WBAN:94728,1,FM-15,None,None,None,None,None,None,None,None,None,None,None,None,-9999,-9999,None,None,None,-9999,-9999,None,None,None,None,None,None,None,None,None,None,None,None,None,None,None,None,None,None,None,None,None,None,None,None,-73.9669,40.7889,5,None,VRB,36,2.4,10.00,29.91,30.06,OVC:08 37,51,8,None,0.00,None,25,-3.9,42,5.6,30.08,39.6,2016-01-01 00:51,None,None,None,2139,1220,None,None,None,None,None,None,None,None,None,None,None,None,None,None,None,None
8.70,2016-01-01 00:00:49,2016-01-01 00:13:15,26.3,0,0,N,None,None,None,None,-73.953926086425781,40.766944885253906,1,2,0.5,None,None,0.3,25,0.5,-73.924461364746094,40.861392974853516,None,None,1,NY CITY CENTRAL PARK NY US,WBAN:94728,1,FM-15,None,None,None,None,None,None,None,None,None,None,None,None,-9999,-9999,None,None,None,-9999,-9999,None,None,None,None,None,None,None,None,None,None,None,None,None,None,None,None,None,None,None,None,None,None,None,None,-73.9669,40.7889,5,None,VRB,36,2.4,10.00,29.91,30.06,OVC:08 37,51,8,None,0.00,None,25,-3.9,42,5.6,30.08,39.6,2016-01-01 00:51,None,None,None,2139,1220,None,None,None,None,None,None,None,None,None,None,None,None,None,None,None,None
1.22,2016-01-01 00:00:49,2016-01-01 00:09:01,8.8,0,0,N,None | 2016-12-31 00:00:00,2016-01-01 00:00:00 | 2016-01-01 00:00:00,New York | New York,10019 | 10022,-73.982139587402344,40.771686553955078,2,1,0.5,-73.9803996 | -73.968,40.7656668 | 40.759,0.3,7.5,0.5,-73.974456787109375,40.762485504150391,New York | New York,1 | 2,2,NY CITY CENTRAL PARK NY US,WBAN:94728,1,FM-15,None,None,None,None,None,None,None,None,None,None,None,None,-9999,-9999,None,None,None,-9999,-9999,None,None,None,None,None,None,None,None,None,None,None,None,None,None,None,None,None,None,None,None,None,None,None,None,-73.9669,40.7889,5,None,VRB,36,2.4,10.00,29.91,30.06,OVC:08 37,51,8,None,0.00,None,25,-3.9,42,5.6,30.08,39.6,2016-01-01 00:51,None,None,None,2139,1220,None,None,None,None,None,None,None,None,None,None,None,None,None,None,None,None
11.87,2016-01-01 00:00:50,2016-01-01 00:19:47,42.88,0,8.58,N,None,None,None,None,-73.78082275390625,40.645183563232422,1,2,0.5,None,None,0.3,33,0.5,-73.890846252441406,40.743007659912109,None,None,2,NY CITY CENTRAL PARK NY US,WBAN:94728,1,FM-15,None,None,None,None,None,None,None,None,None,None,None,None,-9999,-9999,None,None,None,-9999,-9999,None,None,None,None,None,None,None,None,None,None,None,None,None,None,None,None,None,None,None,None,None,None,None,None,-73.9669,40.7889,5,None,VRB,36,2.4,10.00,29.91,30.06,OVC:08 37,51,8,None,0.00,None,25,-3.9,42,5.6,30.08,39.6,2016-01-01 00:51,None,None,None,2139,1220,None,None,None,None,None,None,None,None,None,None,None,None,None,None,None,None
.72,2016-01-01 00:00:50,2016-01-01 00:06:29,8.16,0,1.36,N,None,None,None,None,-73.997398376464844,40.720748901367188,1,6,0.5,None,None,0.3,5.5,0.5,-73.999183654785156,40.7279052734375,None,None,2,NY CITY CENTRAL PARK NY US,WBAN:94728,1,FM-15,None,None,None,None,None,None,None,None,None,None,None,None,-9999,-9999,None,None,None,-9999,-9999,None,None,None,None,None,None,None,None,None,None,None,None,None,None,None,None,None,None,None,None,None,None,None,None,-73.9669,40.7889,5,None,VRB,36,2.4,10.00,29.91,30.06,OVC:08 37,51,8,None,0.00,None,25,-3.9,42,5.6,30.08,39.6,2016-01-01 00:51,None,None,None,2139,1220,None,None,None,None,None,None,None,None,None,None,None,None,None,None,None,None
3.10,2016-01-01 00:00:52,2016-01-01 00:29:50,24.95,0,4.15,N,None,None,None,None,-73.984046936035156,40.755279541015625,1,2,0.5,None,None,0.3,19.5,0.5,-73.995147705078125,40.720634460449219,None,None,1,NY CITY CENTRAL PARK NY US,WBAN:94728,1,FM-15,None,None,None,None,None,None,None,None,None,None,None,None,-9999,-9999,None,None,None,-9999,-9999,None,None,None,None,None,None,None,None,None,None,None,None,None,None,None,None,None,None,None,None,None,None,None,None,-73.9669,40.7889,5,None,VRB,36,2.4,10.00,29.91,30.06,OVC:08 37,51,8,None,0.00,None,25,-3.9,42,5.6,30.08,39.6,2016-01-01 00:51,None,None,None,2139,1220,None,None,None,None,None,None,None,None,None,None,None,None,None,None,None,None
1.80,2016-01-01 00:00:52,2016-01-01 00:08:00,9.3,0,0,N,None,None,None,None,-73.983871459960937,40.742408752441406,2,3,0.5,None,None,0.3,8,0.5,-74.002365112304687,40.726348876953125,None,None,1,NY CITY CENTRAL PARK NY US,WBAN:94728,1,FM-15,None,None,None,None,None,None,None,None,None,None,None,None,-9999,-9999,None,None,None,-9999,-9999,None,None,None,None,None,None,None,None,None,None,None,None,None,None,None,None,None,None,None,None,None,None,None,None,-73.9669,40.7889,5,None,VRB,36,2.4,10.00,29.91,30.06,OVC:08 37,51,8,None,0.00,None,25,-3.9,42,5.6,30.08,39.6,2016-01-01 00:51,None,None,None,2139,1220,None,None,None,None,None,None,None,None,None,None,None,None,None,None,None,None
2.50,2016-01-01 00:00:52,2016-01-01 00:11:18,11.8,0,0,N,None | None,2016-01-01 00:00:00 | 2016-01-01 00:00:00,New York | New York,None | None,-73.995750427246094,40.744091033935547,2,1,0.5,-74.0064 | -74.0064,40.7142 | 40.7142,0.3,10.5,0.5,-74.009750366210937,40.712760925292969,New York | New York,1 | 1,2,NY CITY CENTRAL PARK NY US,WBAN:94728,1,FM-15,None,None,None,None,None,None,None,None,None,None,None,None,-9999,-9999,None,None,None,-9999,-9999,None,None,None,None,None,None,None,None,None,None,None,None,None,None,None,None,None,None,None,None,None,None,None,None,-73.9669,40.7889,5,None,VRB,36,2.4,10.00,29.91,30.06,OVC:08 37,51,8,None,0.00,None,25,-3.9,42,5.6,30.08,39.6,2016-01-01 00:51,None,None,None,2139,1220,None,None,None,None,None,None,None,None,None,None,None,None,None,None,None,None
4.90,2016-01-01 00:00:53,2016-01-01 00:22:27,22,0,1.7,N,None,None,None,None,-73.985084533691406,40.747165679931641,1,1,0.5,None,None,0.3,19,0.5,-73.958038330078125,40.717491149902344,None,None,1,NY CITY CENTRAL PARK NY US,WBAN:94728,1,FM-15,None,None,None,None,None,None,None,None,None,None,None,None,-9999,-9999,None,None,None,-9999,-9999,None,None,None,None,None,None,None,None,None,None,None,None,None,None,None,None,None,None,None,None,None,None,None,None,-73.9669,40.7889,5,None,VRB,36,2.4,10.00,29.91,30.06,OVC:08 37,51,8,None,0.00,None,25,-3.9,42,5.6,30.08,39.6,2016-01-01 00:51,None,None,None,2139,1220,None,None,None,None,None,None,None,None,None,None,None,None,None,None,None,None
1.53,2016-01-01 00:00:54,2016-01-01 00:08:43,11.16,0,1.86,N,None,None,None,None,-73.971000671386719,40.797641754150391,1,1,0.5,None,None,0.3,8,0.5,-73.953697204589844,40.785129547119141,None,None,2,NY CITY CENTRAL PARK NY US,WBAN:94728,1,FM-15,None,None,None,None,None,None,None,None,None,None,None,None,-9999,-9999,None,None,None,-9999,-9999,None,None,None,None,None,None,None,None,None,None,None,None,None,None,None,None,None,None,None,None,None,None,None,None,-73.9669,40.7889,5,None,VRB,36,2.4,10.00,29.91,30.06,OVC:08 37,51,8,None,0.00,None,25,-3.9,42,5.6,30.08,39.6,2016-01-01 00:51,None,None,None,2139,1220,None,None,None,None,None,None,None,None,None,None,None,None,None,None,None,None
1.10,2016-01-01 00:00:55,2016-01-01 00:17:14,12.3,0,0,N,None | 2016-07-03 00:00:00,2016-01-01 00:00:00 | 2015-10-08 00:00:00,New York | New York,10019 | 10019,-73.984153747558594,40.764858245849609,2,1,0.5,-73.9803996 | -73.9844951,40.7656668 | 40.7632328,0.3,11,0.5,-73.97802734375,40.762935638427734,New York | New York,1 | 2,1,NY CITY CENTRAL PARK NY US,WBAN:94728,1,FM-15,None,None,None,None,None,None,None,None,None,None,None,None,-9999,-9999,None,None,None,-9999,-9999,None,None,None,None,None,None,None,None,None,None,None,None,None,None,None,None,None,None,None,None,None,None,None,None,-73.9669,40.7889,5,None,VRB,36,2.4,10.00,29.91,30.06,OVC:08 37,51,8,None,0.00,None,25,-3.9,42,5.6,30.08,39.6,2016-01-01 00:51,None,None,None,2139,1220,None,None,None,None,None,None,None,None,None,None,None,None,None,None,None,None
15.64,2016-01-01 00:00:55,2016-01-01 00:28:34,45.3,0,0,N,None,None,None,None,-73.787139892578125,40.644050598144531,2,4,0.5,None,None,0.3,44,0.5,-73.94842529296875,40.730735778808594,None,None,2,NY CITY CENTRAL PARK NY US,WBAN:94728,1,FM-15,None,None,None,None,None,None,None,None,None,None,None,None,-9999,-9999,None,None,None,-9999,-9999,None,None,None,None,None,None,None,None,None,None,None,None,None,None,None,None,None,None,None,None,None,None,None,None,-73.9669,40.7889,5,None,VRB,36,2.4,10.00,29.91,30.06,OVC:08 37,51,8,None,0.00,None,25,-3.9,42,5.6,30.08,39.6,2016-01-01 00:51,None,None,None,2139,1220,None,None,None,None,None,None,None,None,None,None,None,None,None,None,None,None
5.70,2016-01-01 00:00:56,2016-01-01 00:17:24,37.8,10.5,8,N,None,None,None,None,-73.987724304199219,40.750568389892578,1,1,0.5,None,None,0.3,18,0.5,-74.035568237304688,40.713573455810547,None,None,1,NY CITY CENTRAL PARK NY US,WBAN:94728,1,FM-15,None,None,None,None,None,None,None,None,None,None,None,None,-9999,-9999,None,None,None,-9999,-9999,None,None,None,None,None,None,None,None,None,None,None,None,None,None,None,None,None,None,None,None,None,None,None,None,-73.9669,40.7889,5,None,VRB,36,2.4,10.00,29.91,30.06,OVC:08 37,51,8,None,0.00,None,25,-3.9,42,5.6,30.08,39.6,2016-01-01 00:51,None,None,None,2139,1220,None,None,None,None,None,None,None,None,None,None,None,None,None,None,None,None
2.56,2016-01-01 00:00:57,2016-01-01 00:10:48,14.16,0,2.36,N,None,None,None,None,-73.979652404785156,40.776119232177734,1,6,0.5,None,None,0.3,10.5,0.5,-73.964683532714844,40.806755065917969,None,None,2,NY CITY CENTRAL PARK NY US,WBAN:94728,1,FM-15,None,None,None,None,None,None,None,None,None,None,None,None,-9999,-9999,None,None,None,-9999,-9999,None,None,None,None,None,None,None,None,None,None,None,None,None,None,None,None,None,None,None,None,None,None,None,None,-73.9669,40.7889,5,None,VRB,36,2.4,10.00,29.91,30.06,OVC:08 37,51,8,None,0.00,None,25,-3.9,42,5.6,30.08,39.6,2016-01-01 00:51,None,None,None,2139,1220,None,None,None,None,None,None,None,None,None,None,None,None,None,None,None,None
15.25,2016-01-01 00:01:00,2016-01-01 00:18:06,41.8,0,0,N,None,None,None,None,-73.781806945800781,40.644863128662109,1,3,0.5,None,None,0.3,40.5,0.5,-73.937973022460938,40.726325988769531,None,None,2,NY CITY CENTRAL PARK NY US,WBAN:94728,1,FM-15,None,None,None,None,None,None,None,None,None,None,None,None,-9999,-9999,None,None,None,-9999,-9999,None,None,None,None,None,None,None,None,None,None,None,None,None,None,None,None,None,None,None,None,None,None,None,None,-73.9669,40.7889,5,None,VRB,36,2.4,10.00,29.91,30.06,OVC:08 37,51,8,None,0.00,None,25,-3.9,42,5.6,30.08,39.6,2016-01-01 00:51,None,None,None,2139,1220,None,None,None,None,None,None,None,None,None,None,None,None,None,None,None,None
1.65,2016-01-01 00:01:01,2016-01-01 00:07:49,8.8,0,0,N,None,None,None,None,-73.965278625488281,40.801040649414063,2,5,0.5,None,None,0.3,7.5,0.5,-73.947479248046875,40.815170288085937,None,None,2,NY CITY CENTRAL PARK NY US,WBAN:94728,1,FM-15,None,None,None,None,None,None,None,None,None,None,None,None,-9999,-9999,None,None,None,-9999,-9999,None,None,None,None,None,None,None,None,None,None,None,None,None,None,None,None,None,None,None,None,None,None,None,None,-73.9669,40.7889,5,None,VRB,36,2.4,10.00,29.91,30.06,OVC:08 37,51,8,None,0.00,None,25,-3.9,42,5.6,30.08,39.6,2016-01-01 00:51,None,None,None,2139,1220,None,None,None,None,None,None,None,None,None,None,None,None,None,None,None,None
7.85,2016-01-01 00:01:01,2016-01-01 00:13:08,35.21,5.54,5.87,N,None,None,None,None,-73.979629516601563,40.743255615234375,1,6,0.5,None,None,0.3,22.5,0.5,-73.911872863769531,40.764629364013672,None,None,2,NY CITY CENTRAL PARK NY US,WBAN:94728,1,FM-15,None,None,None,None,None,None,None,None,None,None,None,None,-9999,-9999,None,None,None,-9999,-9999,None,None,None,None,None,None,None,None,None,None,None,None,None,None,None,None,None,None,None,None,None,None,None,None,-73.9669,40.7889,5,None,VRB,36,2.4,10.00,29.91,30.06,OVC:08 37,51,8,None,0.00,None,25,-3.9,42,5.6,30.08,39.6,2016-01-01 00:51,None,None,None,2139,1220,None,None,None,None,None,None,None,None,None,None,None,None,None,None,None,None
1.28,2016-01-01 00:01:03,2016-01-01 00:20:29,12.8,0,0,N,None,None,None,None,-73.984420776367188,40.767238616943359,2,2,0.5,None,None,0.3,11.5,0.5,-73.978599548339844,40.754261016845703,None,None,2,NY CITY CENTRAL PARK NY US,WBAN:94728,1,FM-15,None,None,None,None,None,None,None,None,None,None,None,None,-9999,-9999,None,None,None,-9999,-9999,None,None,None,None,None,None,None,None,None,None,None,None,None,None,None,None,None,None,None,None,None,None,None,None,-73.9669,40.7889,5,None,VRB,36,2.4,10.00,29.91,30.06,OVC:08 37,51,8,None,0.00,None,25,-3.9,42,5.6,30.08,39.6,2016-01-01 00:51,None,None,None,2139,1220,None,None,None,None,None,None,None,None,None,None,None,None,None,None,None,None
3.18,2016-01-01 00:01:06,2016-01-01 00:26:34,18.3,0,0,N,None,None,None,None,-74.010993957519531,40.708873748779297,2,1,0.5,None,None,0.3,17,0.5,-73.988052368164063,40.749320983886719,None,None,2,NY CITY CENTRAL PARK NY US,WBAN:94728,1,FM-15,None,None,None,None,None,None,None,None,None,None,None,None,-9999,-9999,None,None,None,-9999,-9999,None,None,None,None,None,None,None,None,None,None,None,None,None,None,None,None,None,None,None,None,None,None,None,None,-73.9669,40.7889,5,None,VRB,36,2.4,10.00,29.91,30.06,OVC:08 37,51,8,None,0.00,None,25,-3.9,42,5.6,30.08,39.6,2016-01-01 00:51,None,None,None,2139,1220,None,None,None,None,None,None,None,None,None,None,None,None,None,None,None,None
.56,2016-01-01 00:01:06,2016-01-01 00:04:38,5.8,0,0,N,None,None,None,None,-73.980743408203125,40.746910095214844,2,1,0.5,None,None,0.3,4.5,0.5,-73.990867614746094,40.75115966796875,None,None,2,NY CITY CENTRAL PARK NY US,WBAN:94728,1,FM-15,None,None,None,None,None,None,None,None,None,None,None,None,-9999,-9999,None,None,None,-9999,-9999,None,None,None,None,None,None,None,None,None,None,None,None,None,None,None,None,None,None,None,None,None,None,None,None,-73.9669,40.7889,5,None,VRB,36,2.4,10.00,29.91,30.06,OVC:08 37,51,8,None,0.00,None,25,-3.9,42,5.6,30.08,39.6,2016-01-01 00:51,None,None,None,2139,1220,None,None,None,None,None,None,None,None,None,None,None,None,None,None,None,None
.94,2016-01-01 00:01:07,2016-01-01 00:05:04,6.3,0,0,N,None,None,None,None,-73.991973876953125,40.726478576660156,2,2,0.5,None,None,0.3,5,0.5,-74.003082275390625,40.722049713134766,None,None,2,NY CITY CENTRAL PARK NY US,WBAN:94728,1,FM-15,None,None,None,None,None,None,None,None,None,None,None,None,-9999,-9999,None,None,None,-9999,-9999,None,None,None,None,None,None,None,None,None,None,None,None,None,None,None,None,None,None,None,None,None,None,None,None,-73.9669,40.7889,5,None,VRB,36,2.4,10.00,29.91,30.06,OVC:08 37,51,8,None,0.00,None,25,-3.9,42,5.6,30.08,39.6,2016-01-01 00:51,None,None,None,2139,1220,None,None,None,None,None,None,None,None,None,None,None,None,None,None,None,None
3.20,2016-01-01 00:01:08,2016-01-01 00:19:36,18.95,0,3.15,N,None,None,None,None,-74.00213623046875,40.760639190673828,1,1,0.5,None,None,0.3,14.5,0.5,-73.972892761230469,40.743450164794922,None,None,1,NY CITY CENTRAL PARK NY US,WBAN:94728,1,FM-15,None,None,None,None,None,None,None,None,None,None,None,None,-9999,-9999,None,None,None,-9999,-9999,None,None,None,None,None,None,None,None,None,None,None,None,None,None,None,None,None,None,None,None,None,None,None,None,-73.9669,40.7889,5,None,VRB,36,2.4,10.00,29.91,30.06,OVC:08 37,51,8,None,0.00,None,25,-3.9,42,5.6,30.08,39.6,2016-01-01 00:51,None,None,None,2139,1220,None,None,None,None,None,None,None,None,None,None,None,None,None,None,None,None
2.70,2016-01-01 00:01:08,2016-01-01 00:17:13,18.55,0,4.25,N,None,None,None,None,-73.994972229003906,40.760234832763672,1,1,0.5,None,None,0.3,13,0.5,-74.00152587890625,40.735855102539063,None,None,1,NY CITY CENTRAL PARK NY US,WBAN:94728,1,FM-15,None,None,None,None,None,None,None,None,None,None,None,None,-9999,-9999,None,None,None,-9999,-9999,None,None,None,None,None,None,None,None,None,None,None,None,None,None,None,None,None,None,None,None,None,None,None,None,-73.9669,40.7889,5,None,VRB,36,2.4,10.00,29.91,30.06,OVC:08 37,51,8,None,0.00,None,25,-3.9,42,5.6,30.08,39.6,2016-01-01 00:51,None,None,None,2139,1220,None,None,None,None,None,None,None,None,None,None,None,None,None,None,None,None
5.00,2016-01-01 00:01:08,2016-01-01 00:23:22,25.3,0,4.5,N,None,None,None,None,-74.002265930175781,40.730369567871094,1,1,0.5,None,None,0.3,19.5,0.5,-73.951683044433594,40.77349853515625,None,None,1,NY CITY CENTRAL PARK NY US,WBAN:94728,1,FM-15,None,None,None,None,None,None,None,None,None,None,None,None,-9999,-9999,None,None,None,-9999,-9999,None,None,None,None,None,None,None,None,None,None,None,None,None,None,None,None,None,None,None,None,None,None,None,None,-73.9669,40.7889,5,None,VRB,36,2.4,10.00,29.91,30.06,OVC:08 37,51,8,None,0.00,None,25,-3.9,42,5.6,30.08,39.6,2016-01-01 00:51,None,None,None,2139,1220,None,None,None,None,None,None,None,None,None,None,None,None,None,None,None,None
1.60,2016-01-01 00:01:09,2016-01-01 00:06:37,9.35,0,1.55,N,None,None,None,None,-73.980827331542969,40.779640197753906,1,2,0.5,None,None,0.3,6.5,0.5,-73.971412658691406,40.798587799072266,None,None,1,NY CITY CENTRAL PARK NY US,WBAN:94728,1,FM-15,None,None,None,None,None,None,None,None,None,None,None,None,-9999,-9999,None,None,None,-9999,-9999,None,None,None,None,None,None,None,None,None,None,None,None,None,None,None,None,None,None,None,None,None,None,None,None,-73.9669,40.7889,5,None,VRB,36,2.4,10.00,29.91,30.06,OVC:08 37,51,8,None,0.00,None,25,-3.9,42,5.6,30.08,39.6,2016-01-01 00:51,None,None,None,2139,1220,None,None,None,None,None,None,None,None,None,None,None,None,None,None,None,None
.58,2016-01-01 00:01:09,2016-01-01 00:05:23,7.56,0,1.26,N,None,None,None,None,-73.998077392578125,40.737968444824219,1,1,0.5,None,None,0.3,5,0.5,-74.004127502441406,40.742790222167969,None,None,2,NY CITY CENTRAL PARK NY US,WBAN:94728,1,FM-15,None,None,None,None,None,None,None,None,None,None,None,None,-9999,-9999,None,None,None,-9999,-9999,None,None,None,None,None,None,None,None,None,None,None,None,None,None,None,None,None,None,None,None,None,None,None,None,-73.9669,40.7889,5,None,VRB,36,2.4,10.00,29.91,30.06,OVC:08 37,51,8,None,0.00,None,25,-3.9,42,5.6,30.08,39.6,2016-01-01 00:51,None,None,None,2139,1220,None,None,None,None,None,None,None,None,None,None,None,None,None,None,None,None
6.00,2016-01-01 00:01:10,2016-01-01 00:36:55,32.16,0,5.36,N,None,None,None,None,-73.999443054199219,40.729835510253906,1,2,0.5,None,None,0.3,25.5,0.5,-73.964179992675781,40.803153991699219,None,None,1,NY CITY CENTRAL PARK NY US,WBAN:94728,1,FM-15,None,None,None,None,None,None,None,None,None,None,None,None,-9999,-9999,None,None,None,-9999,-9999,None,None,None,None,None,None,None,None,None,None,None,None,None,None,None,None,None,None,None,None,None,None,None,None,-73.9669,40.7889,5,None,VRB,36,2.4,10.00,29.91,30.06,OVC:08 37,51,8,None,0.00,None,25,-3.9,42,5.6,30.08,39.6,2016-01-01 00:51,None,None,None,2139,1220,None,None,None,None,None,None,None,None,None,None,None,None,None,None,None,None
2.51,2016-01-01 00:01:10,2016-01-01 00:08:00,10.8,0,0,N,2016-12-31 00:00:00,2016-01-01 00:00:00,New York,10022,-73.932708740234375,40.752861022949219,2,5,0.5,-73.968,40.759,0.3,9.5,0.5,-73.963615417480469,40.757640838623047,New York,2,2,NY CITY CENTRAL PARK NY US,WBAN:94728,1,FM-15,None,None,None,None,None,None,None,None,None,None,None,None,-9999,-9999,None,None,None,-9999,-9999,None,None,None,None,None,None,None,None,None,None,None,None,None,None,None,None,None,None,None,None,None,None,None,None,-73.9669,40.7889,5,None,VRB,36,2.4,10.00,29.91,30.06,OVC:08 37,51,8,None,0.00,None,25,-3.9,42,5.6,30.08,39.6,2016-01-01 00:51,None,None,None,2139,1220,None,None,None,None,None,None,None,None,None,None,None,None,None,None,None,None
1.24,2016-01-01 00:01:10,2016-01-01 00:24:39,15.8,0,0,N,None,None,None,None,-73.981689453125,40.768390655517578,2,4,0.5,None,None,0.3,14.5,0.5,-73.979751586914063,40.755538940429688,None,None,2,NY CITY CENTRAL PARK NY US,WBAN:94728,1,FM-15,None,None,None,None,None,None,None,None,None,None,None,None,-9999,-9999,None,None,None,-9999,-9999,None,None,None,None,None,None,None,None,None,None,None,None,None,None,None,None,None,None,None,None,None,None,None,None,-73.9669,40.7889,5,None,VRB,36,2.4,10.00,29.91,30.06,OVC:08 37,51,8,None,0.00,None,25,-3.9,42,5.6,30.08,39.6,2016-01-01 00:51,None,None,None,2139,1220,None,None,None,None,None,None,None,None,None,None,None,None,None,None,None,None
1.50,2016-01-01 00:01:11,2016-01-01 00:08:06,11,0,2.2,N,None,None,None,None,-74.003486633300781,40.741569519042969,1,1,0.5,None,None,0.3,7.5,0.5,-74.002357482910156,40.726341247558594,None,None,1,NY CITY CENTRAL PARK NY US,WBAN:94728,1,FM-15,None,None,None,None,None,None,None,None,None,None,None,None,-9999,-9999,None,None,None,-9999,-9999,None,None,None,None,None,None,None,None,None,None,None,None,None,None,None,None,None,None,None,None,None,None,None,None,-73.9669,40.7889,5,None,VRB,36,2.4,10.00,29.91,30.06,OVC:08 37,51,8,None,0.00,None,25,-3.9,42,5.6,30.08,39.6,2016-01-01 00:51,None,None,None,2139,1220,None,None,None,None,None,None,None,None,None,None,None,None,None,None,None,None
1.40,2016-01-01 00:01:11,2016-01-01 00:07:04,10.75,0,2.45,N,None,None,None,None,-73.977943420410156,40.783676147460938,1,2,0.5,None,None,0.3,7,0.5,-73.955589294433594,40.773441314697266,None,None,1,NY CITY CENTRAL PARK NY US,WBAN:94728,1,FM-15,None,None,None,None,None,None,None,None,None,None,None,None,-9999,-9999,None,None,None,-9999,-9999,None,None,None,None,None,None,None,None,None,None,None,None,None,None,None,None,None,None,None,None,None,None,None,None,-73.9669,40.7889,5,None,VRB,36,2.4,10.00,29.91,30.06,OVC:08 37,51,8,None,0.00,None,25,-3.9,42,5.6,30.08,39.6,2016-01-01 00:51,None,None,None,2139,1220,None,None,None,None,None,None,None,None,None,None,None,None,None,None,None,None
1.89,2016-01-01 00:01:11,2016-01-01 00:11:15,10.3,0,0,N,None,None,None,None,-73.992568969726563,40.739616394042969,2,1,0.5,None,None,0.3,9,0.5,-73.995315551757812,40.721817016601563,None,None,2,NY CITY CENTRAL PARK NY US,WBAN:94728,1,FM-15,None,None,None,None,None,None,None,None,None,None,None,None,-9999,-9999,None,None,None,-9999,-9999,None,None,None,None,None,None,None,None,None,None,None,None,None,None,None,None,None,None,None,None,None,None,None,None,-73.9669,40.7889,5,None,VRB,36,2.4,10.00,29.91,30.06,OVC:08 37,51,8,None,0.00,None,25,-3.9,42,5.6,30.08,39.6,2016-01-01 00:51,None,None,None,2139,1220,None,None,None,None,None,None,None,None,None,None,None,None,None,None,None,None
2.15,2016-01-01 00:01:12,2016-01-01 00:18:49,17.16,0,2.86,N,None,None,None,None,-73.977760314941406,40.752281188964844,1,1,0.5,None,None,0.3,13,0.5,-73.956825256347656,40.768070220947266,None,None,2,NY CITY CENTRAL PARK NY US,WBAN:94728,1,FM-15,None,None,None,None,None,None,None,None,None,None,None,None,-9999,-9999,None,None,None,-9999,-9999,None,None,None,None,None,None,None,None,None,None,None,None,None,None,None,None,None,None,None,None,None,None,None,None,-73.9669,40.7889,5,None,VRB,36,2.4,10.00,29.91,30.06,OVC:08 37,51,8,None,0.00,None,25,-3.9,42,5.6,30.08,39.6,2016-01-01 00:51,None,None,None,2139,1220,None,None,None,None,None,None,None,None,None,None,None,None,None,None,None,None
2.50,2016-01-01 00:01:13,2016-01-01 00:22:09,15.8,0,0,N,None,None,None,None,-73.994255065917969,40.73199462890625,2,1,0.5,None,None,0.3,14.5,0.5,-73.9786376953125,40.751388549804688,None,None,1,NY CITY CENTRAL PARK NY US,WBAN:94728,1,FM-15,None,None,None,None,None,None,None,None,None,None,None,None,-9999,-9999,None,None,None,-9999,-9999,None,None,None,None,None,None,None,None,None,None,None,None,None,None,None,None,None,None,None,None,None,None,None,None,-73.9669,40.7889,5,None,VRB,36,2.4,10.00,29.91,30.06,OVC:08 37,51,8,None,0.00,None,25,-3.9,42,5.6,30.08,39.6,2016-01-01 00:51,None,None,None,2139,1220,None,None,None,None,None,None,None,None,None,None,None,None,None,None,None,None
1.89,2016-01-01 00:01:13,2016-01-01 00:09:57,10.8,0,1,N,2016-12-31 00:00:00,2016-01-01 00:00:00,New York,10022,-73.985160827636719,40.744529724121094,1,5,0.5,-73.968,40.759,0.3,8.5,0.5,-73.965461730957031,40.762851715087891,New York,2,2,NY CITY CENTRAL PARK NY US,WBAN:94728,1,FM-15,None,None,None,None,None,None,None,None,None,None,None,None,-9999,-9999,None,None,None,-9999,-9999,None,None,None,None,None,None,None,None,None,None,None,None,None,None,None,None,None,None,None,None,None,None,None,None,-73.9669,40.7889,5,None,VRB,36,2.4,10.00,29.91,30.06,OVC:08 37,51,8,None,0.00,None,25,-3.9,42,5.6,30.08,39.6,2016-01-01 00:51,None,None,None,2139,1220,None,None,None,None,None,None,None,None,None,None,None,None,None,None,None,None
.60,2016-01-01 00:01:14,2016-01-01 00:05:54,6.3,0,0,N,None,None,None,None,-73.982292175292969,40.751331329345703,1,1,0.5,None,None,0.3,5,0.5,-73.991340637207031,40.750339508056641,None,None,1,NY CITY CENTRAL PARK NY US,WBAN:94728,1,FM-15,None,None,None,None,None,None,None,None,None,None,None,None,-9999,-9999,None,None,None,-9999,-9999,None,None,None,None,None,None,None,None,None,None,None,None,None,None,None,None,None,None,None,None,None,None,None,None,-73.9669,40.7889,5,None,VRB,36,2.4,10.00,29.91,30.06,OVC:08 37,51,8,None,0.00,None,25,-3.9,42,5.6,30.08,39.6,2016-01-01 00:51,None,None,None,2139,1220,None,None,None,None,None,None,None,None,None,None,None,None,None,None,None,None
24.00,2016-01-01 00:01:14,2016-01-01 00:38:19,185.75,14.5,30.95,N,None,None,None,None,-73.992301940917969,40.749290466308594,1,1,0,None,None,0.3,140,0,-74.320327758789063,40.720523834228516,None,None,1,NY CITY CENTRAL PARK NY US,WBAN:94728,5,FM-15,None,None,None,None,None,None,None,None,None,None,None,None,-9999,-9999,None,None,None,-9999,-9999,None,None,None,None,None,None,None,None,None,None,None,None,None,None,None,None,None,None,None,None,None,None,None,None,-73.9669,40.7889,5,None,VRB,36,2.4,10.00,29.91,30.06,OVC:08 37,51,8,None,0.00,None,25,-3.9,42,5.6,30.08,39.6,2016-01-01 00:51,None,None,None,2139,1220,None,None,None,None,None,None,None,None,None,None,None,None,None,None,None,None
2.34,2016-01-01 00:01:14,2016-01-01 00:09:01,10.8,0,0,N,None | 2016-12-31 00:00:00,2016-01-01 00:00:00 | 2016-01-01 00:00:00,New York | New York,10019 | 10022,-73.934318542480469,40.751483917236328,2,1,0.5,-73.9803996 | -73.968,40.7656668 | 40.759,0.3,9.5,0.5,-73.972511291503906,40.764915466308594,New York | New York,1 | 2,2,NY CITY CENTRAL PARK NY US,WBAN:94728,1,FM-15,None,None,None,None,None,None,None,None,None,None,None,None,-9999,-9999,None,None,None,-9999,-9999,None,None,None,None,None,None,None,None,None,None,None,None,None,None,None,None,None,None,None,None,None,None,None,None,-73.9669,40.7889,5,None,VRB,36,2.4,10.00,29.91,30.06,OVC:08 37,51,8,None,0.00,None,25,-3.9,42,5.6,30.08,39.6,2016-01-01 00:51,None,None,None,2139,1220,None,None,None,None,None,None,None,None,None,None,None,None,None,None,None,None
13.64,2016-01-01 00:01:14,2016-01-01 00:31:34,40.3,0,0,N,None,None,None,None,-73.78192138671875,40.644760131835938,2,1,0.5,None,None,0.3,39,0.5,-73.979248046875,40.661869049072266,None,None,2,NY CITY CENTRAL PARK NY US,WBAN:94728,1,FM-15,None,None,None,None,None,None,None,None,None,None,None,None,-9999,-9999,None,None,None,-9999,-9999,None,None,None,None,None,None,None,None,None,None,None,None,None,None,None,None,None,None,None,None,None,None,None,None,-73.9669,40.7889,5,None,VRB,36,2.4,10.00,29.91,30.06,OVC:08 37,51,8,None,0.00,None,25,-3.9,42,5.6,30.08,39.6,2016-01-01 00:51,None,None,None,2139,1220,None,None,None,None,None,None,None,None,None,None,None,None,None,None,None,None
3.44,2016-01-01 00:01:15,2016-01-01 00:34:37,22.8,0,0,N,None,None,None,None,-73.95953369140625,40.782745361328125,2,5,0.5,None,None,0.3,21.5,0.5,-73.993759155273438,40.745582580566406,None,None,2,NY CITY CENTRAL PARK NY US,WBAN:94728,1,FM-15,None,None,None,None,None,None,None,None,None,None,None,None,-9999,-9999,None,None,None,-9999,-9999,None,None,None,None,None,None,None,None,None,None,None,None,None,None,None,None,None,None,None,None,None,None,None,None,-73.9669,40.7889,5,None,VRB,36,2.4,10.00,29.91,30.06,OVC:08 37,51,8,None,0.00,None,25,-3.9,42,5.6,30.08,39.6,2016-01-01 00:51,None,None,None,2139,1220,None,None,None,None,None,None,None,None,None,None,None,None,None,None,None,None
7.04,2016-01-01 00:01:15,2016-01-01 00:13:15,27.25,0,5.45,N,None | None,2016-01-01 00:00:00 | 2016-01-01 00:00:00,New York | New York,None | None,-73.952644348144531,40.776496887207031,1,1,0.5,-74.0064 | -74.0064,40.7142 | 40.7142,0.3,20.5,0.5,-74.005638122558594,40.709121704101563,New York | New York,1 | 1,2,NY CITY CENTRAL PARK NY US,WBAN:94728,1,FM-15,None,None,None,None,None,None,None,None,None,None,None,None,-9999,-9999,None,None,None,-9999,-9999,None,None,None,None,None,None,None,None,None,None,None,None,None,None,None,None,None,None,None,None,None,None,None,None,-73.9669,40.7889,5,None,VRB,36,2.4,10.00,29.91,30.06,OVC:08 37,51,8,None,0.00,None,25,-3.9,42,5.6,30.08,39.6,2016-01-01 00:51,None,None,None,2139,1220,None,None,None,None,None,None,None,None,None,None,None,None,None,None,None,None
.20,2016-01-01 00:01:16,2016-01-01 00:03:52,4.8,0,0,N,2016-07-03 00:00:00,2015-10-08 00:00:00,New York,10019,-73.995613098144531,40.764671325683594,2,1,0.5,-73.9844951,40.7632328,0.3,3.5,0.5,-73.992149353027344,40.764148712158203,New York,2,1,NY CITY CENTRAL PARK NY US,WBAN:94728,1,FM-15,None,None,None,None,None,None,None,None,None,None,None,None,-9999,-9999,None,None,None,-9999,-9999,None,None,None,None,None,None,None,None,None,None,None,None,None,None,None,None,None,None,None,None,None,None,None,None,-73.9669,40.7889,5,None,VRB,36,2.4,10.00,29.91,30.06,OVC:08 37,51,8,None,0.00,None,25,-3.9,42,5.6,30.08,39.6,2016-01-01 00:51,None,None,None,2139,1220,None,None,None,None,None,None,None,None,None,None,None,None,None,None,None,None
.90,2016-01-01 00:01:16,2016-01-01 00:13:16,9.8,0,0,N,None | 2016-07-03 00:00:00,2016-01-01 00:00:00 | 2015-10-08 00:00:00,New York | New York,10019 | 10019,-73.977432250976563,40.758316040039063,2,1,0.5,-73.9803996 | -73.9844951,40.7656668 | 40.7632328,0.3,8.5,0.5,-73.983444213867188,40.766860961914062,New York | New York,1 | 2,1,NY CITY CENTRAL PARK NY US,WBAN:94728,1,FM-15,None,None,None,None,None,None,None,None,None,None,None,None,-9999,-9999,None,None,None,-9999,-9999,None,None,None,None,None,None,None,None,None,None,None,None,None,None,None,None,None,None,None,None,None,None,None,None,-73.9669,40.7889,5,None,VRB,36,2.4,10.00,29.91,30.06,OVC:08 37,51,8,None,0.00,None,25,-3.9,42,5.6,30.08,39.6,2016-01-01 00:51,None,None,None,2139,1220,None,None,None,None,None,None,None,None,None,None,None,None,None,None,None,None
2.00,2016-01-01 00:01:17,2016-01-01 00:11:08,13.5,0,2.7,N,None,None,None,None,-73.927742004394531,40.697872161865234,1,1,0.5,None,None,0.3,9.5,0.5,-73.961212158203125,40.698276519775391,None,None,1,NY CITY CENTRAL PARK NY US,WBAN:94728,1,FM-15,None,None,None,None,None,None,None,None,None,None,None,None,-9999,-9999,None,None,None,-9999,-9999,None,None,None,None,None,None,None,None,None,None,None,None,None,None,None,None,None,None,None,None,None,None,None,None,-73.9669,40.7889,5,None,VRB,36,2.4,10.00,29.91,30.06,OVC:08 37,51,8,None,0.00,None,25,-3.9,42,5.6,30.08,39.6,2016-01-01 00:51,None,None,None,2139,1220,None,None,None,None,None,None,None,None,None,None,None,None,None,None,None,None
.30,2016-01-01 00:01:19,2016-01-01 00:03:00,6,0,1.2,N,2016-12-31 00:00:00,2016-01-01 00:00:00,New York,10022,-73.966590881347656,40.757587432861328,1,1,0.5,-73.968,40.759,0.3,3.5,0.5,-73.965774536132813,40.754348754882813,New York,2,1,NY CITY CENTRAL PARK NY US,WBAN:94728,1,FM-15,None,None,None,None,None,None,None,None,None,None,None,None,-9999,-9999,None,None,None,-9999,-9999,None,None,None,None,None,None,None,None,None,None,None,None,None,None,None,None,None,None,None,None,None,None,None,None,-73.9669,40.7889,5,None,VRB,36,2.4,10.00,29.91,30.06,OVC:08 37,51,8,None,0.00,None,25,-3.9,42,5.6,30.08,39.6,2016-01-01 00:51,None,None,None,2139,1220,None,None,None,None,None,None,None,None,None,None,None,None,None,None,None,None
1.80,2016-01-01 00:01:19,2016-01-01 00:15:00,11.8,0,0,N,None | 2016-07-03 00:00:00,2016-01-01 00:00:00 | 2015-10-08 00:00:00,New York | New York,10019 | 10019,-73.954742431640625,40.765506744384766,1,1,0.5,-73.9803996 | -73.9844951,40.7656668 | 40.7632328,0.3,10.5,0.5,-73.981918334960938,40.766231536865234,New York | New York,1 | 2,1,NY CITY CENTRAL PARK NY US,WBAN:94728,1,FM-15,None,None,None,None,None,None,None,None,None,None,None,None,-9999,-9999,None,None,None,-9999,-9999,None,None,None,None,None,None,None,None,None,None,None,None,None,None,None,None,None,None,None,None,None,None,None,None,-73.9669,40.7889,5,None,VRB,36,2.4,10.00,29.91,30.06,OVC:08 37,51,8,None,0.00,None,25,-3.9,42,5.6,30.08,39.6,2016-01-01 00:51,None,None,None,2139,1220,None,None,None,None,None,None,None,None,None,None,None,None,None,None,None,None
.37,2016-01-01 00:01:19,2016-01-01 00:03:12,4.8,0,0,N,None,None,None,None,-73.997695922851562,40.737659454345703,2,2,0.5,None,None,0.3,3.5,0.5,-73.991241455078125,40.734981536865234,None,None,2,NY CITY CENTRAL PARK NY US,WBAN:94728,1,FM-15,None,None,None,None,None,None,None,None,None,None,None,None,-9999,-9999,None,None,None,-9999,-9999,None,None,None,None,None,None,None,None,None,None,None,None,None,None,None,None,None,None,None,None,None,None,None,None,-73.9669,40.7889,5,None,VRB,36,2.4,10.00,29.91,30.06,OVC:08 37,51,8,None,0.00,None,25,-3.9,42,5.6,30.08,39.6,2016-01-01 00:51,None,None,None,2139,1220,None,None,None,None,None,None,None,None,None,None,None,None,None,None,None,None
1.00,2016-01-01 00:01:20,2016-01-01 00:07:24,8.75,0,1.45,N,None,None,None,None,-73.967552185058594,40.756858825683594,1,2,0.5,None,None,0.3,6,0.5,-73.978309631347656,40.748611450195313,None,None,1,NY CITY CENTRAL PARK NY US,WBAN:94728,1,FM-15,None,None,None,None,None,None,None,None,None,None,None,None,-9999,-9999,None,None,None,-9999,-9999,None,None,None,None,None,None,None,None,None,None,None,None,None,None,None,None,None,None,None,None,None,None,None,None,-73.9669,40.7889,5,None,VRB,36,2.4,10.00,29.91,30.06,OVC:08 37,51,8,None,0.00,None,25,-3.9,42,5.6,30.08,39.6,2016-01-01 00:51,None,None,None,2139,1220,None,None,None,None,None,None,None,None,None,None,None,None,None,None,None,None
5.10,2016-01-01 00:01:20,2016-01-01 00:14:39,18.3,0,0,N,None,None,None,None,-73.964698791503906,40.796798706054688,2,1,0.5,None,None,0.3,17,0.5,-74.002204895019531,40.749237060546875,None,None,1,NY CITY CENTRAL PARK NY US,WBAN:94728,1,FM-15,None,None,None,None,None,None,None,None,None,None,None,None,-9999,-9999,None,None,None,-9999,-9999,None,None,None,None,None,None,None,None,None,None,None,None,None,None,None,None,None,None,None,None,None,None,None,None,-73.9669,40.7889,5,None,VRB,36,2.4,10.00,29.91,30.06,OVC:08 37,51,8,None,0.00,None,25,-3.9,42,5.6,30.08,39.6,2016-01-01 00:51,None,None,None,2139,1220,None,None,None,None,None,None,None,None,None,None,None,None,None,None,None,None
1.80,2016-01-01 00:01:20,2016-01-01 00:13:36,12.8,0,2,N,None,None,None,None,-73.970108032226563,40.759799957275391,1,1,0.5,None,None,0.3,9.5,0.5,-73.989356994628906,40.742988586425781,None,None,1,NY CITY CENTRAL PARK NY US,WBAN:94728,1,FM-15,None,None,None,None,None,None,None,None,None,None,None,None,-9999,-9999,None,None,None,-9999,-9999,None,None,None,None,None,None,None,None,None,None,None,None,None,None,None,None,None,None,None,None,None,None,None,None,-73.9669,40.7889,5,None,VRB,36,2.4,10.00,29.91,30.06,OVC:08 37,51,8,None,0.00,None,25,-3.9,42,5.6,30.08,39.6,2016-01-01 00:51,None,None,None,2139,1220,None,None,None,None,None,None,None,None,None,None,None,None,None,None,None,None
2.25,2016-01-01 00:01:21,2016-01-01 00:12:57,14.16,0,2.36,N,None,None,None,None,-74.001899719238281,40.739406585693359,1,1,0.5,None,None,0.3,10.5,0.5,-73.974868774414063,40.744388580322266,None,None,2,NY CITY CENTRAL PARK NY US,WBAN:94728,1,FM-15,None,None,None,None,None,None,None,None,None,None,None,None,-9999,-9999,None,None,None,-9999,-9999,None,None,None,None,None,None,None,None,None,None,None,None,None,None,None,None,None,None,None,None,None,None,None,None,-73.9669,40.7889,5,None,VRB,36,2.4,10.00,29.91,30.06,OVC:08 37,51,8,None,0.00,None,25,-3.9,42,5.6,30.08,39.6,2016-01-01 00:51,None,None,None,2139,1220,None,None,None,None,None,None,None,None,None,None,None,None,None,None,None,None
.87,2016-01-01 00:01:21,2016-01-01 00:06:40,6.8,0,0,N,None,None,None,None,-73.955223083496094,40.804378509521484,2,1,0.5,None,None,0.3,5.5,0.5,-73.963699340820313,40.798000335693359,None,None,2,NY CITY CENTRAL PARK NY US,WBAN:94728,1,FM-15,None,None,None,None,None,None,None,None,None,None,None,None,-9999,-9999,None,None,None,-9999,-9999,None,None,None,None,None,None,None,None,None,None,None,None,None,None,None,None,None,None,None,None,None,None,None,None,-73.9669,40.7889,5,None,VRB,36,2.4,10.00,29.91,30.06,OVC:08 37,51,8,None,0.00,None,25,-3.9,42,5.6,30.08,39.6,2016-01-01 00:51,None,None,None,2139,1220,None,None,None,None,None,None,None,None,None,None,None,None,None,None,None,None
8.78,2016-01-01 00:01:21,2016-01-01 00:27:41,28.3,0,0,N,None,None,None,None,-73.996627807617188,40.724601745605469,2,6,0.5,None,None,0.3,27,0.5,-73.869979858398438,40.755290985107422,None,None,2,NY CITY CENTRAL PARK NY US,WBAN:94728,1,FM-15,None,None,None,None,None,None,None,None,None,None,None,None,-9999,-9999,None,None,None,-9999,-9999,None,None,None,None,None,None,None,None,None,None,None,None,None,None,None,None,None,None,None,None,None,None,None,None,-73.9669,40.7889,5,None,VRB,36,2.4,10.00,29.91,30.06,OVC:08 37,51,8,None,0.00,None,25,-3.9,42,5.6,30.08,39.6,2016-01-01 00:51,None,None,None,2139,1220,None,None,None,None,None,None,None,None,None,None,None,None,None,None,None,None
1.60,2016-01-01 00:01:22,2016-01-01 00:10:04,9.3,0,0,N,None,None,None,None,-74.004669189453125,40.715957641601563,2,1,0.5,None,None,0.3,8,0.5,-73.989860534667969,40.734043121337891,None,None,1,NY CITY CENTRAL PARK NY US,WBAN:94728,1,FM-15,None,None,None,None,None,None,None,None,None,None,None,None,-9999,-9999,None,None,None,-9999,-9999,None,None,None,None,None,None,None,None,None,None,None,None,None,None,None,None,None,None,None,None,None,None,None,None,-73.9669,40.7889,5,None,VRB,36,2.4,10.00,29.91,30.06,OVC:08 37,51,8,None,0.00,None,25,-3.9,42,5.6,30.08,39.6,2016-01-01 00:51,None,None,None,2139,1220,None,None,None,None,None,None,None,None,None,None,None,None,None,None,None,None
1.67,2016-01-01 00:01:22,2016-01-01 00:09:25,11.16,0,1.86,N,None,None,None,None,-73.948280334472656,40.782630920410156,1,1,0.5,None,None,0.3,8,0.5,-73.938461303710938,40.792289733886719,None,None,2,NY CITY CENTRAL PARK NY US,WBAN:94728,1,FM-15,None,None,None,None,None,None,None,None,None,None,None,None,-9999,-9999,None,None,None,-9999,-9999,None,None,None,None,None,None,None,None,None,None,None,None,None,None,None,None,None,None,None,None,None,None,None,None,-73.9669,40.7889,5,None,VRB,36,2.4,10.00,29.91,30.06,OVC:08 37,51,8,None,0.00,None,25,-3.9,42,5.6,30.08,39.6,2016-01-01 00:51,None,None,None,2139,1220,None,None,None,None,None,None,None,None,None,None,None,None,None,None,None,None
1.11,2016-01-01 00:01:23,2016-01-01 00:09:22,9.96,0,1.66,N,None,None,None,None,-73.998611450195313,40.738170623779297,1,1,0.5,None,None,0.3,7,0.5,-73.994590759277344,40.75054931640625,None,None,2,NY CITY CENTRAL PARK NY US,WBAN:94728,1,FM-15,None,None,None,None,None,None,None,None,None,None,None,None,-9999,-9999,None,None,None,-9999,-9999,None,None,None,None,None,None,None,None,None,None,None,None,None,None,None,None,None,None,None,None,None,None,None,None,-73.9669,40.7889,5,None,VRB,36,2.4,10.00,29.91,30.06,OVC:08 37,51,8,None,0.00,None,25,-3.9,42,5.6,30.08,39.6,2016-01-01 00:51,None,None,None,2139,1220,None,None,None,None,None,None,None,None,None,None,None,None,None,None,None,None
6.50,2016-01-01 00:01:24,2016-01-01 00:23:19,23.8,0,0,N,None,None,None,None,-73.972267150878906,40.759864807128906,2,2,0.5,None,None,0.3,22.5,0.5,-73.876602172851562,40.748664855957031,None,None,1,NY CITY CENTRAL PARK NY US,WBAN:94728,1,FM-15,None,None,None,None,None,None,None,None,None,None,None,None,-9999,-9999,None,None,None,-9999,-9999,None,None,None,None,None,None,None,None,None,None,None,None,None,None,None,None,None,None,None,None,None,None,None,None,-73.9669,40.7889,5,None,VRB,36,2.4,10.00,29.91,30.06,OVC:08 37,51,8,None,0.00,None,25,-3.9,42,5.6,30.08,39.6,2016-01-01 00:51,None,None,None,2139,1220,None,None,None,None,None,None,None,None,None,None,None,None,None,None,None,None
1.90,2016-01-01 00:01:24,2016-01-01 00:09:52,10.3,0,0,N,None,None,None,None,-73.959747314453125,40.801292419433594,2,1,0.5,None,None,0.3,9,0.5,-73.950645446777344,40.822933197021484,None,None,1,NY CITY CENTRAL PARK NY US,WBAN:94728,1,FM-15,None,None,None,None,None,None,None,None,None,None,None,None,-9999,-9999,None,None,None,-9999,-9999,None,None,None,None,None,None,None,None,None,None,None,None,None,None,None,None,None,None,None,None,None,None,None,None,-73.9669,40.7889,5,None,VRB,36,2.4,10.00,29.91,30.06,OVC:08 37,51,8,None,0.00,None,25,-3.9,42,5.6,30.08,39.6,2016-01-01 00:51,None,None,None,2139,1220,None,None,None,None,None,None,None,None,None,None,None,None,None,None,None,None
2.94,2016-01-01 00:01:24,2016-01-01 00:21:59,16.3,0,0,N,None,None,None,None,-73.979400634765625,40.739768981933594,1,1,0.5,None,None,0.3,15,0.5,-73.999549865722656,40.742519378662109,None,None,2,NY CITY CENTRAL PARK NY US,WBAN:94728,1,FM-15,None,None,None,None,None,None,None,None,None,None,None,None,-9999,-9999,None,None,None,-9999,-9999,None,None,None,None,None,None,None,None,None,None,None,None,None,None,None,None,None,None,None,None,None,None,None,None,-73.9669,40.7889,5,None,VRB,36,2.4,10.00,29.91,30.06,OVC:08 37,51,8,None,0.00,None,25,-3.9,42,5.6,30.08,39.6,2016-01-01 00:51,None,None,None,2139,1220,None,None,None,None,None,None,None,None,None,None,None,None,None,None,None,None
1.89,2016-01-01 00:01:24,2016-01-01 00:05:58,9.8,0,1,N,2022-04-16 02:00:00 | None,2016-01-01 00:00:00 | 2016-01-01 00:00:00,New York | New York,None | 10028,-73.972930908203125,40.752601623535156,1,3,0.5,-73.9651814 | -73.9634699,40.7745779 | 40.7792134,0.3,7.5,0.5,-73.955856323242188,40.776050567626953,New York | New York,1 | 2,2,NY CITY CENTRAL PARK NY US,WBAN:94728,1,FM-15,None,None,None,None,None,None,None,None,None,None,None,None,-9999,-9999,None,None,None,-9999,-9999,None,None,None,None,None,None,None,None,None,None,None,None,None,None,None,None,None,None,None,None,None,None,None,None,-73.9669,40.7889,5,None,VRB,36,2.4,10.00,29.91,30.06,OVC:08 37,51,8,None,0.00,None,25,-3.9,42,5.6,30.08,39.6,2016-01-01 00:51,None,None,None,2139,1220,None,None,None,None,None,None,None,None,None,None,None,None,None,None,None,None
.80,2016-01-01 00:01:26,2016-01-01 00:10:01,8.3,0,0,N,None,None,None,None,-73.979644775390625,40.760196685791016,2,2,0.5,None,None,0.3,7,0.5,-73.974853515625,40.753742218017578,None,None,1,NY CITY CENTRAL PARK NY US,WBAN:94728,1,FM-15,None,None,None,None,None,None,None,None,None,None,None,None,-9999,-9999,None,None,None,-9999,-9999,None,None,None,None,None,None,None,None,None,None,None,None,None,None,None,None,None,None,None,None,None,None,None,None,-73.9669,40.7889,5,None,VRB,36,2.4,10.00,29.91,30.06,OVC:08 37,51,8,None,0.00,None,25,-3.9,42,5.6,30.08,39.6,2016-01-01 00:51,None,None,None,2139,1220,None,None,None,None,None,None,None,None,None,None,None,None,None,None,None,None
5.00,2016-01-01 00:01:26,2016-01-01 00:19:52,18.8,0,0,N,None,None,None,None,-73.995040893554687,40.760448455810547,2,1,0.5,None,None,0.3,17.5,0.5,-73.938812255859375,40.799385070800781,None,None,1,NY CITY CENTRAL PARK NY US,WBAN:94728,1,FM-15,None,None,None,None,None,None,None,None,None,None,None,None,-9999,-9999,None,None,None,-9999,-9999,None,None,None,None,None,None,None,None,None,None,None,None,None,None,None,None,None,None,None,None,None,None,None,None,-73.9669,40.7889,5,None,VRB,36,2.4,10.00,29.91,30.06,OVC:08 37,51,8,None,0.00,None,25,-3.9,42,5.6,30.08,39.6,2016-01-01 00:51,None,None,None,2139,1220,None,None,None,None,None,None,None,None,None,None,None,None,None,None,None,None
3.86,2016-01-01 00:01:26,2016-01-01 00:13:41,17.16,0,2.86,N,None,None,None,None,-73.976837158203125,40.764591217041016,1,1,0.5,None,None,0.3,13,0.5,-73.9541015625,40.804759979248047,None,None,2,NY CITY CENTRAL PARK NY US,WBAN:94728,1,FM-15,None,None,None,None,None,None,None,None,None,None,None,None,-9999,-9999,None,None,None,-9999,-9999,None,None,None,None,None,None,None,None,None,None,None,None,None,None,None,None,None,None,None,None,None,None,None,None,-73.9669,40.7889,5,None,VRB,36,2.4,10.00,29.91,30.06,OVC:08 37,51,8,None,0.00,None,25,-3.9,42,5.6,30.08,39.6,2016-01-01 00:51,None,None,None,2139,1220,None,None,None,None,None,None,None,None,None,None,None,None,None,None,None,None
2.70,2016-01-01 00:01:26,2016-01-01 00:12:40,12.3,0,0,N,None,None,None,None,-74.000953674316406,40.730838775634766,2,1,0.5,None,None,0.3,11,0.5,-74.017234802246094,40.704917907714844,None,None,2,NY CITY CENTRAL PARK NY US,WBAN:94728,1,FM-15,None,None,None,None,None,None,None,None,None,None,None,None,-9999,-9999,None,None,None,-9999,-9999,None,None,None,None,None,None,None,None,None,None,None,None,None,None,None,None,None,None,None,None,None,None,None,None,-73.9669,40.7889,5,None,VRB,36,2.4,10.00,29.91,30.06,OVC:08 37,51,8,None,0.00,None,25,-3.9,42,5.6,30.08,39.6,2016-01-01 00:51,None,None,None,2139,1220,None,None,None,None,None,None,None,None,None,None,None,None,None,None,None,None
3.10,2016-01-01 00:01:27,2016-01-01 00:35:02,26.75,0,4.45,N,None,None,None,None,-73.974395751953125,40.763877868652344,1,1,0.5,None,None,0.3,21,0.5,-73.999267578125,40.728160858154297,None,None,1,NY CITY CENTRAL PARK NY US,WBAN:94728,1,FM-15,None,None,None,None,None,None,None,None,None,None,None,None,-9999,-9999,None,None,None,-9999,-9999,None,None,None,None,None,None,None,None,None,None,None,None,None,None,None,None,None,None,None,None,None,None,None,None,-73.9669,40.7889,5,None,VRB,36,2.4,10.00,29.91,30.06,OVC:08 37,51,8,None,0.00,None,25,-3.9,42,5.6,30.08,39.6,2016-01-01 00:51,None,None,None,2139,1220,None,None,None,None,None,None,None,None,None,None,None,None,None,None,None,None
.10,2016-01-01 00:01:27,2016-01-01 00:02:33,4.3,0,0,N,None,None,None,None,-73.955177307128906,40.773174285888672,3,1,0.5,None,None,0.3,3,0.5,-73.956230163574219,40.772037506103516,None,None,1,NY CITY CENTRAL PARK NY US,WBAN:94728,1,FM-15,None,None,None,None,None,None,None,None,None,None,None,None,-9999,-9999,None,None,None,-9999,-9999,None,None,None,None,None,None,None,None,None,None,None,None,None,None,None,None,None,None,None,None,None,None,None,None,-73.9669,40.7889,5,None,VRB,36,2.4,10.00,29.91,30.06,OVC:08 37,51,8,None,0.00,None,25,-3.9,42,5.6,30.08,39.6,2016-01-01 00:51,None,None,None,2139,1220,None,None,None,None,None,None,None,None,None,None,None,None,None,None,None,None
1.40,2016-01-01 00:01:27,2016-01-01 00:14:34,13.39,0,3.09,N,None,None,None,None,-73.9898681640625,40.7293701171875,1,1,0.5,None,None,0.3,9,0.5,-73.983924865722656,40.745647430419922,None,None,2,NY CITY CENTRAL PARK NY US,WBAN:94728,1,FM-15,None,None,None,None,None,None,None,None,None,None,None,None,-9999,-9999,None,None,None,-9999,-9999,None,None,None,None,None,None,None,None,None,None,None,None,None,None,None,None,None,None,None,None,None,None,None,None,-73.9669,40.7889,5,None,VRB,36,2.4,10.00,29.91,30.06,OVC:08 37,51,8,None,0.00,None,25,-3.9,42,5.6,30.08,39.6,2016-01-01 00:51,None,None,None,2139,1220,None,None,None,None,None,None,None,None,None,None,None,None,None,None,None,None
11.20,2016-01-01 00:01:29,2016-01-01 00:25:53,33.8,0,0,N,None,None,None,None,-73.969612121582031,40.757713317871094,1,1,0.5,None,None,0.3,32.5,0.5,-73.902236938476562,40.702812194824219,None,None,1,NY CITY CENTRAL PARK NY US,WBAN:94728,1,FM-15,None,None,None,None,None,None,None,None,None,None,None,None,-9999,-9999,None,None,None,-9999,-9999,None,None,None,None,None,None,None,None,None,None,None,None,None,None,None,None,None,None,None,None,None,None,None,None,-73.9669,40.7889,5,None,VRB,36,2.4,10.00,29.91,30.06,OVC:08 37,51,8,None,0.00,None,25,-3.9,42,5.6,30.08,39.6,2016-01-01 00:51,None,None,None,2139,1220,None,None,None,None,None,None,None,None,None,None,None,None,None,None,None,None
5.60,2016-01-01 00:01:29,2016-01-01 00:29:40,28.55,0,4.75,N,None,None,None,None,-74.002418518066406,40.733234405517578,1,1,0.5,None,None,0.3,22.5,0.5,-73.924583435058594,40.691917419433594,None,None,1,NY CITY CENTRAL PARK NY US,WBAN:94728,1,FM-15,None,None,None,None,None,None,None,None,None,None,None,None,-9999,-9999,None,None,None,-9999,-9999,None,None,None,None,None,None,None,None,None,None,None,None,None,None,None,None,None,None,None,None,None,None,None,None,-73.9669,40.7889,5,None,VRB,36,2.4,10.00,29.91,30.06,OVC:08 37,51,8,None,0.00,None,25,-3.9,42,5.6,30.08,39.6,2016-01-01 00:51,None,None,None,2139,1220,None,None,None,None,None,None,None,None,None,None,None,None,None,None,None,None
1.52,2016-01-01 00:01:29,2016-01-01 00:10:45,12.09,0,2.79,N,None,None,None,None,-73.971771240234375,40.759838104248047,1,1,0.5,None,None,0.3,8,0.5,-73.987518310546875,40.748722076416016,None,None,2,NY CITY CENTRAL PARK NY US,WBAN:94728,1,FM-15,None,None,None,None,None,None,None,None,None,None,None,None,-9999,-9999,None,None,None,-9999,-9999,None,None,None,None,None,None,None,None,None,None,None,None,None,None,None,None,None,None,None,None,None,None,None,None,-73.9669,40.7889,5,None,VRB,36,2.4,10.00,29.91,30.06,OVC:08 37,51,8,None,0.00,None,25,-3.9,42,5.6,30.08,39.6,2016-01-01 00:51,None,None,None,2139,1220,None,None,None,None,None,None,None,None,None,None,None,None,None,None,None,None
.76,2016-01-01 00:01:29,2016-01-01 00:05:08,5.8,0,0,N,None,None,None,None,-73.941848754882813,40.829483032226563,2,1,0.5,None,None,0.3,4.5,0.5,-73.938644409179688,40.839866638183594,None,None,2,NY CITY CENTRAL PARK NY US,WBAN:94728,1,FM-15,None,None,None,None,None,None,None,None,None,None,None,None,-9999,-9999,None,None,None,-9999,-9999,None,None,None,None,None,None,None,None,None,None,None,None,None,None,None,None,None,None,None,None,None,None,None,None,-73.9669,40.7889,5,None,VRB,36,2.4,10.00,29.91,30.06,OVC:08 37,51,8,None,0.00,None,25,-3.9,42,5.6,30.08,39.6,2016-01-01 00:51,None,None,None,2139,1220,None,None,None,None,None,None,None,None,None,None,None,None,None,None,None,None
2.68,2016-01-01 00:01:29,2016-01-01 00:12:56,13.3,0,2,N,None,None,None,None,-74.010520935058594,40.718410491943359,1,5,0.5,None,None,0.3,10,0.5,-73.991348266601563,40.745208740234375,None,None,2,NY CITY CENTRAL PARK NY US,WBAN:94728,1,FM-15,None,None,None,None,None,None,None,None,None,None,None,None,-9999,-9999,None,None,None,-9999,-9999,None,None,None,None,None,None,None,None,None,None,None,None,None,None,None,None,None,None,None,None,None,None,None,None,-73.9669,40.7889,5,None,VRB,36,2.4,10.00,29.91,30.06,OVC:08 37,51,8,None,0.00,None,25,-3.9,42,5.6,30.08,39.6,2016-01-01 00:51,None,None,None,2139,1220,None,None,None,None,None,None,None,None,None,None,None,None,None,None,None,None
2.70,2016-01-01 00:01:32,2016-01-01 00:25:32,18.8,0,1.5,N,None,None,None,None,-74.007087707519531,40.719131469726562,1,1,0.5,None,None,0.3,16,0.5,-73.987579345703125,40.749889373779297,None,None,2,NY CITY CENTRAL PARK NY US,WBAN:94728,1,FM-15,None,None,None,None,None,None,None,None,None,None,None,None,-9999,-9999,None,None,None,-9999,-9999,None,None,None,None,None,None,None,None,None,None,None,None,None,None,None,None,None,None,None,None,None,None,None,None,-73.9669,40.7889,5,None,VRB,36,2.4,10.00,29.91,30.06,OVC:08 37,51,8,None,0.00,None,25,-3.9,42,5.6,30.08,39.6,2016-01-01 00:51,None,None,None,2139,1220,None,None,None,None,None,None,None,None,None,None,None,None,None,None,None,None
4.30,2016-01-01 00:01:33,2016-01-01 00:14:43,19.55,0,3.25,N,None,None,None,None,-73.994468688964844,40.718978881835938,1,1,0.5,None,None,0.3,15,0.5,-73.956626892089844,40.674392700195313,None,None,1,NY CITY CENTRAL PARK NY US,WBAN:94728,1,FM-15,None,None,None,None,None,None,None,None,None,None,None,None,-9999,-9999,None,None,None,-9999,-9999,None,None,None,None,None,None,None,None,None,None,None,None,None,None,None,None,None,None,None,None,None,None,None,None,-73.9669,40.7889,5,None,VRB,36,2.4,10.00,29.91,30.06,OVC:08 37,51,8,None,0.00,None,25,-3.9,42,5.6,30.08,39.6,2016-01-01 00:51,None,None,None,2139,1220,None,None,None,None,None,None,None,None,None,None,None,None,None,None,None,None
6.29,2016-01-01 00:01:33,2016-01-01 00:13:25,20.8,0,0,N,None,None,None,None,-73.984992980957031,40.773891448974609,2,1,0.5,None,None,0.3,19.5,0.5,-73.936492919921875,40.847770690917969,None,None,2,NY CITY CENTRAL PARK NY US,WBAN:94728,1,FM-15,None,None,None,None,None,None,None,None,None,None,None,None,-9999,-9999,None,None,None,-9999,-9999,None,None,None,None,None,None,None,None,None,None,None,None,None,None,None,None,None,None,None,None,None,None,None,None,-73.9669,40.7889,5,None,VRB,36,2.4,10.00,29.91,30.06,OVC:08 37,51,8,None,0.00,None,25,-3.9,42,5.6,30.08,39.6,2016-01-01 00:51,None,None,None,2139,1220,None,None,None,None,None,None,None,None,None,None,None,None,None,None,None,None
1.22,2016-01-01 00:01:33,2016-01-01 00:05:39,7.3,0,0,N,None,None,None,None,-73.862693786621094,40.768730163574219,1,1,0.5,None,None,0.3,6,0.5,-73.875297546386719,40.770359039306641,None,None,2,NY CITY CENTRAL PARK NY US,WBAN:94728,1,FM-15,None,None,None,None,None,None,None,None,None,None,None,None,-9999,-9999,None,None,None,-9999,-9999,None,None,None,None,None,None,None,None,None,None,None,None,None,None,None,None,None,None,None,None,None,None,None,None,-73.9669,40.7889,5,None,VRB,36,2.4,10.00,29.91,30.06,OVC:08 37,51,8,None,0.00,None,25,-3.9,42,5.6,30.08,39.6,2016-01-01 00:51,None,None,None,2139,1220,None,None,None,None,None,None,None,None,None,None,None,None,None,None,None,None
1.49,2016-01-01 00:01:33,2016-01-01 00:15:16,13.56,0,2.26,N,None,None,None,None,-73.998031616210938,40.719669342041016,1,5,0.5,None,None,0.3,10,0.5,-73.983909606933594,40.731800079345703,None,None,2,NY CITY CENTRAL PARK NY US,WBAN:94728,1,FM-15,None,None,None,None,None,None,None,None,None,None,None,None,-9999,-9999,None,None,None,-9999,-9999,None,None,None,None,None,None,None,None,None,None,None,None,None,None,None,None,None,None,None,None,None,None,None,None,-73.9669,40.7889,5,None,VRB,36,2.4,10.00,29.91,30.06,OVC:08 37,51,8,None,0.00,None,25,-3.9,42,5.6,30.08,39.6,2016-01-01 00:51,None,None,None,2139,1220,None,None,None,None,None,None,None,None,None,None,None,None,None,None,None,None
11.55,2016-01-01 00:01:33,2016-01-01 00:37:20,37.8,0,0,N,None,None,None,None,-73.794479370117187,40.657150268554687,2,5,0.5,None,None,0.3,36.5,0.5,-73.887382507324219,40.654159545898438,None,None,2,NY CITY CENTRAL PARK NY US,WBAN:94728,1,FM-15,None,None,None,None,None,None,None,None,None,None,None,None,-9999,-9999,None,None,None,-9999,-9999,None,None,None,None,None,None,None,None,None,None,None,None,None,None,None,None,None,None,None,None,None,None,None,None,-73.9669,40.7889,5,None,VRB,36,2.4,10.00,29.91,30.06,OVC:08 37,51,8,None,0.00,None,25,-3.9,42,5.6,30.08,39.6,2016-01-01 00:51,None,None,None,2139,1220,None,None,None,None,None,None,None,None,None,None,None,None,None,None,None,None
2.90,2016-01-01 00:01:34,2016-01-01 00:15:38,13.3,0,0,N,None,None,None,None,0,0,2,1,0.5,None,None,0.3,12,0.5,0,0,None,None,1,NY CITY CENTRAL PARK NY US,WBAN:94728,1,FM-15,None,None,None,None,None,None,None,None,None,None,None,None,-9999,-9999,None,None,None,-9999,-9999,None,None,None,None,None,None,None,None,None,None,None,None,None,None,None,None,None,None,None,None,None,None,None,None,-73.9669,40.7889,5,None,VRB,36,2.4,10.00,29.91,30.06,OVC:08 37,51,8,None,0.00,None,25,-3.9,42,5.6,30.08,39.6,2016-01-01 00:51,None,None,None,2139,1220,None,None,None,None,None,None,None,None,None,None,None,None,None,None,None,None
2.67,2016-01-01 00:01:34,2016-01-01 00:18:12,14.9,0,1.1,N,None,None,None,None,-74.002845764160156,40.731151580810547,1,1,0.5,None,None,0.3,12.5,0.5,-73.973526000976563,40.748710632324219,None,None,2,NY CITY CENTRAL PARK NY US,WBAN:94728,1,FM-15,None,None,None,None,None,None,None,None,None,None,None,None,-9999,-9999,None,None,None,-9999,-9999,None,None,None,None,None,None,None,None,None,None,None,None,None,None,None,None,None,None,None,None,None,None,None,None,-73.9669,40.7889,5,None,VRB,36,2.4,10.00,29.91,30.06,OVC:08 37,51,8,None,0.00,None,25,-3.9,42,5.6,30.08,39.6,2016-01-01 00:51,None,None,None,2139,1220,None,None,None,None,None,None,None,None,None,None,None,None,None,None,None,None
4.26,2016-01-01 00:01:34,2016-01-01 00:19:14,21.96,0,3.66,N,None,None,None,None,-73.978584289550781,40.762580871582031,1,1,0.5,None,None,0.3,17,0.5,-73.963310241699219,40.798713684082031,None,None,2,NY CITY CENTRAL PARK NY US,WBAN:94728,1,FM-15,None,None,None,None,None,None,None,None,None,None,None,None,-9999,-9999,None,None,None,-9999,-9999,None,None,None,None,None,None,None,None,None,None,None,None,None,None,None,None,None,None,None,None,None,None,None,None,-73.9669,40.7889,5,None,VRB,36,2.4,10.00,29.91,30.06,OVC:08 37,51,8,None,0.00,None,25,-3.9,42,5.6,30.08,39.6,2016-01-01 00:51,None,None,None,2139,1220,None,None,None,None,None,None,None,None,None,None,None,None,None,None,None,None
1.30,2016-01-01 00:01:35,2016-01-01 00:09:13,8.8,0,0,N,None,None,None,None,-73.995773315429688,40.759323120117188,2,1,0.5,None,None,0.3,7.5,0.5,-73.994873046875,40.750301361083984,None,None,1,NY CITY CENTRAL PARK NY US,WBAN:94728,1,FM-15,None,None,None,None,None,None,None,None,None,None,None,None,-9999,-9999,None,None,None,-9999,-9999,None,None,None,None,None,None,None,None,None,None,None,None,None,None,None,None,None,None,None,None,None,None,None,None,-73.9669,40.7889,5,None,VRB,36,2.4,10.00,29.91,30.06,OVC:08 37,51,8,None,0.00,None,25,-3.9,42,5.6,30.08,39.6,2016-01-01 00:51,None,None,None,2139,1220,None,None,None,None,None,None,None,None,None,None,None,None,None,None,None,None
1.30,2016-01-01 00:01:35,2016-01-01 00:08:48,8.3,0,0,N,None,None,None,None,-74.005050659179687,40.739955902099609,2,1,0.5,None,None,0.3,7,0.5,-73.989837646484375,40.729434967041016,None,None,1,NY CITY CENTRAL PARK NY US,WBAN:94728,1,FM-15,None,None,None,None,None,None,None,None,None,None,None,None,-9999,-9999,None,None,None,-9999,-9999,None,None,None,None,None,None,None,None,None,None,None,None,None,None,None,None,None,None,None,None,None,None,None,None,-73.9669,40.7889,5,None,VRB,36,2.4,10.00,29.91,30.06,OVC:08 37,51,8,None,0.00,None,25,-3.9,42,5.6,30.08,39.6,2016-01-01 00:51,None,None,None,2139,1220,None,None,None,None,None,None,None,None,None,None,None,None,None,None,None,None
1.18,2016-01-01 00:01:35,2016-01-01 00:08:11,7.8,0,0,N,None,None,None,None,-73.998970031738281,40.734600067138672,2,3,0.5,None,None,0.3,6.5,0.5,-73.983680725097656,40.725776672363281,None,None,2,NY CITY CENTRAL PARK NY US,WBAN:94728,1,FM-15,None,None,None,None,None,None,None,None,None,None,None,None,-9999,-9999,None,None,None,-9999,-9999,None,None,None,None,None,None,None,None,None,None,None,None,None,None,None,None,None,None,None,None,None,None,None,None,-73.9669,40.7889,5,None,VRB,36,2.4,10.00,29.91,30.06,OVC:08 37,51,8,None,0.00,None,25,-3.9,42,5.6,30.08,39.6,2016-01-01 00:51,None,None,None,2139,1220,None,None,None,None,None,None,None,None,None,None,None,None,None,None,None,None
3.55,2016-01-01 00:01:36,2016-01-01 00:20:36,20.16,0,3.36,N,None,None,None,None,0,0,1,1,0.5,None,None,0.3,15.5,0.5,0,0,None,None,2,NY CITY CENTRAL PARK NY US,WBAN:94728,1,FM-15,None,None,None,None,None,None,None,None,None,None,None,None,-9999,-9999,None,None,None,-9999,-9999,None,None,None,None,None,None,None,None,None,None,None,None,None,None,None,None,None,None,None,None,None,None,None,None,-73.9669,40.7889,5,None,VRB,36,2.4,10.00,29.91,30.06,OVC:08 37,51,8,None,0.00,None,25,-3.9,42,5.6,30.08,39.6,2016-01-01 00:51,None,None,None,2139,1220,None,None,None,None,None,None,None,None,None,None,None,None,None,None,None,None
4.59,2016-01-01 00:01:37,2016-01-01 00:26:40,20.3,0,0,N,None,None,None,None,-73.973670959472656,40.784519195556641,2,2,0.5,None,None,0.3,19,0.5,-73.988189697265625,40.731971740722656,None,None,2,NY CITY CENTRAL PARK NY US,WBAN:94728,1,FM-15,None,None,None,None,None,None,None,None,None,None,None,None,-9999,-9999,None,None,None,-9999,-9999,None,None,None,None,None,None,None,None,None,None,None,None,None,None,None,None,None,None,None,None,None,None,None,None,-73.9669,40.7889,5,None,VRB,36,2.4,10.00,29.91,30.06,OVC:08 37,51,8,None,0.00,None,25,-3.9,42,5.6,30.08,39.6,2016-01-01 00:51,None,None,None,2139,1220,None,None,None,None,None,None,None,None,None,None,None,None,None,None,None,None
1.53,2016-01-01 00:01:37,2016-01-01 00:25:25,16.3,0,0,N,None,None,None,None,0,0,2,2,0.5,None,None,0.3,15,0.5,0,0,None,None,2,NY CITY CENTRAL PARK NY US,WBAN:94728,1,FM-15,None,None,None,None,None,None,None,None,None,None,None,None,-9999,-9999,None,None,None,-9999,-9999,None,None,None,None,None,None,None,None,None,None,None,None,None,None,None,None,None,None,None,None,None,None,None,None,-73.9669,40.7889,5,None,VRB,36,2.4,10.00,29.91,30.06,OVC:08 37,51,8,None,0.00,None,25,-3.9,42,5.6,30.08,39.6,2016-01-01 00:51,None,None,None,2139,1220,None,None,None,None,None,None,None,None,None,None,None,None,None,None,None,None
.20,2016-01-01 00:01:37,2016-01-01 00:03:31,4.8,0,0,N,None | 2016-12-31 00:00:00,2016-01-01 00:00:00 | 2016-01-01 00:00:00,New York | New York,10019 | 10022,-73.973335266113281,40.764072418212891,2,1,0.5,-73.9803996 | -73.968,40.7656668 | 40.759,0.3,3.5,0.5,-73.974853515625,40.761734008789063,New York | New York,1 | 2,2,NY CITY CENTRAL PARK NY US,WBAN:94728,1,FM-15,None,None,None,None,None,None,None,None,None,None,None,None,-9999,-9999,None,None,None,-9999,-9999,None,None,None,None,None,None,None,None,None,None,None,None,None,None,None,None,None,None,None,None,None,None,None,None,-73.9669,40.7889,5,None,VRB,36,2.4,10.00,29.91,30.06,OVC:08 37,51,8,None,0.00,None,25,-3.9,42,5.6,30.08,39.6,2016-01-01 00:51,None,None,None,2139,1220,None,None,None,None,None,None,None,None,None,None,None,None,None,None,None,None
10.10,2016-01-01 00:01:38,2016-01-01 00:35:31,34.3,0,0,N,None,None,None,None,-73.978492736816406,40.762176513671875,2,1,0.5,None,None,0.3,33,0.5,-73.961082458496094,40.667453765869141,None,None,1,NY CITY CENTRAL PARK NY US,WBAN:94728,1,FM-15,None,None,None,None,None,None,None,None,None,None,None,None,-9999,-9999,None,None,None,-9999,-9999,None,None,None,None,None,None,None,None,None,None,None,None,None,None,None,None,None,None,None,None,None,None,None,None,-73.9669,40.7889,5,None,VRB,36,2.4,10.00,29.91,30.06,OVC:08 37,51,8,None,0.00,None,25,-3.9,42,5.6,30.08,39.6,2016-01-01 00:51,None,None,None,2139,1220,None,None,None,None,None,None,None,None,None,None,None,None,None,None,None,None
.70,2016-01-01 00:01:38,2016-01-01 00:06:22,8,0,1.2,N,None,None,None,None,-73.997833251953125,40.744915008544922,1,1,0.5,None,None,0.3,5.5,0.5,-73.992012023925781,40.738502502441406,None,None,1,NY CITY CENTRAL PARK NY US,WBAN:94728,1,FM-15,None,None,None,None,None,None,None,None,None,None,None,None,-9999,-9999,None,None,None,-9999,-9999,None,None,None,None,None,None,None,None,None,None,None,None,None,None,None,None,None,None,None,None,None,None,None,None,-73.9669,40.7889,5,None,VRB,36,2.4,10.00,29.91,30.06,OVC:08 37,51,8,None,0.00,None,25,-3.9,42,5.6,30.08,39.6,2016-01-01 00:51,None,None,None,2139,1220,None,None,None,None,None,None,None,None,None,None,None,None,None,None,None,None
.90,2016-01-01 00:01:38,2016-01-01 00:08:32,7.8,0,0,N,2016-12-31 00:00:00,2016-01-01 00:00:00,New York,10022,-73.955589294433594,40.764049530029297,2,1,0.5,-73.968,40.759,0.3,6.5,0.5,-73.967979431152344,40.762413024902344,New York,2,1,NY CITY CENTRAL PARK NY US,WBAN:94728,1,FM-15,None,None,None,None,None,None,None,None,None,None,None,None,-9999,-9999,None,None,None,-9999,-9999,None,None,None,None,None,None,None,None,None,None,None,None,None,None,None,None,None,None,None,None,None,None,None,None,-73.9669,40.7889,5,None,VRB,36,2.4,10.00,29.91,30.06,OVC:08 37,51,8,None,0.00,None,25,-3.9,42,5.6,30.08,39.6,2016-01-01 00:51,None,None,None,2139,1220,None,None,None,None,None,None,None,None,None,None,None,None,None,None,None,None
7.80,2016-01-01 00:01:38,2016-01-01 00:45:57,40.56,0,6.76,N,None,None,None,None,-73.988357543945313,40.720142364501953,1,1,0.5,None,None,0.3,32.5,0.5,-73.968849182128906,40.790580749511719,None,None,1,NY CITY CENTRAL PARK NY US,WBAN:94728,1,FM-15,None,None,None,None,None,None,None,None,None,None,None,None,-9999,-9999,None,None,None,-9999,-9999,None,None,None,None,None,None,None,None,None,None,None,None,None,None,None,None,None,None,None,None,None,None,None,None,-73.9669,40.7889,5,None,VRB,36,2.4,10.00,29.91,30.06,OVC:08 37,51,8,None,0.00,None,25,-3.9,42,5.6,30.08,39.6,2016-01-01 00:51,None,None,None,2139,1220,None,None,None,None,None,None,None,None,None,None,None,None,None,None,None,None
1.20,2016-01-01 00:01:38,2016-01-01 00:06:34,8.75,0,1.45,N,None | None,2016-01-01 00:00:00 | 2016-01-01 00:00:00,New York | New York,None | None,-73.99267578125,40.720390319824219,1,1,0.5,-74.0064 | -74.0064,40.7142 | 40.7142,0.3,6,0.5,-74.003372192382813,40.708168029785156,New York | New York,1 | 1,1,NY CITY CENTRAL PARK NY US,WBAN:94728,1,FM-15,None,None,None,None,None,None,None,None,None,None,None,None,-9999,-9999,None,None,None,-9999,-9999,None,None,None,None,None,None,None,None,None,None,None,None,None,None,None,None,None,None,None,None,None,None,None,None,-73.9669,40.7889,5,None,VRB,36,2.4,10.00,29.91,30.06,OVC:08 37,51,8,None,0.00,None,25,-3.9,42,5.6,30.08,39.6,2016-01-01 00:51,None,None,None,2139,1220,None,None,None,None,None,None,None,None,None,None,None,None,None,None,None,None
6.20,2016-01-01 00:01:39,2016-01-01 00:20:55,27.85,0,5.55,N,None,None,None,None,-74.014839172363281,40.714607238769531,1,2,0.5,None,None,0.3,21,0.5,-73.987525939941406,40.745502471923828,None,None,1,NY CITY CENTRAL PARK NY US,WBAN:94728,1,FM-15,None,None,None,None,None,None,None,None,None,None,None,None,-9999,-9999,None,None,None,-9999,-9999,None,None,None,None,None,None,None,None,None,None,None,None,None,None,None,None,None,None,None,None,None,None,None,None,-73.9669,40.7889,5,None,VRB,36,2.4,10.00,29.91,30.06,OVC:08 37,51,8,None,0.00,None,25,-3.9,42,5.6,30.08,39.6,2016-01-01 00:51,None,None,None,2139,1220,None,None,None,None,None,None,None,None,None,None,None,None,None,None,None,None
4.00,2016-01-01 00:01:39,2016-01-01 00:17:04,16.8,0,1,N,None,None,None,None,-73.944168090820313,40.788074493408203,1,1,0.5,None,None,0.3,14.5,0.5,-73.985527038574219,40.747257232666016,None,None,1,NY CITY CENTRAL PARK NY US,WBAN:94728,1,FM-15,None,None,None,None,None,None,None,None,None,None,None,None,-9999,-9999,None,None,None,-9999,-9999,None,None,None,None,None,None,None,None,None,None,None,None,None,None,None,None,None,None,None,None,None,None,None,None,-73.9669,40.7889,5,None,VRB,36,2.4,10.00,29.91,30.06,OVC:08 37,51,8,None,0.00,None,25,-3.9,42,5.6,30.08,39.6,2016-01-01 00:51,None,None,None,2139,1220,None,None,None,None,None,None,None,None,None,None,None,None,None,None,None,None
3.30,2016-01-01 00:01:39,2016-01-01 00:12:30,13.8,0,0,N,None,None,None,None,-73.978569030761719,40.729572296142578,2,1,0.5,None,None,0.3,12.5,0.5,-73.9554443359375,40.768348693847656,None,None,1,NY CITY CENTRAL PARK NY US,WBAN:94728,1,FM-15,None,None,None,None,None,None,None,None,None,None,None,None,-9999,-9999,None,None,None,-9999,-9999,None,None,None,None,None,None,None,None,None,None,None,None,None,None,None,None,None,None,None,None,None,None,None,None,-73.9669,40.7889,5,None,VRB,36,2.4,10.00,29.91,30.06,OVC:08 37,51,8,None,0.00,None,25,-3.9,42,5.6,30.08,39.6,2016-01-01 00:51,None,None,None,2139,1220,None,None,None,None,None,None,None,None,None,None,None,None,None,None,None,None
.71,2016-01-01 00:01:39,2016-01-01 00:05:47,6.3,0,0,N,None,None,None,None,-73.999031066894531,40.734218597412109,2,1,0.5,None,None,0.3,5,0.5,-73.999221801757812,40.729026794433594,None,None,2,NY CITY CENTRAL PARK NY US,WBAN:94728,1,FM-15,None,None,None,None,None,None,None,None,None,None,None,None,-9999,-9999,None,None,None,-9999,-9999,None,None,None,None,None,None,None,None,None,None,None,None,None,None,None,None,None,None,None,None,None,None,None,None,-73.9669,40.7889,5,None,VRB,36,2.4,10.00,29.91,30.06,OVC:08 37,51,8,None,0.00,None,25,-3.9,42,5.6,30.08,39.6,2016-01-01 00:51,None,None,None,2139,1220,None,None,None,None,None,None,None,None,None,None,None,None,None,None,None,None
5.70,2016-01-01 00:01:40,2016-01-01 00:16:59,19.8,0,0,N,None,None,None,None,-73.959922790527344,40.773502349853516,2,1,0.5,None,None,0.3,18.5,0.5,-73.888465881347656,40.816562652587891,None,None,1,NY CITY CENTRAL PARK NY US,WBAN:94728,1,FM-15,None,None,None,None,None,None,None,None,None,None,None,None,-9999,-9999,None,None,None,-9999,-9999,None,None,None,None,None,None,None,None,None,None,None,None,None,None,None,None,None,None,None,None,None,None,None,None,-73.9669,40.7889,5,None,VRB,36,2.4,10.00,29.91,30.06,OVC:08 37,51,8,None,0.00,None,25,-3.9,42,5.6,30.08,39.6,2016-01-01 00:51,None,None,None,2139,1220,None,None,None,None,None,None,None,None,None,None,None,None,None,None,None,None
3.60,2016-01-01 00:01:40,2016-01-01 00:24:33,17.3,0,0,N,None,None,None,None,-73.993942260742188,40.7567138671875,2,2,0.5,None,None,0.3,16,0.5,-74.003631591796875,40.751472473144531,None,None,1,NY CITY CENTRAL PARK NY US,WBAN:94728,1,FM-15,None,None,None,None,None,None,None,None,None,None,None,None,-9999,-9999,None,None,None,-9999,-9999,None,None,None,None,None,None,None,None,None,None,None,None,None,None,None,None,None,None,None,None,None,None,None,None,-73.9669,40.7889,5,None,VRB,36,2.4,10.00,29.91,30.06,OVC:08 37,51,8,None,0.00,None,25,-3.9,42,5.6,30.08,39.6,2016-01-01 00:51,None,None,None,2139,1220,None,None,None,None,None,None,None,None,None,None,None,None,None,None,None,None
.90,2016-01-01 00:01:41,2016-01-01 00:07:46,7.3,0,0,N,None,None,None,None,-74.002578735351563,40.739639282226562,2,1,0.5,None,None,0.3,6,0.5,-74.002197265625,40.745220184326172,None,None,1,NY CITY CENTRAL PARK NY US,WBAN:94728,1,FM-15,None,None,None,None,None,None,None,None,None,None,None,None,-9999,-9999,None,None,None,-9999,-9999,None,None,None,None,None,None,None,None,None,None,None,None,None,None,None,None,None,None,None,None,None,None,None,None,-73.9669,40.7889,5,None,VRB,36,2.4,10.00,29.91,30.06,OVC:08 37,51,8,None,0.00,None,25,-3.9,42,5.6,30.08,39.6,2016-01-01 00:51,None,None,None,2139,1220,None,None,None,None,None,None,None,None,None,None,None,None,None,None,None,None
9.60,2016-01-01 00:01:41,2016-01-01 00:34:07,38.3,0,5,N,None,None,None,None,-73.99676513671875,40.742439270019531,1,3,0.5,None,None,0.3,32,0.5,-73.941566467285156,40.851390838623047,None,None,1,NY CITY CENTRAL PARK NY US,WBAN:94728,1,FM-15,None,None,None,None,None,None,None,None,None,None,None,None,-9999,-9999,None,None,None,-9999,-9999,None,None,None,None,None,None,None,None,None,None,None,None,None,None,None,None,None,None,None,None,None,None,None,None,-73.9669,40.7889,5,None,VRB,36,2.4,10.00,29.91,30.06,OVC:08 37,51,8,None,0.00,None,25,-3.9,42,5.6,30.08,39.6,2016-01-01 00:51,None,None,None,2139,1220,None,None,None,None,None,None,None,None,None,None,None,None,None,None,None,None
1.33,2016-01-01 00:01:41,2016-01-01 00:08:17,8.3,0,0,N,None,None,None,None,-73.976448059082031,40.758377075195312,2,1,0.5,None,None,0.3,7,0.5,-73.976432800292969,40.745105743408203,None,None,2,NY CITY CENTRAL PARK NY US,WBAN:94728,1,FM-15,None,None,None,None,None,None,None,None,None,None,None,None,-9999,-9999,None,None,None,-9999,-9999,None,None,None,None,None,None,None,None,None,None,None,None,None,None,None,None,None,None,None,None,None,None,None,None,-73.9669,40.7889,5,None,VRB,36,2.4,10.00,29.91,30.06,OVC:08 37,51,8,None,0.00,None,25,-3.9,42,5.6,30.08,39.6,2016-01-01 00:51,None,None,None,2139,1220,None,None,None,None,None,None,None,None,None,None,None,None,None,None,None,None
1.18,2016-01-01 00:01:41,2016-01-01 00:08:50,7.8,0,0,N,None,None,None,None,-74.004280090332031,40.721820831298828,2,1,0.5,None,None,0.3,6.5,0.5,-73.999076843261719,40.734031677246094,None,None,2,NY CITY CENTRAL PARK NY US,WBAN:94728,1,FM-15,None,None,None,None,None,None,None,None,None,None,None,None,-9999,-9999,None,None,None,-9999,-9999,None,None,None,None,None,None,None,None,None,None,None,None,None,None,None,None,None,None,None,None,None,None,None,None,-73.9669,40.7889,5,None,VRB,36,2.4,10.00,29.91,30.06,OVC:08 37,51,8,None,0.00,None,25,-3.9,42,5.6,30.08,39.6,2016-01-01 00:51,None,None,None,2139,1220,None,None,None,None,None,None,None,None,None,None,None,None,None,None,None,None
6.90,2016-01-01 00:01:42,2016-01-01 00:16:39,27.36,0,4.56,N,None,None,None,None,-73.97149658203125,40.756011962890625,1,1,0.5,None,None,0.3,21.5,0.5,-74.0155029296875,40.7178955078125,None,None,1,NY CITY CENTRAL PARK NY US,WBAN:94728,1,FM-15,None,None,None,None,None,None,None,None,None,None,None,None,-9999,-9999,None,None,None,-9999,-9999,None,None,None,None,None,None,None,None,None,None,None,None,None,None,None,None,None,None,None,None,None,None,None,None,-73.9669,40.7889,5,None,VRB,36,2.4,10.00,29.91,30.06,OVC:08 37,51,8,None,0.00,None,25,-3.9,42,5.6,30.08,39.6,2016-01-01 00:51,None,None,None,2139,1220,None,None,None,None,None,None,None,None,None,None,None,None,None,None,None,None
1.78,2016-01-02 09:18:19,2016-01-02 09:28:56,12.25,0,2.45,N,2016-12-31 00:00:00,2016-01-01 00:00:00,New York,10022,-73.949546813964844,40.771762847900391,1,1,0.5,-73.968,40.759,0.3,9,0,-73.963699340820313,40.757251739501953,New York,2,2,NY CITY CENTRAL PARK NY US,WBAN:94728,1,FM-15,None,None,None,None,None,None,None,None,None,None,None,None,-9999,-9999,None,None,None,-9999,-9999,None,None,None,None,None,None,None,None,None,None,None,None,None,None,None,None,None,None,None,None,None,None,None,None,-73.9669,40.7889,6,None,VRB,30,-1.2,10.00,29.95,30.10,OVC:08 44,48,2,None,0.00,None,17,-8.3,35,1.7,30.12,39.6,2016-01-02 09:51,None,None,None,2140,1220,None,None,None,None,None,None,None,None,None,None,None,None,None,None,None,None
7.50,2016-01-02 09:18:20,2016-01-02 10:20:27,41.8,0,0,N,None,None,None,None,-73.9739990234375,40.742992401123047,2,1,0.5,None,None,0.3,41,0,-73.954803466796875,40.692562103271484,None,None,1,NY CITY CENTRAL PARK NY US,WBAN:94728,1,FM-15,None,None,None,None,None,None,None,None,None,None,None,None,-9999,-9999,None,None,None,-9999,-9999,None,None,None,None,None,None,None,None,None,None,None,None,None,None,None,None,None,None,None,None,None,None,None,None,-73.9669,40.7889,6,None,VRB,30,-1.2,10.00,29.95,30.10,OVC:08 44,48,2,None,0.00,None,17,-8.3,35,1.7,30.12,39.6,2016-01-02 09:51,None,None,None,2140,1220,None,None,None,None,None,None,None,None,None,None,None,None,None,None,None,None
1.40,2016-01-02 09:18:20,2016-01-02 09:29:27,10.8,0,1,N,None | 2016-07-03 00:00:00,2016-01-01 00:00:00 | 2015-10-08 00:00:00,New York | New York,10019 | 10019,-73.987266540527344,40.74432373046875,1,1,0.5,-73.9803996 | -73.9844951,40.7656668 | 40.7632328,0.3,9,0,-73.979766845703125,40.760555267333984,New York | New York,1 | 2,1,NY CITY CENTRAL PARK NY US,WBAN:94728,1,FM-15,None,None,None,None,None,None,None,None,None,None,None,None,-9999,-9999,None,None,None,-9999,-9999,None,None,None,None,None,None,None,None,None,None,None,None,None,None,None,None,None,None,None,None,None,None,None,None,-73.9669,40.7889,6,None,VRB,30,-1.2,10.00,29.95,30.10,OVC:08 44,48,2,None,0.00,None,17,-8.3,35,1.7,30.12,39.6,2016-01-02 09:51,None,None,None,2140,1220,None,None,None,None,None,None,None,None,None,None,None,None,None,None,None,None
.50,2016-01-02 09:18:20,2016-01-02 09:21:35,5.3,0,0,N,None,None,None,None,-73.942710876464844,40.794361114501953,2,1,0.5,None,None,0.3,4.5,0,-73.935356140136719,40.796188354492187,None,None,1,NY CITY CENTRAL PARK NY US,WBAN:94728,1,FM-15,None,None,None,None,None,None,None,None,None,None,None,None,-9999,-9999,None,None,None,-9999,-9999,None,None,None,None,None,None,None,None,None,None,None,None,None,None,None,None,None,None,None,None,None,None,None,None,-73.9669,40.7889,6,None,VRB,30,-1.2,10.00,29.95,30.10,OVC:08 44,48,2,None,0.00,None,17,-8.3,35,1.7,30.12,39.6,2016-01-02 09:51,None,None,None,2140,1220,None,None,None,None,None,None,None,None,None,None,None,None,None,None,None,None
1.00,2016-01-02 09:18:20,2016-01-02 09:30:41,10.8,0,1,N,None,2016-01-01 20:00:00,New York,10013,-74.008773803710937,40.713890075683594,1,1,0.5,-74.0050159,40.7208412,0.3,9,0,-73.99676513671875,40.723995208740234,New York,0,1,NY CITY CENTRAL PARK NY US,WBAN:94728,1,FM-15,None,None,None,None,None,None,None,None,None,None,None,None,-9999,-9999,None,None,None,-9999,-9999,None,None,None,None,None,None,None,None,None,None,None,None,None,None,None,None,None,None,None,None,None,None,None,None,-73.9669,40.7889,6,None,VRB,30,-1.2,10.00,29.95,30.10,OVC:08 44,48,2,None,0.00,None,17,-8.3,35,1.7,30.12,39.6,2016-01-02 09:51,None,None,None,2140,1220,None,None,None,None,None,None,None,None,None,None,None,None,None,None,None,None
.60,2016-01-02 09:18:20,2016-01-02 09:23:43,6.8,0,1,N,None | None | None,2016-01-01 00:00:00 | 2016-01-01 00:00:00 | 2016-01-01 20:00:00,New York | New York | New York,None | None | 10013,-73.997711181640625,40.724002838134766,1,1,0.5,-74.0064 | -74.0064 | -74.0050159,40.7142 | 40.7142 | 40.7208412,0.3,5,0,-74.005271911621094,40.719131469726562,New York | New York | New York,1 | 1 | 0,1,NY CITY CENTRAL PARK NY US,WBAN:94728,1,FM-15,None,None,None,None,None,None,None,None,None,None,None,None,-9999,-9999,None,None,None,-9999,-9999,None,None,None,None,None,None,None,None,None,None,None,None,None,None,None,None,None,None,None,None,None,None,None,None,-73.9669,40.7889,6,None,VRB,30,-1.2,10.00,29.95,30.10,OVC:08 44,48,2,None,0.00,None,17,-8.3,35,1.7,30.12,39.6,2016-01-02 09:51,None,None,None,2140,1220,None,None,None,None,None,None,None,None,None,None,None,None,None,None,None,None
2.70,2016-01-02 09:18:21,2016-01-02 09:39:13,18.95,0,3.15,N,None | 2016-12-31 00:00:00,2016-01-01 00:00:00 | 2016-01-01 00:00:00,New York | New York,10019 | 10022,-73.9652099609375,40.791206359863281,1,1,0.5,-73.9803996 | -73.968,40.7656668 | 40.759,0.3,15,0,-73.975845336914063,40.760135650634766,New York | New York,1 | 2,1,NY CITY CENTRAL PARK NY US,WBAN:94728,1,FM-15,None,None,None,None,None,None,None,None,None,None,None,None,-9999,-9999,None,None,None,-9999,-9999,None,None,None,None,None,None,None,None,None,None,None,None,None,None,None,None,None,None,None,None,None,None,None,None,-73.9669,40.7889,6,None,VRB,30,-1.2,10.00,29.95,30.10,OVC:08 44,48,2,None,0.00,None,17,-8.3,35,1.7,30.12,39.6,2016-01-02 09:51,None,None,None,2140,1220,None,None,None,None,None,None,None,None,None,None,None,None,None,None,None,None
2.60,2016-01-02 09:18:21,2016-01-02 09:33:55,13.3,0,0,N,None,None,None,None,-73.982025146484375,40.772476196289063,2,1,0.5,None,None,0.3,12.5,0,-73.954948425292969,40.783359527587891,None,None,1,NY CITY CENTRAL PARK NY US,WBAN:94728,1,FM-15,None,None,None,None,None,None,None,None,None,None,None,None,-9999,-9999,None,None,None,-9999,-9999,None,None,None,None,None,None,None,None,None,None,None,None,None,None,None,None,None,None,None,None,None,None,None,None,-73.9669,40.7889,6,None,VRB,30,-1.2,10.00,29.95,30.10,OVC:08 44,48,2,None,0.00,None,17,-8.3,35,1.7,30.12,39.6,2016-01-02 09:51,None,None,None,2140,1220,None,None,None,None,None,None,None,None,None,None,None,None,None,None,None,None
1.20,2016-01-02 09:18:21,2016-01-02 09:27:59,8.8,0,0,N,2016-07-03 00:00:00,2015-10-08 00:00:00,New York,10019,-73.996589660644531,40.742809295654297,2,1,0.5,-73.9844951,40.7632328,0.3,8,0,-73.989616394042969,40.757415771484375,New York,2,1,NY CITY CENTRAL PARK NY US,WBAN:94728,1,FM-15,None,None,None,None,None,None,None,None,None,None,None,None,-9999,-9999,None,None,None,-9999,-9999,None,None,None,None,None,None,None,None,None,None,None,None,None,None,None,None,None,None,None,None,None,None,None,None,-73.9669,40.7889,6,None,VRB,30,-1.2,10.00,29.95,30.10,OVC:08 44,48,2,None,0.00,None,17,-8.3,35,1.7,30.12,39.6,2016-01-02 09:51,None,None,None,2140,1220,None,None,None,None,None,None,None,None,None,None,None,None,None,None,None,None
1.23,2016-01-02 09:18:21,2016-01-02 09:28:16,10.56,0,1.76,N,None,2016-01-01 20:00:00,New York,10013,-74.015983581542969,40.715091705322266,1,5,0.5,-74.0050159,40.7208412,0.3,8,0,-74.001075744628906,40.721012115478516,New York,0,2,NY CITY CENTRAL PARK NY US,WBAN:94728,1,FM-15,None,None,None,None,None,None,None,None,None,None,None,None,-9999,-9999,None,None,None,-9999,-9999,None,None,None,None,None,None,None,None,None,None,None,None,None,None,None,None,None,None,None,None,None,None,None,None,-73.9669,40.7889,6,None,VRB,30,-1.2,10.00,29.95,30.10,OVC:08 44,48,2,None,0.00,None,17,-8.3,35,1.7,30.12,39.6,2016-01-02 09:51,None,None,None,2140,1220,None,None,None,None,None,None,None,None,None,None,None,None,None,None,None,None
.69,2016-01-02 09:18:21,2016-01-02 09:23:18,5.8,0,0,N,None,None,None,None,-73.975120544433594,40.75225830078125,2,1,0.5,None,None,0.3,5,0,-73.983833312988281,40.747150421142578,None,None,2,NY CITY CENTRAL PARK NY US,WBAN:94728,1,FM-15,None,None,None,None,None,None,None,None,None,None,None,None,-9999,-9999,None,None,None,-9999,-9999,None,None,None,None,None,None,None,None,None,None,None,None,None,None,None,None,None,None,None,None,None,None,None,None,-73.9669,40.7889,6,None,VRB,30,-1.2,10.00,29.95,30.10,OVC:08 44,48,2,None,0.00,None,17,-8.3,35,1.7,30.12,39.6,2016-01-02 09:51,None,None,None,2140,1220,None,None,None,None,None,None,None,None,None,None,None,None,None,None,None,None
1.61,2016-01-02 09:18:21,2016-01-02 09:27:30,10.56,0,1.76,N,None,2016-01-01 00:00:00,New York,10028,-73.955718994140625,40.768203735351562,1,1,0.5,-73.9634699,40.7792134,0.3,8,0,-73.972061157226562,40.781772613525391,New York,2,2,NY CITY CENTRAL PARK NY US,WBAN:94728,1,FM-15,None,None,None,None,None,None,None,None,None,None,None,None,-9999,-9999,None,None,None,-9999,-9999,None,None,None,None,None,None,None,None,None,None,None,None,None,None,None,None,None,None,None,None,None,None,None,None,-73.9669,40.7889,6,None,VRB,30,-1.2,10.00,29.95,30.10,OVC:08 44,48,2,None,0.00,None,17,-8.3,35,1.7,30.12,39.6,2016-01-02 09:51,None,None,None,2140,1220,None,None,None,None,None,None,None,None,None,None,None,None,None,None,None,None
.29,2016-01-02 09:18:21,2016-01-02 09:19:57,5.59,0,1.29,N,None,None,None,None,-73.971885681152344,40.781833648681641,1,1,0.5,None,None,0.3,3.5,0,-73.969383239746094,40.785346984863281,None,None,2,NY CITY CENTRAL PARK NY US,WBAN:94728,1,FM-15,None,None,None,None,None,None,None,None,None,None,None,None,-9999,-9999,None,None,None,-9999,-9999,None,None,None,None,None,None,None,None,None,None,None,None,None,None,None,None,None,None,None,None,None,None,None,None,-73.9669,40.7889,6,None,VRB,30,-1.2,10.00,29.95,30.10,OVC:08 44,48,2,None,0.00,None,17,-8.3,35,1.7,30.12,39.6,2016-01-02 09:51,None,None,None,2140,1220,None,None,None,None,None,None,None,None,None,None,None,None,None,None,None,None
4.89,2016-01-02 09:18:21,2016-01-02 09:54:39,26.4,0,1.1,N,None,None,None,None,-74.005928039550781,40.745220184326172,1,1,0.5,None,None,0.3,24.5,0,-73.964263916015625,40.807376861572266,None,None,2,NY CITY CENTRAL PARK NY US,WBAN:94728,1,FM-15,None,None,None,None,None,None,None,None,None,None,None,None,-9999,-9999,None,None,None,-9999,-9999,None,None,None,None,None,None,None,None,None,None,None,None,None,None,None,None,None,None,None,None,None,None,None,None,-73.9669,40.7889,6,None,VRB,30,-1.2,10.00,29.95,30.10,OVC:08 44,48,2,None,0.00,None,17,-8.3,35,1.7,30.12,39.6,2016-01-02 09:51,None,None,None,2140,1220,None,None,None,None,None,None,None,None,None,None,None,None,None,None,None,None
7.33,2016-01-02 09:18:21,2016-01-02 09:40:52,30.38,0,6.08,N,None,None,None,None,-73.997886657714844,40.682857513427734,1,2,0.5,None,None,0.3,23.5,0,-73.972236633300781,40.749797821044922,None,None,2,NY CITY CENTRAL PARK NY US,WBAN:94728,1,FM-15,None,None,None,None,None,None,None,None,None,None,None,None,-9999,-9999,None,None,None,-9999,-9999,None,None,None,None,None,None,None,None,None,None,None,None,None,None,None,None,None,None,None,None,None,None,None,None,-73.9669,40.7889,6,None,VRB,30,-1.2,10.00,29.95,30.10,OVC:08 44,48,2,None,0.00,None,17,-8.3,35,1.7,30.12,39.6,2016-01-02 09:51,None,None,None,2140,1220,None,None,None,None,None,None,None,None,None,None,None,None,None,None,None,None
.90,2016-01-02 09:18:22,2016-01-02 09:25:05,7.8,0,1,N,None,2016-01-01 09:00:00,New York,10003,-73.996261596679687,40.738037109375,1,1,0.5,-73.9870210,40.7308580,0.3,6,0,-73.990272521972656,40.731681823730469,New York,0,1,NY CITY CENTRAL PARK NY US,WBAN:94728,1,FM-15,None,None,None,None,None,None,None,None,None,None,None,None,-9999,-9999,None,None,None,-9999,-9999,None,None,None,None,None,None,None,None,None,None,None,None,None,None,None,None,None,None,None,None,None,None,None,None,-73.9669,40.7889,6,None,VRB,30,-1.2,10.00,29.95,30.10,OVC:08 44,48,2,None,0.00,None,17,-8.3,35,1.7,30.12,39.6,2016-01-02 09:51,None,None,None,2140,1220,None,None,None,None,None,None,None,None,None,None,None,None,None,None,None,None
.80,2016-01-02 09:18:22,2016-01-02 09:28:43,8.3,0,0,N,None,None,None,None,-73.991203308105469,40.749736785888672,2,1,0.5,None,None,0.3,7.5,0,-73.989494323730469,40.739948272705078,None,None,1,NY CITY CENTRAL PARK NY US,WBAN:94728,1,FM-15,None,None,None,None,None,None,None,None,None,None,None,None,-9999,-9999,None,None,None,-9999,-9999,None,None,None,None,None,None,None,None,None,None,None,None,None,None,None,None,None,None,None,None,None,None,None,None,-73.9669,40.7889,6,None,VRB,30,-1.2,10.00,29.95,30.10,OVC:08 44,48,2,None,0.00,None,17,-8.3,35,1.7,30.12,39.6,2016-01-02 09:51,None,None,None,2140,1220,None,None,None,None,None,None,None,None,None,None,None,None,None,None,None,None
1.20,2016-01-02 09:18:22,2016-01-02 09:28:10,8.8,0,0,N,2016-12-31 00:00:00,2016-01-01 00:00:00,New York,10022,-73.957862854003906,40.765365600585938,2,1,0.5,-73.968,40.759,0.3,8,0,-73.97076416015625,40.757892608642578,New York,2,1,NY CITY CENTRAL PARK NY US,WBAN:94728,1,FM-15,None,None,None,None,None,None,None,None,None,None,None,None,-9999,-9999,None,None,None,-9999,-9999,None,None,None,None,None,None,None,None,None,None,None,None,None,None,None,None,None,None,None,None,None,None,None,None,-73.9669,40.7889,6,None,VRB,30,-1.2,10.00,29.95,30.10,OVC:08 44,48,2,None,0.00,None,17,-8.3,35,1.7,30.12,39.6,2016-01-02 09:51,None,None,None,2140,1220,None,None,None,None,None,None,None,None,None,None,None,None,None,None,None,None
.90,2016-01-02 09:18:22,2016-01-02 09:25:30,8.75,0,1.45,N,None,None,None,None,0,0,1,1,0.5,None,None,0.3,6.5,0,0,0,None,None,1,NY CITY CENTRAL PARK NY US,WBAN:94728,1,FM-15,None,None,None,None,None,None,None,None,None,None,None,None,-9999,-9999,None,None,None,-9999,-9999,None,None,None,None,None,None,None,None,None,None,None,None,None,None,None,None,None,None,None,None,None,None,None,None,-73.9669,40.7889,6,None,VRB,30,-1.2,10.00,29.95,30.10,OVC:08 44,48,2,None,0.00,None,17,-8.3,35,1.7,30.12,39.6,2016-01-02 09:51,None,None,None,2140,1220,None,None,None,None,None,None,None,None,None,None,None,None,None,None,None,None
2.60,2016-01-02 09:18:22,2016-01-02 09:27:28,13.3,0,2,N,None,None,None,None,-74.010635375976563,40.717437744140625,1,1,0.5,None,None,0.3,10.5,0,-74.007949829101563,40.751300811767578,None,None,2,NY CITY CENTRAL PARK NY US,WBAN:94728,1,FM-15,None,None,None,None,None,None,None,None,None,None,None,None,-9999,-9999,None,None,None,-9999,-9999,None,None,None,None,None,None,None,None,None,None,None,None,None,None,None,None,None,None,None,None,None,None,None,None,-73.9669,40.7889,6,None,VRB,30,-1.2,10.00,29.95,30.10,OVC:08 44,48,2,None,0.00,None,17,-8.3,35,1.7,30.12,39.6,2016-01-02 09:51,None,None,None,2140,1220,None,None,None,None,None,None,None,None,None,None,None,None,None,None,None,None
1.10,2016-01-02 09:18:22,2016-01-02 09:29:24,8.8,0,0,N,None | 2016-07-03 00:00:00,2016-01-01 00:00:00 | 2015-10-08 00:00:00,New York | New York,10019 | 10019,-73.967247009277344,40.760688781738281,2,6,0.5,-73.9803996 | -73.9844951,40.7656668 | 40.7632328,0.3,8,0,-73.980751037597656,40.767665863037109,New York | New York,1 | 2,2,NY CITY CENTRAL PARK NY US,WBAN:94728,1,FM-15,None,None,None,None,None,None,None,None,None,None,None,None,-9999,-9999,None,None,None,-9999,-9999,None,None,None,None,None,None,None,None,None,None,None,None,None,None,None,None,None,None,None,None,None,None,None,None,-73.9669,40.7889,6,None,VRB,30,-1.2,10.00,29.95,30.10,OVC:08 44,48,2,None,0.00,None,17,-8.3,35,1.7,30.12,39.6,2016-01-02 09:51,None,None,None,2140,1220,None,None,None,None,None,None,None,None,None,None,None,None,None,None,None,None
2.96,2016-01-02 09:18:22,2016-01-02 09:32:34,15.8,0,2,N,None,2016-01-01 20:00:00,New York,10013,-73.977798461914063,40.73419189453125,1,1,0.5,-74.0050159,40.7208412,0.3,13,0,-74.001014709472656,40.724208831787109,New York,0,2,NY CITY CENTRAL PARK NY US,WBAN:94728,1,FM-15,None,None,None,None,None,None,None,None,None,None,None,None,-9999,-9999,None,None,None,-9999,-9999,None,None,None,None,None,None,None,None,None,None,None,None,None,None,None,None,None,None,None,None,None,None,None,None,-73.9669,40.7889,6,None,VRB,30,-1.2,10.00,29.95,30.10,OVC:08 44,48,2,None,0.00,None,17,-8.3,35,1.7,30.12,39.6,2016-01-02 09:51,None,None,None,2140,1220,None,None,None,None,None,None,None,None,None,None,None,None,None,None,None,None
1.40,2016-01-02 09:18:22,2016-01-02 09:35:21,14.3,0,2,N,None | 2016-07-03 00:00:00,2016-01-01 00:00:00 | 2015-10-08 00:00:00,New York | New York,10019 | 10019,-73.979217529296875,40.784881591796875,1,5,0.5,-73.9803996 | -73.9844951,40.7656668 | 40.7632328,0.3,11.5,0,-73.981887817382812,40.765708923339844,New York | New York,1 | 2,2,NY CITY CENTRAL PARK NY US,WBAN:94728,1,FM-15,None,None,None,None,None,None,None,None,None,None,None,None,-9999,-9999,None,None,None,-9999,-9999,None,None,None,None,None,None,None,None,None,None,None,None,None,None,None,None,None,None,None,None,None,None,None,None,-73.9669,40.7889,6,None,VRB,30,-1.2,10.00,29.95,30.10,OVC:08 44,48,2,None,0.00,None,17,-8.3,35,1.7,30.12,39.6,2016-01-02 09:51,None,None,None,2140,1220,None,None,None,None,None,None,None,None,None,None,None,None,None,None,None,None
1.50,2016-01-02 09:18:23,2016-01-02 09:33:03,13.8,0,2.5,N,None | 2016-07-03 00:00:00,2016-01-01 00:00:00 | 2015-10-08 00:00:00,New York | New York,10019 | 10019,-73.980644226074219,40.782444000244141,1,1,0.5,-73.9803996 | -73.9844951,40.7656668 | 40.7632328,0.3,10.5,0,-73.983810424804688,40.761360168457031,New York | New York,1 | 2,1,NY CITY CENTRAL PARK NY US,WBAN:94728,1,FM-15,None,None,None,None,None,None,None,None,None,None,None,None,-9999,-9999,None,None,None,-9999,-9999,None,None,None,None,None,None,None,None,None,None,None,None,None,None,None,None,None,None,None,None,None,None,None,None,-73.9669,40.7889,6,None,VRB,30,-1.2,10.00,29.95,30.10,OVC:08 44,48,2,None,0.00,None,17,-8.3,35,1.7,30.12,39.6,2016-01-02 09:51,None,None,None,2140,1220,None,None,None,None,None,None,None,None,None,None,None,None,None,None,None,None
.60,2016-01-02 09:18:23,2016-01-02 09:23:47,7.55,0,1.25,N,2016-12-31 00:00:00,2016-01-01 00:00:00,New York,10022,-73.984260559082031,40.754833221435547,1,1,0.5,-73.968,40.759,0.3,5.5,0,-73.976951599121094,40.758533477783203,New York,2,1,NY CITY CENTRAL PARK NY US,WBAN:94728,1,FM-15,None,None,None,None,None,None,None,None,None,None,None,None,-9999,-9999,None,None,None,-9999,-9999,None,None,None,None,None,None,None,None,None,None,None,None,None,None,None,None,None,None,None,None,None,None,None,None,-73.9669,40.7889,6,None,VRB,30,-1.2,10.00,29.95,30.10,OVC:08 44,48,2,None,0.00,None,17,-8.3,35,1.7,30.12,39.6,2016-01-02 09:51,None,None,None,2140,1220,None,None,None,None,None,None,None,None,None,None,None,None,None,None,None,None
1.80,2016-01-02 09:18:23,2016-01-02 09:32:05,14.1,0,2.8,N,None | 2016-07-03 00:00:00,2016-01-01 00:00:00 | 2015-10-08 00:00:00,New York | New York,10019 | 10019,-73.993362426757813,40.746902465820313,1,1,0.5,-73.9803996 | -73.9844951,40.7656668 | 40.7632328,0.3,10.5,0,-73.983062744140625,40.765792846679688,New York | New York,1 | 2,1,NY CITY CENTRAL PARK NY US,WBAN:94728,1,FM-15,None,None,None,None,None,None,None,None,None,None,None,None,-9999,-9999,None,None,None,-9999,-9999,None,None,None,None,None,None,None,None,None,None,None,None,None,None,None,None,None,None,None,None,None,None,None,None,-73.9669,40.7889,6,None,VRB,30,-1.2,10.00,29.95,30.10,OVC:08 44,48,2,None,0.00,None,17,-8.3,35,1.7,30.12,39.6,2016-01-02 09:51,None,None,None,2140,1220,None,None,None,None,None,None,None,None,None,None,None,None,None,None,None,None
2.96,2016-01-02 09:18:23,2016-01-02 09:44:52,20.3,0,2,N,None,None,None,None,-73.962234497070312,40.776077270507812,1,1,0.5,None,None,0.3,17.5,0,-73.98980712890625,40.741180419921875,None,None,2,NY CITY CENTRAL PARK NY US,WBAN:94728,1,FM-15,None,None,None,None,None,None,None,None,None,None,None,None,-9999,-9999,None,None,None,-9999,-9999,None,None,None,None,None,None,None,None,None,None,None,None,None,None,None,None,None,None,None,None,None,None,None,None,-73.9669,40.7889,6,None,VRB,30,-1.2,10.00,29.95,30.10,OVC:08 44,48,2,None,0.00,None,17,-8.3,35,1.7,30.12,39.6,2016-01-02 09:51,None,None,None,2140,1220,None,None,None,None,None,None,None,None,None,None,None,None,None,None,None,None
.89,2016-01-02 09:18:23,2016-01-02 09:23:09,7.56,0,1.26,N,None,None,None,None,-73.935699462890625,40.761070251464844,1,5,0.5,None,None,0.3,5.5,0,-73.937744140625,40.753673553466797,None,None,2,NY CITY CENTRAL PARK NY US,WBAN:94728,1,FM-15,None,None,None,None,None,None,None,None,None,None,None,None,-9999,-9999,None,None,None,-9999,-9999,None,None,None,None,None,None,None,None,None,None,None,None,None,None,None,None,None,None,None,None,None,None,None,None,-73.9669,40.7889,6,None,VRB,30,-1.2,10.00,29.95,30.10,OVC:08 44,48,2,None,0.00,None,17,-8.3,35,1.7,30.12,39.6,2016-01-02 09:51,None,None,None,2140,1220,None,None,None,None,None,None,None,None,None,None,None,None,None,None,None,None
.27,2016-01-02 09:18:23,2016-01-02 09:19:37,3.8,0,0,N,None,None,None,None,-73.977333068847656,40.750141143798828,2,6,0.5,None,None,0.3,3,0,-73.980461120605469,40.74761962890625,None,None,2,NY CITY CENTRAL PARK NY US,WBAN:94728,1,FM-15,None,None,None,None,None,None,None,None,None,None,None,None,-9999,-9999,None,None,None,-9999,-9999,None,None,None,None,None,None,None,None,None,None,None,None,None,None,None,None,None,None,None,None,None,None,None,None,-73.9669,40.7889,6,None,VRB,30,-1.2,10.00,29.95,30.10,OVC:08 44,48,2,None,0.00,None,17,-8.3,35,1.7,30.12,39.6,2016-01-02 09:51,None,None,None,2140,1220,None,None,None,None,None,None,None,None,None,None,None,None,None,None,None,None
2.01,2016-01-02 09:18:23,2016-01-02 09:32:15,12.41,0,1.11,N,None,None,None,None,-73.961036682128906,40.796726226806641,1,2,0.5,None,None,0.3,10.5,0,-73.953399658203125,40.778480529785156,None,None,2,NY CITY CENTRAL PARK NY US,WBAN:94728,1,FM-15,None,None,None,None,None,None,None,None,None,None,None,None,-9999,-9999,None,None,None,-9999,-9999,None,None,None,None,None,None,None,None,None,None,None,None,None,None,None,None,None,None,None,None,None,None,None,None,-73.9669,40.7889,6,None,VRB,30,-1.2,10.00,29.95,30.10,OVC:08 44,48,2,None,0.00,None,17,-8.3,35,1.7,30.12,39.6,2016-01-02 09:51,None,None,None,2140,1220,None,None,None,None,None,None,None,None,None,None,None,None,None,None,None,None
.69,2016-01-02 09:18:23,2016-01-02 09:21:34,5.3,0,0,N,2022-04-16 02:00:00 | None,2016-01-01 00:00:00 | 2016-01-01 00:00:00,New York | New York,None | 10028,-73.961021423339844,40.76947021484375,1,2,0.5,-73.9651814 | -73.9634699,40.7745779 | 40.7792134,0.3,4.5,0,-73.963508605957031,40.77423095703125,New York | New York,1 | 2,2,NY CITY CENTRAL PARK NY US,WBAN:94728,1,FM-15,None,None,None,None,None,None,None,None,None,None,None,None,-9999,-9999,None,None,None,-9999,-9999,None,None,None,None,None,None,None,None,None,None,None,None,None,None,None,None,None,None,None,None,None,None,None,None,-73.9669,40.7889,6,None,VRB,30,-1.2,10.00,29.95,30.10,OVC:08 44,48,2,None,0.00,None,17,-8.3,35,1.7,30.12,39.6,2016-01-02 09:51,None,None,None,2140,1220,None,None,None,None,None,None,None,None,None,None,None,None,None,None,None,None
.78,2016-01-02 09:18:24,2016-01-02 09:22:37,5.3,0,0,N,None,None,None,None,-73.988258361816406,40.753810882568359,2,1,0.5,None,None,0.3,4.5,0,-73.985549926757813,40.747093200683594,None,None,2,NY CITY CENTRAL PARK NY US,WBAN:94728,1,FM-15,None,None,None,None,None,None,None,None,None,None,None,None,-9999,-9999,None,None,None,-9999,-9999,None,None,None,None,None,None,None,None,None,None,None,None,None,None,None,None,None,None,None,None,None,None,None,None,-73.9669,40.7889,6,None,VRB,30,-1.2,10.00,29.95,30.10,OVC:08 44,48,2,None,0.00,None,17,-8.3,35,1.7,30.12,39.6,2016-01-02 09:51,None,None,None,2140,1220,None,None,None,None,None,None,None,None,None,None,None,None,None,None,None,None
3.92,2016-01-02 09:18:24,2016-01-02 09:35:43,16.3,0,0,N,None | None,2016-01-01 00:00:00 | 2016-01-01 00:00:00,New York | New York,None | None,-73.996025085449219,40.686729431152344,2,1,0.5,-74.0064 | -74.0064,40.7142 | 40.7142,0.3,15.5,0,-74.015823364257813,40.714469909667969,New York | New York,1 | 1,2,NY CITY CENTRAL PARK NY US,WBAN:94728,1,FM-15,None,None,None,None,None,None,None,None,None,None,None,None,-9999,-9999,None,None,None,-9999,-9999,None,None,None,None,None,None,None,None,None,None,None,None,None,None,None,None,None,None,None,None,None,None,None,None,-73.9669,40.7889,6,None,VRB,30,-1.2,10.00,29.95,30.10,OVC:08 44,48,2,None,0.00,None,17,-8.3,35,1.7,30.12,39.6,2016-01-02 09:51,None,None,None,2140,1220,None,None,None,None,None,None,None,None,None,None,None,None,None,None,None,None
1.61,2016-01-02 09:18:24,2016-01-02 09:29:51,11.76,0,1.96,N,None,2016-01-01 09:00:00,New York,10003,-73.990829467773437,40.750526428222656,1,1,0.5,-73.9870210,40.7308580,0.3,9,0,-73.989334106445313,40.734081268310547,New York,0,2,NY CITY CENTRAL PARK NY US,WBAN:94728,1,FM-15,None,None,None,None,None,None,None,None,None,None,None,None,-9999,-9999,None,None,None,-9999,-9999,None,None,None,None,None,None,None,None,None,None,None,None,None,None,None,None,None,None,None,None,None,None,None,None,-73.9669,40.7889,6,None,VRB,30,-1.2,10.00,29.95,30.10,OVC:08 44,48,2,None,0.00,None,17,-8.3,35,1.7,30.12,39.6,2016-01-02 09:51,None,None,None,2140,1220,None,None,None,None,None,None,None,None,None,None,None,None,None,None,None,None
4.70,2016-01-02 09:18:25,2016-01-02 09:40:03,23.75,0,3.95,N,None | None | None,2016-01-01 00:00:00 | 2016-01-01 00:00:00 | 2016-01-01 02:00:00,New York | New York | New York,None | None | 10038,-73.989303588867187,40.740478515625,1,1,0.5,-74.0064 | -74.0064 | -74.0081571,40.7142 | 40.7142 | 40.7090990,0.3,19,0,-74.008377075195312,40.711029052734375,New York | New York | New York,1 | 1 | 0,1,NY CITY CENTRAL PARK NY US,WBAN:94728,1,FM-15,None,None,None,None,None,None,None,None,None,None,None,None,-9999,-9999,None,None,None,-9999,-9999,None,None,None,None,None,None,None,None,None,None,None,None,None,None,None,None,None,None,None,None,None,None,None,None,-73.9669,40.7889,6,None,VRB,30,-1.2,10.00,29.95,30.10,OVC:08 44,48,2,None,0.00,None,17,-8.3,35,1.7,30.12,39.6,2016-01-02 09:51,None,None,None,2140,1220,None,None,None,None,None,None,None,None,None,None,None,None,None,None,None,None
2.50,2016-01-02 09:18:25,2016-01-02 09:29:35,11.3,0,0,N,None,None,None,None,-73.96990966796875,40.784591674804688,2,1,0.5,None,None,0.3,10.5,0,-73.943504333496094,40.801605224609375,None,None,1,NY CITY CENTRAL PARK NY US,WBAN:94728,1,FM-15,None,None,None,None,None,None,None,None,None,None,None,None,-9999,-9999,None,None,None,-9999,-9999,None,None,None,None,None,None,None,None,None,None,None,None,None,None,None,None,None,None,None,None,None,None,None,None,-73.9669,40.7889,6,None,VRB,30,-1.2,10.00,29.95,30.10,OVC:08 44,48,2,None,0.00,None,17,-8.3,35,1.7,30.12,39.6,2016-01-02 09:51,None,None,None,2140,1220,None,None,None,None,None,None,None,None,None,None,None,None,None,None,None,None
1.07,2016-01-02 09:18:25,2016-01-02 09:26:04,7.3,0,0,N,None,None,None,None,-73.966850280761719,40.761638641357422,2,2,0.5,None,None,0.3,6.5,0,-73.9534912109375,40.767238616943359,None,None,2,NY CITY CENTRAL PARK NY US,WBAN:94728,1,FM-15,None,None,None,None,None,None,None,None,None,None,None,None,-9999,-9999,None,None,None,-9999,-9999,None,None,None,None,None,None,None,None,None,None,None,None,None,None,None,None,None,None,None,None,None,None,None,None,-73.9669,40.7889,6,None,VRB,30,-1.2,10.00,29.95,30.10,OVC:08 44,48,2,None,0.00,None,17,-8.3,35,1.7,30.12,39.6,2016-01-02 09:51,None,None,None,2140,1220,None,None,None,None,None,None,None,None,None,None,None,None,None,None,None,None
5.41,2016-01-02 09:18:25,2016-01-02 09:33:39,23.5,0,4.7,N,None,None,None,None,-73.981109619140625,40.779388427734375,1,6,0.5,None,None,0.3,18,0,-73.940017700195313,40.841232299804688,None,None,2,NY CITY CENTRAL PARK NY US,WBAN:94728,1,FM-15,None,None,None,None,None,None,None,None,None,None,None,None,-9999,-9999,None,None,None,-9999,-9999,None,None,None,None,None,None,None,None,None,None,None,None,None,None,None,None,None,None,None,None,None,None,None,None,-73.9669,40.7889,6,None,VRB,30,-1.2,10.00,29.95,30.10,OVC:08 44,48,2,None,0.00,None,17,-8.3,35,1.7,30.12,39.6,2016-01-02 09:51,None,None,None,2140,1220,None,None,None,None,None,None,None,None,None,None,None,None,None,None,None,None
1.48,2016-01-02 09:18:25,2016-01-02 09:29:08,10.3,0,1,N,2016-12-31 00:00:00,2016-01-01 00:00:00,New York,10022,-73.985450744628906,40.744510650634766,1,6,0.5,-73.968,40.759,0.3,8.5,0,-73.971122741699219,40.759269714355469,New York,2,2,NY CITY CENTRAL PARK NY US,WBAN:94728,1,FM-15,None,None,None,None,None,None,None,None,None,None,None,None,-9999,-9999,None,None,None,-9999,-9999,None,None,None,None,None,None,None,None,None,None,None,None,None,None,None,None,None,None,None,None,None,None,None,None,-73.9669,40.7889,6,None,VRB,30,-1.2,10.00,29.95,30.10,OVC:08 44,48,2,None,0.00,None,17,-8.3,35,1.7,30.12,39.6,2016-01-02 09:51,None,None,None,2140,1220,None,None,None,None,None,None,None,None,None,None,None,None,None,None,None,None
2.06,2016-01-02 09:18:25,2016-01-02 09:29:06,10.3,0,0,N,None,None,None,None,-73.964942932128906,40.795131683349609,2,5,0.5,None,None,0.3,9.5,0,-73.939460754394531,40.804630279541016,None,None,2,NY CITY CENTRAL PARK NY US,WBAN:94728,1,FM-15,None,None,None,None,None,None,None,None,None,None,None,None,-9999,-9999,None,None,None,-9999,-9999,None,None,None,None,None,None,None,None,None,None,None,None,None,None,None,None,None,None,None,None,None,None,None,None,-73.9669,40.7889,6,None,VRB,30,-1.2,10.00,29.95,30.10,OVC:08 44,48,2,None,0.00,None,17,-8.3,35,1.7,30.12,39.6,2016-01-02 09:51,None,None,None,2140,1220,None,None,None,None,None,None,None,None,None,None,None,None,None,None,None,None
.90,2016-01-02 09:18:26,2016-01-02 09:29:41,10.55,0,1.75,N,None,None,None,None,-73.9677734375,40.756008148193359,1,1,0.5,None,None,0.3,8,0,-73.979217529296875,40.75299072265625,None,None,1,NY CITY CENTRAL PARK NY US,WBAN:94728,1,FM-15,None,None,None,None,None,None,None,None,None,None,None,None,-9999,-9999,None,None,None,-9999,-9999,None,None,None,None,None,None,None,None,None,None,None,None,None,None,None,None,None,None,None,None,None,None,None,None,-73.9669,40.7889,6,None,VRB,30,-1.2,10.00,29.95,30.10,OVC:08 44,48,2,None,0.00,None,17,-8.3,35,1.7,30.12,39.6,2016-01-02 09:51,None,None,None,2140,1220,None,None,None,None,None,None,None,None,None,None,None,None,None,None,None,None
1.50,2016-01-02 09:18:26,2016-01-02 09:31:53,11.8,0,1,N,None,None,None,None,-73.992713928222656,40.755222320556641,1,1,0.5,None,None,0.3,10,0,-73.991325378417969,40.738807678222656,None,None,1,NY CITY CENTRAL PARK NY US,WBAN:94728,1,FM-15,None,None,None,None,None,None,None,None,None,None,None,None,-9999,-9999,None,None,None,-9999,-9999,None,None,None,None,None,None,None,None,None,None,None,None,None,None,None,None,None,None,None,None,None,None,None,None,-73.9669,40.7889,6,None,VRB,30,-1.2,10.00,29.95,30.10,OVC:08 44,48,2,None,0.00,None,17,-8.3,35,1.7,30.12,39.6,2016-01-02 09:51,None,None,None,2140,1220,None,None,None,None,None,None,None,None,None,None,None,None,None,None,None,None
1.30,2016-01-02 09:18:26,2016-01-02 09:28:59,9.3,0,0,N,2016-12-31 00:00:00,2016-01-01 00:00:00,New York,10022,-73.956329345703125,40.771434783935547,2,1,0.5,-73.968,40.759,0.3,8.5,0,-73.970237731933594,40.759201049804688,New York,2,1,NY CITY CENTRAL PARK NY US,WBAN:94728,1,FM-15,None,None,None,None,None,None,None,None,None,None,None,None,-9999,-9999,None,None,None,-9999,-9999,None,None,None,None,None,None,None,None,None,None,None,None,None,None,None,None,None,None,None,None,None,None,None,None,-73.9669,40.7889,6,None,VRB,30,-1.2,10.00,29.95,30.10,OVC:08 44,48,2,None,0.00,None,17,-8.3,35,1.7,30.12,39.6,2016-01-02 09:51,None,None,None,2140,1220,None,None,None,None,None,None,None,None,None,None,None,None,None,None,None,None
.52,2016-01-02 09:18:26,2016-01-02 09:25:24,7.8,0,1,N,None,None,None,None,-73.968437194824219,40.799446105957031,1,1,0.5,None,None,0.3,6,0,-73.966438293457031,40.794395446777344,None,None,2,NY CITY CENTRAL PARK NY US,WBAN:94728,1,FM-15,None,None,None,None,None,None,None,None,None,None,None,None,-9999,-9999,None,None,None,-9999,-9999,None,None,None,None,None,None,None,None,None,None,None,None,None,None,None,None,None,None,None,None,None,None,None,None,-73.9669,40.7889,6,None,VRB,30,-1.2,10.00,29.95,30.10,OVC:08 44,48,2,None,0.00,None,17,-8.3,35,1.7,30.12,39.6,2016-01-02 09:51,None,None,None,2140,1220,None,None,None,None,None,None,None,None,None,None,None,None,None,None,None,None
2.36,2016-01-02 09:18:26,2016-01-02 09:36:30,17.16,0,2.86,N,None,None,None,None,-73.961051940917969,40.760810852050781,1,2,0.5,None,None,0.3,13.5,0,-73.982963562011719,40.748020172119141,None,None,2,NY CITY CENTRAL PARK NY US,WBAN:94728,1,FM-15,None,None,None,None,None,None,None,None,None,None,None,None,-9999,-9999,None,None,None,-9999,-9999,None,None,None,None,None,None,None,None,None,None,None,None,None,None,None,None,None,None,None,None,None,None,None,None,-73.9669,40.7889,6,None,VRB,30,-1.2,10.00,29.95,30.10,OVC:08 44,48,2,None,0.00,None,17,-8.3,35,1.7,30.12,39.6,2016-01-02 09:51,None,None,None,2140,1220,None,None,None,None,None,None,None,None,None,None,None,None,None,None,None,None
4.48,2016-01-02 09:18:26,2016-01-02 09:25:02,16.3,0,2,N,None,None,None,None,-73.971900939941406,40.794780731201172,1,1,0.5,None,None,0.3,13.5,0,-73.938720703125,40.848560333251953,None,None,2,NY CITY CENTRAL PARK NY US,WBAN:94728,1,FM-15,None,None,None,None,None,None,None,None,None,None,None,None,-9999,-9999,None,None,None,-9999,-9999,None,None,None,None,None,None,None,None,None,None,None,None,None,None,None,None,None,None,None,None,None,None,None,None,-73.9669,40.7889,6,None,VRB,30,-1.2,10.00,29.95,30.10,OVC:08 44,48,2,None,0.00,None,17,-8.3,35,1.7,30.12,39.6,2016-01-02 09:51,None,None,None,2140,1220,None,None,None,None,None,None,None,None,None,None,None,None,None,None,None,None
.32,2016-01-02 09:18:26,2016-01-02 09:22:00,5.76,0,0.96,N,2022-04-16 02:00:00 | None,2016-01-01 00:00:00 | 2016-01-01 00:00:00,New York | New York,None | 10028,-73.958229064941406,40.778739929199219,1,5,0.5,-73.9651814 | -73.9634699,40.7745779 | 40.7792134,0.3,4,0,-73.961158752441406,40.774650573730469,New York | New York,1 | 2,2,NY CITY CENTRAL PARK NY US,WBAN:94728,1,FM-15,None,None,None,None,None,None,None,None,None,None,None,None,-9999,-9999,None,None,None,-9999,-9999,None,None,None,None,None,None,None,None,None,None,None,None,None,None,None,None,None,None,None,None,None,None,None,None,-73.9669,40.7889,6,None,VRB,30,-1.2,10.00,29.95,30.10,OVC:08 44,48,2,None,0.00,None,17,-8.3,35,1.7,30.12,39.6,2016-01-02 09:51,None,None,None,2140,1220,None,None,None,None,None,None,None,None,None,None,None,None,None,None,None,None
8.60,2016-01-02 09:18:27,2016-01-02 09:49:13,34.55,0,5.75,N,None | None,2016-01-01 03:00:00 | 2016-01-01 11:00:00,New York | New York,10002 | 10002,-73.946052551269531,40.792472839355469,1,1,0.5,-73.9847 | -73.9847,40.7182 | 40.7182,0.3,28,0,-73.993171691894531,40.719764709472656,New York | New York,0 | 0,1,NY CITY CENTRAL PARK NY US,WBAN:94728,1,FM-15,None,None,None,None,None,None,None,None,None,None,None,None,-9999,-9999,None,None,None,-9999,-9999,None,None,None,None,None,None,None,None,None,None,None,None,None,None,None,None,None,None,None,None,None,None,None,None,-73.9669,40.7889,6,None,VRB,30,-1.2,10.00,29.95,30.10,OVC:08 44,48,2,None,0.00,None,17,-8.3,35,1.7,30.12,39.6,2016-01-02 09:51,None,None,None,2140,1220,None,None,None,None,None,None,None,None,None,None,None,None,None,None,None,None
1.90,2016-01-02 09:18:27,2016-01-02 09:27:58,11.76,0,1.96,N,None,None,None,None,-73.956031799316406,40.781097412109375,1,1,0.5,None,None,0.3,9,0,-73.938888549804688,40.804958343505859,None,None,1,NY CITY CENTRAL PARK NY US,WBAN:94728,1,FM-15,None,None,None,None,None,None,None,None,None,None,None,None,-9999,-9999,None,None,None,-9999,-9999,None,None,None,None,None,None,None,None,None,None,None,None,None,None,None,None,None,None,None,None,None,None,None,None,-73.9669,40.7889,6,None,VRB,30,-1.2,10.00,29.95,30.10,OVC:08 44,48,2,None,0.00,None,17,-8.3,35,1.7,30.12,39.6,2016-01-02 09:51,None,None,None,2140,1220,None,None,None,None,None,None,None,None,None,None,None,None,None,None,None,None
1.10,2016-01-02 09:18:27,2016-01-02 09:32:19,12.35,0,2.05,N,2016-12-31 00:00:00,2016-01-01 00:00:00,New York,10022,-73.981941223144531,40.752143859863281,1,2,0.5,-73.968,40.759,0.3,9.5,0,-73.972824096679688,40.758106231689453,New York,2,1,NY CITY CENTRAL PARK NY US,WBAN:94728,1,FM-15,None,None,None,None,None,None,None,None,None,None,None,None,-9999,-9999,None,None,None,-9999,-9999,None,None,None,None,None,None,None,None,None,None,None,None,None,None,None,None,None,None,None,None,None,None,None,None,-73.9669,40.7889,6,None,VRB,30,-1.2,10.00,29.95,30.10,OVC:08 44,48,2,None,0.00,None,17,-8.3,35,1.7,30.12,39.6,2016-01-02 09:51,None,None,None,2140,1220,None,None,None,None,None,None,None,None,None,None,None,None,None,None,None,None
3.32,2016-01-02 09:18:27,2016-01-02 09:48:03,20.8,0,1,N,None,None,None,None,-73.953643798828125,40.766620635986328,1,5,0.5,None,None,0.3,19,0,-73.993240356445313,40.747291564941406,None,None,2,NY CITY CENTRAL PARK NY US,WBAN:94728,1,FM-15,None,None,None,None,None,None,None,None,None,None,None,None,-9999,-9999,None,None,None,-9999,-9999,None,None,None,None,None,None,None,None,None,None,None,None,None,None,None,None,None,None,None,None,None,None,None,None,-73.9669,40.7889,6,None,VRB,30,-1.2,10.00,29.95,30.10,OVC:08 44,48,2,None,0.00,None,17,-8.3,35,1.7,30.12,39.6,2016-01-02 09:51,None,None,None,2140,1220,None,None,None,None,None,None,None,None,None,None,None,None,None,None,None,None
.60,2016-01-02 09:18:27,2016-01-02 09:27:07,9.36,0,1.56,N,None,None,None,None,-73.99176025390625,40.749248504638672,1,1,0.5,None,None,0.3,7,0,-73.989311218261719,40.743812561035156,None,None,2,NY CITY CENTRAL PARK NY US,WBAN:94728,1,FM-15,None,None,None,None,None,None,None,None,None,None,None,None,-9999,-9999,None,None,None,-9999,-9999,None,None,None,None,None,None,None,None,None,None,None,None,None,None,None,None,None,None,None,None,None,None,None,None,-73.9669,40.7889,6,None,VRB,30,-1.2,10.00,29.95,30.10,OVC:08 44,48,2,None,0.00,None,17,-8.3,35,1.7,30.12,39.6,2016-01-02 09:51,None,None,None,2140,1220,None,None,None,None,None,None,None,None,None,None,None,None,None,None,None,None
.81,2016-01-02 09:18:27,2016-01-02 09:23:41,7.88,0,1.58,N,2016-12-31 00:00:00,2016-01-01 00:00:00,New York,10022,-73.972549438476562,40.74652099609375,1,1,0.5,-73.968,40.759,0.3,5.5,0,-73.967903137207031,40.755531311035156,New York,2,2,NY CITY CENTRAL PARK NY US,WBAN:94728,1,FM-15,None,None,None,None,None,None,None,None,None,None,None,None,-9999,-9999,None,None,None,-9999,-9999,None,None,None,None,None,None,None,None,None,None,None,None,None,None,None,None,None,None,None,None,None,None,None,None,-73.9669,40.7889,6,None,VRB,30,-1.2,10.00,29.95,30.10,OVC:08 44,48,2,None,0.00,None,17,-8.3,35,1.7,30.12,39.6,2016-01-02 09:51,None,None,None,2140,1220,None,None,None,None,None,None,None,None,None,None,None,None,None,None,None,None
.79,2016-01-02 09:18:27,2016-01-02 09:27:47,8.3,0,0,N,None,2016-01-01 09:00:00,New York,10003,-73.989883422851562,40.735252380371094,2,5,0.5,-73.9870210,40.7308580,0.3,7.5,0,-73.981246948242188,40.736366271972656,New York,0,2,NY CITY CENTRAL PARK NY US,WBAN:94728,1,FM-15,None,None,None,None,None,None,None,None,None,None,None,None,-9999,-9999,None,None,None,-9999,-9999,None,None,None,None,None,None,None,None,None,None,None,None,None,None,None,None,None,None,None,None,None,None,None,None,-73.9669,40.7889,6,None,VRB,30,-1.2,10.00,29.95,30.10,OVC:08 44,48,2,None,0.00,None,17,-8.3,35,1.7,30.12,39.6,2016-01-02 09:51,None,None,None,2140,1220,None,None,None,None,None,None,None,None,None,None,None,None,None,None,None,None
.51,2016-01-02 09:18:27,2016-01-02 09:29:06,8.3,0,0,N,2016-12-31 00:00:00,2016-01-01 00:00:00,New York,10022,-73.975479125976562,40.749813079833984,1,1,0.5,-73.968,40.759,0.3,7.5,0,-73.970085144042969,40.756099700927734,New York,2,2,NY CITY CENTRAL PARK NY US,WBAN:94728,1,FM-15,None,None,None,None,None,None,None,None,None,None,None,None,-9999,-9999,None,None,None,-9999,-9999,None,None,None,None,None,None,None,None,None,None,None,None,None,None,None,None,None,None,None,None,None,None,None,None,-73.9669,40.7889,6,None,VRB,30,-1.2,10.00,29.95,30.10,OVC:08 44,48,2,None,0.00,None,17,-8.3,35,1.7,30.12,39.6,2016-01-02 09:51,None,None,None,2140,1220,None,None,None,None,None,None,None,None,None,None,None,None,None,None,None,None
4.60,2016-01-02 09:18:28,2016-01-02 09:59:42,32.75,0,5.45,N,None,None,None,None,-73.995574951171875,40.754817962646484,1,1,0.5,None,None,0.3,26.5,0,-73.948745727539063,40.770698547363281,None,None,1,NY CITY CENTRAL PARK NY US,WBAN:94728,1,FM-15,None,None,None,None,None,None,None,None,None,None,None,None,-9999,-9999,None,None,None,-9999,-9999,None,None,None,None,None,None,None,None,None,None,None,None,None,None,None,None,None,None,None,None,None,None,None,None,-73.9669,40.7889,6,None,VRB,30,-1.2,10.00,29.95,30.10,OVC:08 44,48,2,None,0.00,None,17,-8.3,35,1.7,30.12,39.6,2016-01-02 09:51,None,None,None,2140,1220,None,None,None,None,None,None,None,None,None,None,None,None,None,None,None,None
.00,2016-01-02 09:18:28,2016-01-02 09:18:34,3.3,0,0,N,None,None,None,None,-73.949928283691406,40.772037506103516,3,1,0.5,None,None,0.3,2.5,0,-73.949920654296875,40.77203369140625,None,None,1,NY CITY CENTRAL PARK NY US,WBAN:94728,1,FM-15,None,None,None,None,None,None,None,None,None,None,None,None,-9999,-9999,None,None,None,-9999,-9999,None,None,None,None,None,None,None,None,None,None,None,None,None,None,None,None,None,None,None,None,None,None,None,None,-73.9669,40.7889,6,None,VRB,30,-1.2,10.00,29.95,30.10,OVC:08 44,48,2,None,0.00,None,17,-8.3,35,1.7,30.12,39.6,2016-01-02 09:51,None,None,None,2140,1220,None,None,None,None,None,None,None,None,None,None,None,None,None,None,None,None
1.20,2016-01-02 09:18:28,2016-01-02 09:32:04,12.35,0,2.05,N,None | 2016-12-31 00:00:00,2016-01-01 00:00:00 | 2016-01-01 00:00:00,New York | New York,10019 | 10022,-73.984519958496094,40.745746612548828,1,1,0.5,-73.9803996 | -73.968,40.7656668 | 40.759,0.3,9.5,0,-73.972610473632812,40.761558532714844,New York | New York,1 | 2,1,NY CITY CENTRAL PARK NY US,WBAN:94728,1,FM-15,None,None,None,None,None,None,None,None,None,None,None,None,-9999,-9999,None,None,None,-9999,-9999,None,None,None,None,None,None,None,None,None,None,None,None,None,None,None,None,None,None,None,None,None,None,None,None,-73.9669,40.7889,6,None,VRB,30,-1.2,10.00,29.95,30.10,OVC:08 44,48,2,None,0.00,None,17,-8.3,35,1.7,30.12,39.6,2016-01-02 09:51,None,None,None,2140,1220,None,None,None,None,None,None,None,None,None,None,None,None,None,None,None,None
.77,2016-01-02 09:18:28,2016-01-02 09:27:01,9.36,0,1.56,N,None,None,None,None,-73.974624633789063,40.751060485839844,1,1,0.5,None,None,0.3,7,0,-73.987213134765625,40.75628662109375,None,None,2,NY CITY CENTRAL PARK NY US,WBAN:94728,1,FM-15,None,None,None,None,None,None,None,None,None,None,None,None,-9999,-9999,None,None,None,-9999,-9999,None,None,None,None,None,None,None,None,None,None,None,None,None,None,None,None,None,None,None,None,None,None,None,None,-73.9669,40.7889,6,None,VRB,30,-1.2,10.00,29.95,30.10,OVC:08 44,48,2,None,0.00,None,17,-8.3,35,1.7,30.12,39.6,2016-01-02 09:51,None,None,None,2140,1220,None,None,None,None,None,None,None,None,None,None,None,None,None,None,None,None
1.43,2016-01-02 09:18:28,2016-01-02 09:32:44,13.56,0,2.26,N,None | 2016-07-03 00:00:00,2016-01-01 00:00:00 | 2015-10-08 00:00:00,New York | New York,10019 | 10019,-73.980941772460938,40.744373321533203,1,5,0.5,-73.9803996 | -73.9844951,40.7656668 | 40.7632328,0.3,10.5,0,-73.981346130371094,40.759475708007812,New York | New York,1 | 2,2,NY CITY CENTRAL PARK NY US,WBAN:94728,1,FM-15,None,None,None,None,None,None,None,None,None,None,None,None,-9999,-9999,None,None,None,-9999,-9999,None,None,None,None,None,None,None,None,None,None,None,None,None,None,None,None,None,None,None,None,None,None,None,None,-73.9669,40.7889,6,None,VRB,30,-1.2,10.00,29.95,30.10,OVC:08 44,48,2,None,0.00,None,17,-8.3,35,1.7,30.12,39.6,2016-01-02 09:51,None,None,None,2140,1220,None,None,None,None,None,None,None,None,None,None,None,None,None,None,None,None
.34,2016-01-02 09:18:28,2016-01-02 09:21:05,4.3,0,0,N,2022-04-16 02:00:00,2016-01-01 00:00:00,New York,None,-73.957260131835937,40.770488739013672,2,2,0.5,-73.9651814,40.7745779,0.3,3.5,0,-73.962860107421875,40.768161773681641,New York,1,2,NY CITY CENTRAL PARK NY US,WBAN:94728,1,FM-15,None,None,None,None,None,None,None,None,None,None,None,None,-9999,-9999,None,None,None,-9999,-9999,None,None,None,None,None,None,None,None,None,None,None,None,None,None,None,None,None,None,None,None,None,None,None,None,-73.9669,40.7889,6,None,VRB,30,-1.2,10.00,29.95,30.10,OVC:08 44,48,2,None,0.00,None,17,-8.3,35,1.7,30.12,39.6,2016-01-02 09:51,None,None,None,2140,1220,None,None,None,None,None,None,None,None,None,None,None,None,None,None,None,None
3.49,2016-01-02 09:18:28,2016-01-02 09:41:42,18.8,0,1,N,None,None,None,None,-74.016151428222656,40.709911346435547,1,1,0.5,None,None,0.3,17,0,-73.991561889648438,40.739921569824219,None,None,2,NY CITY CENTRAL PARK NY US,WBAN:94728,1,FM-15,None,None,None,None,None,None,None,None,None,None,None,None,-9999,-9999,None,None,None,-9999,-9999,None,None,None,None,None,None,None,None,None,None,None,None,None,None,None,None,None,None,None,None,None,None,None,None,-73.9669,40.7889,6,None,VRB,30,-1.2,10.00,29.95,30.10,OVC:08 44,48,2,None,0.00,None,17,-8.3,35,1.7,30.12,39.6,2016-01-02 09:51,None,None,None,2140,1220,None,None,None,None,None,None,None,None,None,None,None,None,None,None,None,None
1.77,2016-01-02 09:18:28,2016-01-02 09:42:10,18.96,0,3.16,N,2016-12-31 00:00:00,2016-01-01 00:00:00,New York,10022,-73.990310668945313,40.750938415527344,1,1,0.5,-73.968,40.759,0.3,15,0,-73.970596313476563,40.756080627441406,New York,2,2,NY CITY CENTRAL PARK NY US,WBAN:94728,1,FM-15,None,None,None,None,None,None,None,None,None,None,None,None,-9999,-9999,None,None,None,-9999,-9999,None,None,None,None,None,None,None,None,None,None,None,None,None,None,None,None,None,None,None,None,None,None,None,None,-73.9669,40.7889,6,None,VRB,30,-1.2,10.00,29.95,30.10,OVC:08 44,48,2,None,0.00,None,17,-8.3,35,1.7,30.12,39.6,2016-01-02 09:51,None,None,None,2140,1220,None,None,None,None,None,None,None,None,None,None,None,None,None,None,None,None
4.65,2016-01-02 09:18:28,2016-01-02 09:48:46,21.8,0,0,N,2022-04-16 02:00:00 | None,2016-01-01 00:00:00 | 2016-01-01 00:00:00,New York | New York,None | 10028,-74.005088806152344,40.730998992919922,2,1,0.5,-73.9651814 | -73.9634699,40.7745779 | 40.7792134,0.3,21,0,-73.961959838867188,40.773281097412109,New York | New York,1 | 2,2,NY CITY CENTRAL PARK NY US,WBAN:94728,1,FM-15,None,None,None,None,None,None,None,None,None,None,None,None,-9999,-9999,None,None,None,-9999,-9999,None,None,None,None,None,None,None,None,None,None,None,None,None,None,None,None,None,None,None,None,None,None,None,None,-73.9669,40.7889,6,None,VRB,30,-1.2,10.00,29.95,30.10,OVC:08 44,48,2,None,0.00,None,17,-8.3,35,1.7,30.12,39.6,2016-01-02 09:51,None,None,None,2140,1220,None,None,None,None,None,None,None,None,None,None,None,None,None,None,None,None
3.20,2016-01-02 09:18:29,2016-01-02 09:42:24,21.35,0,3.55,N,None,None,None,None,-73.993980407714844,40.751201629638672,1,1,0.5,None,None,0.3,17,0,-73.968490600585938,40.790782928466797,None,None,1,NY CITY CENTRAL PARK NY US,WBAN:94728,1,FM-15,None,None,None,None,None,None,None,None,None,None,None,None,-9999,-9999,None,None,None,-9999,-9999,None,None,None,None,None,None,None,None,None,None,None,None,None,None,None,None,None,None,None,None,None,None,None,None,-73.9669,40.7889,6,None,VRB,30,-1.2,10.00,29.95,30.10,OVC:08 44,48,2,None,0.00,None,17,-8.3,35,1.7,30.12,39.6,2016-01-02 09:51,None,None,None,2140,1220,None,None,None,None,None,None,None,None,None,None,None,None,None,None,None,None
1.30,2016-01-02 09:18:29,2016-01-02 09:27:48,8.8,0,0,N,2016-12-31 00:00:00,2016-01-01 00:00:00,New York,10022,-73.9869384765625,40.73944091796875,2,1,0.5,-73.968,40.759,0.3,8,0,-73.975189208984375,40.755901336669922,New York,2,1,NY CITY CENTRAL PARK NY US,WBAN:94728,1,FM-15,None,None,None,None,None,None,None,None,None,None,None,None,-9999,-9999,None,None,None,-9999,-9999,None,None,None,None,None,None,None,None,None,None,None,None,None,None,None,None,None,None,None,None,None,None,None,None,-73.9669,40.7889,6,None,VRB,30,-1.2,10.00,29.95,30.10,OVC:08 44,48,2,None,0.00,None,17,-8.3,35,1.7,30.12,39.6,2016-01-02 09:51,None,None,None,2140,1220,None,None,None,None,None,None,None,None,None,None,None,None,None,None,None,None
2.00,2016-01-02 09:18:29,2016-01-02 09:43:48,15.8,0,0,N,None,None,None,None,-73.979873657226562,40.735160827636719,2,1,0.5,None,None,0.3,15,0,-73.990791320800781,40.755157470703125,None,None,1,NY CITY CENTRAL PARK NY US,WBAN:94728,1,FM-15,None,None,None,None,None,None,None,None,None,None,None,None,-9999,-9999,None,None,None,-9999,-9999,None,None,None,None,None,None,None,None,None,None,None,None,None,None,None,None,None,None,None,None,None,None,None,None,-73.9669,40.7889,6,None,VRB,30,-1.2,10.00,29.95,30.10,OVC:08 44,48,2,None,0.00,None,17,-8.3,35,1.7,30.12,39.6,2016-01-02 09:51,None,None,None,2140,1220,None,None,None,None,None,None,None,None,None,None,None,None,None,None,None,None
1.70,2016-01-02 09:18:29,2016-01-02 09:38:37,16,0,1.7,N,None,None,None,None,-73.99188232421875,40.74993896484375,1,1,0.5,None,None,0.3,13.5,0,-73.976188659667969,40.740779876708984,None,None,1,NY CITY CENTRAL PARK NY US,WBAN:94728,1,FM-15,None,None,None,None,None,None,None,None,None,None,None,None,-9999,-9999,None,None,None,-9999,-9999,None,None,None,None,None,None,None,None,None,None,None,None,None,None,None,None,None,None,None,None,None,None,None,None,-73.9669,40.7889,6,None,VRB,30,-1.2,10.00,29.95,30.10,OVC:08 44,48,2,None,0.00,None,17,-8.3,35,1.7,30.12,39.6,2016-01-02 09:51,None,None,None,2140,1220,None,None,None,None,None,None,None,None,None,None,None,None,None,None,None,None
2.89,2016-01-02 09:18:29,2016-01-02 09:33:10,16.56,0,2.76,N,None | None | None,2016-01-01 00:00:00 | 2016-01-01 00:00:00 | 2016-01-01 02:00:00,New York | New York | New York,None | None | 10038,-73.996551513671875,40.737300872802734,1,1,0.5,-74.0064 | -74.0064 | -74.0081571,40.7142 | 40.7142 | 40.7090990,0.3,13,0,-74.01409912109375,40.713920593261719,New York | New York | New York,1 | 1 | 0,2,NY CITY CENTRAL PARK NY US,WBAN:94728,1,FM-15,None,None,None,None,None,None,None,None,None,None,None,None,-9999,-9999,None,None,None,-9999,-9999,None,None,None,None,None,None,None,None,None,None,None,None,None,None,None,None,None,None,None,None,None,None,None,None,-73.9669,40.7889,6,None,VRB,30,-1.2,10.00,29.95,30.10,OVC:08 44,48,2,None,0.00,None,17,-8.3,35,1.7,30.12,39.6,2016-01-02 09:51,None,None,None,2140,1220,None,None,None,None,None,None,None,None,None,None,None,None,None,None,None,None
1.05,2016-01-02 09:18:29,2016-01-02 09:27:44,8.3,0,0,N,None,None,None,None,-74.008781433105469,40.71905517578125,2,1,0.5,None,None,0.3,7.5,0,-73.998542785644531,40.728591918945313,None,None,2,NY CITY CENTRAL PARK NY US,WBAN:94728,1,FM-15,None,None,None,None,None,None,None,None,None,None,None,None,-9999,-9999,None,None,None,-9999,-9999,None,None,None,None,None,None,None,None,None,None,None,None,None,None,None,None,None,None,None,None,None,None,None,None,-73.9669,40.7889,6,None,VRB,30,-1.2,10.00,29.95,30.10,OVC:08 44,48,2,None,0.00,None,17,-8.3,35,1.7,30.12,39.6,2016-01-02 09:51,None,None,None,2140,1220,None,None,None,None,None,None,None,None,None,None,None,None,None,None,None,None
1.43,2016-01-02 09:18:29,2016-01-02 09:34:49,14.75,0,2.95,N,None,None,None,None,-73.9952392578125,40.749820709228516,1,1,0.5,None,None,0.3,11,0,-73.977333068847656,40.755458831787109,None,None,2,NY CITY CENTRAL PARK NY US,WBAN:94728,1,FM-15,None,None,None,None,None,None,None,None,None,None,None,None,-9999,-9999,None,None,None,-9999,-9999,None,None,None,None,None,None,None,None,None,None,None,None,None,None,None,None,None,None,None,None,None,None,None,None,-73.9669,40.7889,6,None,VRB,30,-1.2,10.00,29.95,30.10,OVC:08 44,48,2,None,0.00,None,17,-8.3,35,1.7,30.12,39.6,2016-01-02 09:51,None,None,None,2140,1220,None,None,None,None,None,None,None,None,None,None,None,None,None,None,None,None
1.69,2016-01-02 09:18:29,2016-01-02 09:29:55,11.76,0,1.96,N,None,None,None,None,-74.000816345214844,40.752349853515625,1,1,0.5,None,None,0.3,9,0,-73.990501403808594,40.740100860595703,None,None,2,NY CITY CENTRAL PARK NY US,WBAN:94728,1,FM-15,None,None,None,None,None,None,None,None,None,None,None,None,-9999,-9999,None,None,None,-9999,-9999,None,None,None,None,None,None,None,None,None,None,None,None,None,None,None,None,None,None,None,None,None,None,None,None,-73.9669,40.7889,6,None,VRB,30,-1.2,10.00,29.95,30.10,OVC:08 44,48,2,None,0.00,None,17,-8.3,35,1.7,30.12,39.6,2016-01-02 09:51,None,None,None,2140,1220,None,None,None,None,None,None,None,None,None,None,None,None,None,None,None,None
.90,2016-01-02 09:18:30,2016-01-02 09:23:43,6.3,0,0,N,None | None | None,2016-01-01 00:00:00 | 2016-01-01 00:00:00 | 2016-01-01 02:00:00,New York | New York | New York,None | None | 10038,-74.016860961914062,40.706317901611328,2,1,0.5,-74.0064 | -74.0064 | -74.0081571,40.7142 | 40.7142 | 40.7090990,0.3,5.5,0,-74.010536193847656,40.708808898925781,New York | New York | New York,1 | 1 | 0,1,NY CITY CENTRAL PARK NY US,WBAN:94728,1,FM-15,None,None,None,None,None,None,None,None,None,None,None,None,-9999,-9999,None,None,None,-9999,-9999,None,None,None,None,None,None,None,None,None,None,None,None,None,None,None,None,None,None,None,None,None,None,None,None,-73.9669,40.7889,6,None,VRB,30,-1.2,10.00,29.95,30.10,OVC:08 44,48,2,None,0.00,None,17,-8.3,35,1.7,30.12,39.6,2016-01-02 09:51,None,None,None,2140,1220,None,None,None,None,None,None,None,None,None,None,None,None,None,None,None,None
1.60,2016-01-02 09:18:30,2016-01-02 09:39:57,17.75,0,2.95,N,None | 2016-07-03 00:00:00,2016-01-01 00:00:00 | 2015-10-08 00:00:00,New York | New York,10019 | 10019,-73.956573486328125,40.767017364501953,1,1,0.5,-73.9803996 | -73.9844951,40.7656668 | 40.7632328,0.3,14,0,-73.976974487304688,40.762519836425781,New York | New York,1 | 2,1,NY CITY CENTRAL PARK NY US,WBAN:94728,1,FM-15,None,None,None,None,None,None,None,None,None,None,None,None,-9999,-9999,None,None,None,-9999,-9999,None,None,None,None,None,None,None,None,None,None,None,None,None,None,None,None,None,None,None,None,None,None,None,None,-73.9669,40.7889,6,None,VRB,30,-1.2,10.00,29.95,30.10,OVC:08 44,48,2,None,0.00,None,17,-8.3,35,1.7,30.12,39.6,2016-01-02 09:51,None,None,None,2140,1220,None,None,None,None,None,None,None,None,None,None,None,None,None,None,None,None
1.20,2016-01-02 09:18:30,2016-01-02 09:29:58,10.8,0,1.5,N,None | 2016-07-03 00:00:00,2016-01-01 00:00:00 | 2015-10-08 00:00:00,New York | New York,10019 | 10019,-73.966964721679688,40.769847869873047,1,1,0.5,-73.9803996 | -73.9844951,40.7656668 | 40.7632328,0.3,8.5,0,-73.984306335449219,40.769893646240234,New York | New York,1 | 2,1,NY CITY CENTRAL PARK NY US,WBAN:94728,1,FM-15,None,None,None,None,None,None,None,None,None,None,None,None,-9999,-9999,None,None,None,-9999,-9999,None,None,None,None,None,None,None,None,None,None,None,None,None,None,None,None,None,None,None,None,None,None,None,None,-73.9669,40.7889,6,None,VRB,30,-1.2,10.00,29.95,30.10,OVC:08 44,48,2,None,0.00,None,17,-8.3,35,1.7,30.12,39.6,2016-01-02 09:51,None,None,None,2140,1220,None,None,None,None,None,None,None,None,None,None,None,None,None,None,None,None
19.22,2016-01-02 09:18:30,2016-01-02 10:03:31,63.36,0,10.56,N,None,None,None,None,-74.002754211425781,40.728641510009766,1,3,0.5,None,None,0.3,52,0,-73.783500671386719,40.643699645996094,None,None,2,NY CITY CENTRAL PARK NY US,WBAN:94728,2,FM-15,None,None,None,None,None,None,None,None,None,None,None,None,-9999,-9999,None,None,None,-9999,-9999,None,None,None,None,None,None,None,None,None,None,None,None,None,None,None,None,None,None,None,None,None,None,None,None,-73.9669,40.7889,6,None,VRB,30,-1.2,10.00,29.95,30.10,OVC:08 44,48,2,None,0.00,None,17,-8.3,35,1.7,30.12,39.6,2016-01-02 09:51,None,None,None,2140,1220,None,None,None,None,None,None,None,None,None,None,None,None,None,None,None,None
2.10,2016-01-02 09:18:31,2016-01-02 09:37:55,13.8,0,0,N,None,None,None,None,-73.982231140136719,40.765132904052734,2,1,0.5,None,None,0.3,13,0,-73.954200744628906,40.767181396484375,None,None,1,NY CITY CENTRAL PARK NY US,WBAN:94728,1,FM-15,None,None,None,None,None,None,None,None,None,None,None,None,-9999,-9999,None,None,None,-9999,-9999,None,None,None,None,None,None,None,None,None,None,None,None,None,None,None,None,None,None,None,None,None,None,None,None,-73.9669,40.7889,6,None,VRB,30,-1.2,10.00,29.95,30.10,OVC:08 44,48,2,None,0.00,None,17,-8.3,35,1.7,30.12,39.6,2016-01-02 09:51,None,None,None,2140,1220,None,None,None,None,None,None,None,None,None,None,None,None,None,None,None,None
7.00,2016-01-02 09:18:31,2016-01-02 09:45:17,38.19,5.54,6.35,N,None,2016-01-01 09:00:00,New York,10003,-74.000205993652344,40.678451538085938,1,1,0.5,-73.9870210,40.7308580,0.3,25.5,0,-73.983047485351563,40.734821319580078,New York,0,1,NY CITY CENTRAL PARK NY US,WBAN:94728,1,FM-15,None,None,None,None,None,None,None,None,None,None,None,None,-9999,-9999,None,None,None,-9999,-9999,None,None,None,None,None,None,None,None,None,None,None,None,None,None,None,None,None,None,None,None,None,None,None,None,-73.9669,40.7889,6,None,VRB,30,-1.2,10.00,29.95,30.10,OVC:08 44,48,2,None,0.00,None,17,-8.3,35,1.7,30.12,39.6,2016-01-02 09:51,None,None,None,2140,1220,None,None,None,None,None,None,None,None,None,None,None,None,None,None,None,None
15.90,2016-01-02 09:18:31,2016-01-02 09:51:40,69.99,5.54,11.65,N,None,None,None,None,-73.983627319335938,40.747642517089844,1,1,0.5,None,None,0.3,52,0,-73.78704833984375,40.64691162109375,None,None,1,NY CITY CENTRAL PARK NY US,WBAN:94728,2,FM-15,None,None,None,None,None,None,None,None,None,None,None,None,-9999,-9999,None,None,None,-9999,-9999,None,None,None,None,None,None,None,None,None,None,None,None,None,None,None,None,None,None,None,None,None,None,None,None,-73.9669,40.7889,6,None,VRB,30,-1.2,10.00,29.95,30.10,OVC:08 44,48,2,None,0.00,None,17,-8.3,35,1.7,30.12,39.6,2016-01-02 09:51,None,None,None,2140,1220,None,None,None,None,None,None,None,None,None,None,None,None,None,None,None,None
6.82,2016-01-02 09:18:31,2016-01-02 09:40:50,35.81,5.54,5.97,N,None,None,None,None,-73.951728820800781,40.769489288330078,1,6,0.5,None,None,0.3,23.5,0,-73.91217041015625,40.758941650390625,None,None,2,NY CITY CENTRAL PARK NY US,WBAN:94728,1,FM-15,None,None,None,None,None,None,None,None,None,None,None,None,-9999,-9999,None,None,None,-9999,-9999,None,None,None,None,None,None,None,None,None,None,None,None,None,None,None,None,None,None,None,None,None,None,None,None,-73.9669,40.7889,6,None,VRB,30,-1.2,10.00,29.95,30.10,OVC:08 44,48,2,None,0.00,None,17,-8.3,35,1.7,30.12,39.6,2016-01-02 09:51,None,None,None,2140,1220,None,None,None,None,None,None,None,None,None,None,None,None,None,None,None,None
1.25,2016-01-02 09:18:31,2016-01-02 09:25:55,9.36,0,1.56,N,2022-04-16 02:00:00 | None,2016-01-01 00:00:00 | 2016-01-01 00:00:00,New York | New York,None | 10028,-73.955703735351563,40.768482208251953,1,1,0.5,-73.9651814 | -73.9634699,40.7745779 | 40.7792134,0.3,7,0,-73.959945678710937,40.778812408447266,New York | New York,1 | 2,2,NY CITY CENTRAL PARK NY US,WBAN:94728,1,FM-15,None,None,None,None,None,None,None,None,None,None,None,None,-9999,-9999,None,None,None,-9999,-9999,None,None,None,None,None,None,None,None,None,None,None,None,None,None,None,None,None,None,None,None,None,None,None,None,-73.9669,40.7889,6,None,VRB,30,-1.2,10.00,29.95,30.10,OVC:08 44,48,2,None,0.00,None,17,-8.3,35,1.7,30.12,39.6,2016-01-02 09:51,None,None,None,2140,1220,None,None,None,None,None,None,None,None,None,None,None,None,None,None,None,None
2.25,2016-01-02 09:18:31,2016-01-02 09:39:17,17.76,0,2.96,N,None | 2016-07-03 00:00:00,2016-01-01 00:00:00 | 2015-10-08 00:00:00,New York | New York,10019 | 10019,-73.988136291503906,40.738006591796875,1,1,0.5,-73.9803996 | -73.9844951,40.7656668 | 40.7632328,0.3,14,0,-73.982536315917969,40.763240814208984,New York | New York,1 | 2,2,NY CITY CENTRAL PARK NY US,WBAN:94728,1,FM-15,None,None,None,None,None,None,None,None,None,None,None,None,-9999,-9999,None,None,None,-9999,-9999,None,None,None,None,None,None,None,None,None,None,None,None,None,None,None,None,None,None,None,None,None,None,None,None,-73.9669,40.7889,6,None,VRB,30,-1.2,10.00,29.95,30.10,OVC:08 44,48,2,None,0.00,None,17,-8.3,35,1.7,30.12,39.6,2016-01-02 09:51,None,None,None,2140,1220,None,None,None,None,None,None,None,None,None,None,None,None,None,None,None,None
5.10,2016-01-02 09:18:32,2016-01-02 09:48:56,29.75,0,4.95,N,None,2016-01-01 02:00:00,New York,10038,-73.993873596191406,40.735260009765625,1,1,0.5,-74.0081571,40.7090990,0.3,24,0,-74.014190673828125,40.708358764648437,New York,0,1,NY CITY CENTRAL PARK NY US,WBAN:94728,1,FM-15,None,None,None,None,None,None,None,None,None,None,None,None,-9999,-9999,None,None,None,-9999,-9999,None,None,None,None,None,None,None,None,None,None,None,None,None,None,None,None,None,None,None,None,None,None,None,None,-73.9669,40.7889,6,None,VRB,30,-1.2,10.00,29.95,30.10,OVC:08 44,48,2,None,0.00,None,17,-8.3,35,1.7,30.12,39.6,2016-01-02 09:51,None,None,None,2140,1220,None,None,None,None,None,None,None,None,None,None,None,None,None,None,None,None
3.00,2016-01-02 09:18:32,2016-01-02 09:35:38,18.5,0,3.7,N,None,None,None,None,-73.986419677734375,40.734626770019531,1,1,0.5,None,None,0.3,14,0,-74.01580810546875,40.716037750244141,None,None,1,NY CITY CENTRAL PARK NY US,WBAN:94728,1,FM-15,None,None,None,None,None,None,None,None,None,None,None,None,-9999,-9999,None,None,None,-9999,-9999,None,None,None,None,None,None,None,None,None,None,None,None,None,None,None,None,None,None,None,None,None,None,None,None,-73.9669,40.7889,6,None,VRB,30,-1.2,10.00,29.95,30.10,OVC:08 44,48,2,None,0.00,None,17,-8.3,35,1.7,30.12,39.6,2016-01-02 09:51,None,None,None,2140,1220,None,None,None,None,None,None,None,None,None,None,None,None,None,None,None,None
2.10,2016-01-02 09:18:32,2016-01-02 09:41:58,18.95,0,3.15,N,2016-12-31 00:00:00,2016-01-01 00:00:00,New York,10022,-73.955741882324219,40.781909942626953,1,1,0.5,-73.968,40.759,0.3,15,0,-73.962409973144531,40.758342742919922,New York,2,1,NY CITY CENTRAL PARK NY US,WBAN:94728,1,FM-15,None,None,None,None,None,None,None,None,None,None,None,None,-9999,-9999,None,None,None,-9999,-9999,None,None,None,None,None,None,None,None,None,None,None,None,None,None,None,None,None,None,None,None,None,None,None,None,-73.9669,40.7889,6,None,VRB,30,-1.2,10.00,29.95,30.10,OVC:08 44,48,2,None,0.00,None,17,-8.3,35,1.7,30.12,39.6,2016-01-02 09:51,None,None,None,2140,1220,None,None,None,None,None,None,None,None,None,None,None,None,None,None,None,None
3.40,2016-01-02 09:18:32,2016-01-02 09:55:33,29.12,0,5.82,N,None,None,None,None,-73.95587158203125,40.779304504394531,1,1,0.5,None,None,0.3,22.5,0,-73.989166259765625,40.741359710693359,None,None,1,NY CITY CENTRAL PARK NY US,WBAN:94728,1,FM-15,None,None,None,None,None,None,None,None,None,None,None,None,-9999,-9999,None,None,None,-9999,-9999,None,None,None,None,None,None,None,None,None,None,None,None,None,None,None,None,None,None,None,None,None,None,None,None,-73.9669,40.7889,6,None,VRB,30,-1.2,10.00,29.95,30.10,OVC:08 44,48,2,None,0.00,None,17,-8.3,35,1.7,30.12,39.6,2016-01-02 09:51,None,None,None,2140,1220,None,None,None,None,None,None,None,None,None,None,None,None,None,None,None,None
5.17,2016-01-02 09:18:32,2016-01-02 09:37:50,24.36,0,4.06,N,None | None | None,2016-01-01 00:00:00 | 2016-01-01 00:00:00 | 2016-01-01 02:00:00,New York | New York | New York,None | None | 10038,-73.978904724121094,40.740768432617188,1,1,0.5,-74.0064 | -74.0064 | -74.0081571,40.7142 | 40.7142 | 40.7090990,0.3,19.5,0,-74.014930725097656,40.71307373046875,New York | New York | New York,1 | 1 | 0,2,NY CITY CENTRAL PARK NY US,WBAN:94728,1,FM-15,None,None,None,None,None,None,None,None,None,None,None,None,-9999,-9999,None,None,None,-9999,-9999,None,None,None,None,None,None,None,None,None,None,None,None,None,None,None,None,None,None,None,None,None,None,None,None,-73.9669,40.7889,6,None,VRB,30,-1.2,10.00,29.95,30.10,OVC:08 44,48,2,None,0.00,None,17,-8.3,35,1.7,30.12,39.6,2016-01-02 09:51,None,None,None,2140,1220,None,None,None,None,None,None,None,None,None,None,None,None,None,None,None,None
.40,2016-01-02 09:18:33,2016-01-02 09:20:32,5.15,0,0.85,N,None,None,None,None,-73.999580383300781,40.738510131835938,1,1,0.5,None,None,0.3,3.5,0,-74.002471923828125,40.734035491943359,None,None,1,NY CITY CENTRAL PARK NY US,WBAN:94728,1,FM-15,None,None,None,None,None,None,None,None,None,None,None,None,-9999,-9999,None,None,None,-9999,-9999,None,None,None,None,None,None,None,None,None,None,None,None,None,None,None,None,None,None,None,None,None,None,None,None,-73.9669,40.7889,6,None,VRB,30,-1.2,10.00,29.95,30.10,OVC:08 44,48,2,None,0.00,None,17,-8.3,35,1.7,30.12,39.6,2016-01-02 09:51,None,None,None,2140,1220,None,None,None,None,None,None,None,None,None,None,None,None,None,None,None,None
3.30,2016-01-02 09:18:33,2016-01-02 09:45:32,22.55,0,3.75,N,None,None,None,None,-73.985786437988281,40.730953216552734,1,1,0.5,None,None,0.3,18,0,-73.966621398925781,40.766292572021484,None,None,1,NY CITY CENTRAL PARK NY US,WBAN:94728,1,FM-15,None,None,None,None,None,None,None,None,None,None,None,None,-9999,-9999,None,None,None,-9999,-9999,None,None,None,None,None,None,None,None,None,None,None,None,None,None,None,None,None,None,None,None,None,None,None,None,-73.9669,40.7889,6,None,VRB,30,-1.2,10.00,29.95,30.10,OVC:08 44,48,2,None,0.00,None,17,-8.3,35,1.7,30.12,39.6,2016-01-02 09:51,None,None,None,2140,1220,None,None,None,None,None,None,None,None,None,None,None,None,None,None,None,None
1.50,2016-01-02 09:18:33,2016-01-02 09:37:02,14.3,0,1,N,None,None,None,None,-73.990219116210938,40.756256103515625,1,2,0.5,None,None,0.3,12.5,0,-73.981460571289063,40.745216369628906,None,None,1,NY CITY CENTRAL PARK NY US,WBAN:94728,1,FM-15,None,None,None,None,None,None,None,None,None,None,None,None,-9999,-9999,None,None,None,-9999,-9999,None,None,None,None,None,None,None,None,None,None,None,None,None,None,None,None,None,None,None,None,None,None,None,None,-73.9669,40.7889,6,None,VRB,30,-1.2,10.00,29.95,30.10,OVC:08 44,48,2,None,0.00,None,17,-8.3,35,1.7,30.12,39.6,2016-01-02 09:51,None,None,None,2140,1220,None,None,None,None,None,None,None,None,None,None,None,None,None,None,None,None
1.57,2016-01-02 09:18:33,2016-01-02 09:33:36,11.3,0,0,N,2016-12-31 00:00:00,2016-01-01 00:00:00,New York,10022,-73.952651977539063,40.783580780029297,2,3,0.5,-73.968,40.759,0.3,10.5,0,-73.964553833007813,40.764812469482422,New York,2,2,NY CITY CENTRAL PARK NY US,WBAN:94728,1,FM-15,None,None,None,None,None,None,None,None,None,None,None,None,-9999,-9999,None,None,None,-9999,-9999,None,None,None,None,None,None,None,None,None,None,None,None,None,None,None,None,None,None,None,None,None,None,None,None,-73.9669,40.7889,6,None,VRB,30,-1.2,10.00,29.95,30.10,OVC:08 44,48,2,None,0.00,None,17,-8.3,35,1.7,30.12,39.6,2016-01-02 09:51,None,None,None,2140,1220,None,None,None,None,None,None,None,None,None,None,None,None,None,None,None,None
2.11,2016-01-02 09:18:33,2016-01-02 09:27:32,11.76,0,1.96,N,None,None,None,None,-73.949569702148438,40.781150817871094,1,5,0.5,None,None,0.3,9,0,-73.97589111328125,40.776458740234375,None,None,2,NY CITY CENTRAL PARK NY US,WBAN:94728,1,FM-15,None,None,None,None,None,None,None,None,None,None,None,None,-9999,-9999,None,None,None,-9999,-9999,None,None,None,None,None,None,None,None,None,None,None,None,None,None,None,None,None,None,None,None,None,None,None,None,-73.9669,40.7889,6,None,VRB,30,-1.2,10.00,29.95,30.10,OVC:08 44,48,2,None,0.00,None,17,-8.3,35,1.7,30.12,39.6,2016-01-02 09:51,None,None,None,2140,1220,None,None,None,None,None,None,None,None,None,None,None,None,None,None,None,None
10.76,2016-01-02 09:18:33,2016-01-02 09:40:10,42.84,5.54,5,N,None,None,None,None,-73.977134704589844,40.751945495605469,1,1,0.5,None,None,0.3,31.5,0,-73.870529174804688,40.773757934570313,None,None,2,NY CITY CENTRAL PARK NY US,WBAN:94728,1,FM-15,None,None,None,None,None,None,None,None,None,None,None,None,-9999,-9999,None,None,None,-9999,-9999,None,None,None,None,None,None,None,None,None,None,None,None,None,None,None,None,None,None,None,None,None,None,None,None,-73.9669,40.7889,6,None,VRB,30,-1.2,10.00,29.95,30.10,OVC:08 44,48,2,None,0.00,None,17,-8.3,35,1.7,30.12,39.6,2016-01-02 09:51,None,None,None,2140,1220,None,None,None,None,None,None,None,None,None,None,None,None,None,None,None,None
3.76,2016-01-02 09:18:33,2016-01-02 09:43:30,22.56,0,3.76,N,None,None,None,None,-73.953651428222656,40.766941070556641,1,5,0.5,None,None,0.3,18,0,-73.944557189941406,40.808971405029297,None,None,2,NY CITY CENTRAL PARK NY US,WBAN:94728,1,FM-15,None,None,None,None,None,None,None,None,None,None,None,None,-9999,-9999,None,None,None,-9999,-9999,None,None,None,None,None,None,None,None,None,None,None,None,None,None,None,None,None,None,None,None,None,None,None,None,-73.9669,40.7889,6,None,VRB,30,-1.2,10.00,29.95,30.10,OVC:08 44,48,2,None,0.00,None,17,-8.3,35,1.7,30.12,39.6,2016-01-02 09:51,None,None,None,2140,1220,None,None,None,None,None,None,None,None,None,None,None,None,None,None,None,None
3.70,2016-01-02 09:18:34,2016-01-02 09:36:11,18.95,0,3.15,N,None,None,None,None,-74.014328002929688,40.709434509277344,1,1,0.5,None,None,0.3,15,0,-73.994804382324219,40.750400543212891,None,None,1,NY CITY CENTRAL PARK NY US,WBAN:94728,1,FM-15,None,None,None,None,None,None,None,None,None,None,None,None,-9999,-9999,None,None,None,-9999,-9999,None,None,None,None,None,None,None,None,None,None,None,None,None,None,None,None,None,None,None,None,None,None,None,None,-73.9669,40.7889,6,None,VRB,30,-1.2,10.00,29.95,30.10,OVC:08 44,48,2,None,0.00,None,17,-8.3,35,1.7,30.12,39.6,2016-01-02 09:51,None,None,None,2140,1220,None,None,None,None,None,None,None,None,None,None,None,None,None,None,None,None
.90,2016-01-02 09:18:34,2016-01-02 09:31:21,9.8,0,0,N,None,None,None,None,-73.992774963378906,40.743000030517578,2,1,0.5,None,None,0.3,9,0,-73.977058410644531,40.739044189453125,None,None,1,NY CITY CENTRAL PARK NY US,WBAN:94728,1,FM-15,None,None,None,None,None,None,None,None,None,None,None,None,-9999,-9999,None,None,None,-9999,-9999,None,None,None,None,None,None,None,None,None,None,None,None,None,None,None,None,None,None,None,None,None,None,None,None,-73.9669,40.7889,6,None,VRB,30,-1.2,10.00,29.95,30.10,OVC:08 44,48,2,None,0.00,None,17,-8.3,35,1.7,30.12,39.6,2016-01-02 09:51,None,None,None,2140,1220,None,None,None,None,None,None,None,None,None,None,None,None,None,None,None,None
1.20,2016-01-02 09:18:34,2016-01-02 09:27:31,9.3,0,1,N,None | None | None,2016-01-01 00:00:00 | 2016-01-01 00:00:00 | 2016-01-01 20:00:00,New York | New York | New York,None | None | 10013,-74.008354187011719,40.736125946044922,1,1,0.5,-74.0064 | -74.0064 | -74.0050159,40.7142 | 40.7142 | 40.7208412,0.3,7.5,0,-74.010154724121094,40.719749450683594,New York | New York | New York,1 | 1 | 0,1,NY CITY CENTRAL PARK NY US,WBAN:94728,1,FM-15,None,None,None,None,None,None,None,None,None,None,None,None,-9999,-9999,None,None,None,-9999,-9999,None,None,None,None,None,None,None,None,None,None,None,None,None,None,None,None,None,None,None,None,None,None,None,None,-73.9669,40.7889,6,None,VRB,30,-1.2,10.00,29.95,30.10,OVC:08 44,48,2,None,0.00,None,17,-8.3,35,1.7,30.12,39.6,2016-01-02 09:51,None,None,None,2140,1220,None,None,None,None,None,None,None,None,None,None,None,None,None,None,None,None
.80,2016-01-02 09:18:34,2016-01-02 09:34:43,13,0,1.7,N,2016-12-31 00:00:00,2016-01-01 00:00:00,New York,10022,-73.9615478515625,40.757785797119141,1,1,0.5,-73.968,40.759,0.3,10.5,0,-73.972610473632812,40.758903503417969,New York,2,1,NY CITY CENTRAL PARK NY US,WBAN:94728,1,FM-15,None,None,None,None,None,None,None,None,None,None,None,None,-9999,-9999,None,None,None,-9999,-9999,None,None,None,None,None,None,None,None,None,None,None,None,None,None,None,None,None,None,None,None,None,None,None,None,-73.9669,40.7889,6,None,VRB,30,-1.2,10.00,29.95,30.10,OVC:08 44,48,2,None,0.00,None,17,-8.3,35,1.7,30.12,39.6,2016-01-02 09:51,None,None,None,2140,1220,None,None,None,None,None,None,None,None,None,None,None,None,None,None,None,None
2.30,2016-01-02 09:18:34,2016-01-02 09:32:33,12.3,0,0,N,None,None,None,None,-74.008827209472656,40.719169616699219,2,1,0.5,None,None,0.3,11.5,0,-73.99072265625,40.694492340087891,None,None,1,NY CITY CENTRAL PARK NY US,WBAN:94728,1,FM-15,None,None,None,None,None,None,None,None,None,None,None,None,-9999,-9999,None,None,None,-9999,-9999,None,None,None,None,None,None,None,None,None,None,None,None,None,None,None,None,None,None,None,None,None,None,None,None,-73.9669,40.7889,6,None,VRB,30,-1.2,10.00,29.95,30.10,OVC:08 44,48,2,None,0.00,None,17,-8.3,35,1.7,30.12,39.6,2016-01-02 09:51,None,None,None,2140,1220,None,None,None,None,None,None,None,None,None,None,None,None,None,None,None,None
1.50,2016-01-02 09:18:34,2016-01-02 09:33:12,12.3,0,1,N,None | 2016-07-03 00:00:00,2016-01-01 00:00:00 | 2015-10-08 00:00:00,New York | New York,10019 | 10019,-73.977371215820313,40.749591827392578,1,1,0.5,-73.9803996 | -73.9844951,40.7656668 | 40.7632328,0.3,10.5,0,-73.976058959960937,40.763931274414063,New York | New York,1 | 2,1,NY CITY CENTRAL PARK NY US,WBAN:94728,1,FM-15,None,None,None,None,None,None,None,None,None,None,None,None,-9999,-9999,None,None,None,-9999,-9999,None,None,None,None,None,None,None,None,None,None,None,None,None,None,None,None,None,None,None,None,None,None,None,None,-73.9669,40.7889,6,None,VRB,30,-1.2,10.00,29.95,30.10,OVC:08 44,48,2,None,0.00,None,17,-8.3,35,1.7,30.12,39.6,2016-01-02 09:51,None,None,None,2140,1220,None,None,None,None,None,None,None,None,None,None,None,None,None,None,None,None
2.64,2016-01-02 09:18:34,2016-01-02 09:41:45,18.3,0,2,N,None | 2016-07-03 00:00:00,2016-01-01 00:00:00 | 2015-10-08 00:00:00,New York | New York,10019 | 10019,-73.950904846191406,40.771568298339844,1,3,0.5,-73.9803996 | -73.9844951,40.7656668 | 40.7632328,0.3,15.5,0,-73.980796813964844,40.762340545654297,New York | New York,1 | 2,2,NY CITY CENTRAL PARK NY US,WBAN:94728,1,FM-15,None,None,None,None,None,None,None,None,None,None,None,None,-9999,-9999,None,None,None,-9999,-9999,None,None,None,None,None,None,None,None,None,None,None,None,None,None,None,None,None,None,None,None,None,None,None,None,-73.9669,40.7889,6,None,VRB,30,-1.2,10.00,29.95,30.10,OVC:08 44,48,2,None,0.00,None,17,-8.3,35,1.7,30.12,39.6,2016-01-02 09:51,None,None,None,2140,1220,None,None,None,None,None,None,None,None,None,None,None,None,None,None,None,None
.67,2016-01-02 09:18:34,2016-01-02 09:26:19,8.4,0,1.1,N,None | 2016-12-31 00:00:00,2016-01-01 00:00:00 | 2016-01-01 00:00:00,New York | New York,10019 | 10022,-73.984138488769531,40.768180847167969,1,1,0.5,-73.9803996 | -73.968,40.7656668 | 40.759,0.3,6.5,0,-73.973442077636719,40.764427185058594,New York | New York,1 | 2,2,NY CITY CENTRAL PARK NY US,WBAN:94728,1,FM-15,None,None,None,None,None,None,None,None,None,None,None,None,-9999,-9999,None,None,None,-9999,-9999,None,None,None,None,None,None,None,None,None,None,None,None,None,None,None,None,None,None,None,None,None,None,None,None,-73.9669,40.7889,6,None,VRB,30,-1.2,10.00,29.95,30.10,OVC:08 44,48,2,None,0.00,None,17,-8.3,35,1.7,30.12,39.6,2016-01-02 09:51,None,None,None,2140,1220,None,None,None,None,None,None,None,None,None,None,None,None,None,None,None,None
1.12,2016-01-02 09:18:34,2016-01-02 09:31:24,9.8,0,0,N,None,None,None,None,-73.990715026855469,40.751117706298828,2,1,0.5,None,None,0.3,9,0,-73.972877502441406,40.746421813964844,None,None,2,NY CITY CENTRAL PARK NY US,WBAN:94728,1,FM-15,None,None,None,None,None,None,None,None,None,None,None,None,-9999,-9999,None,None,None,-9999,-9999,None,None,None,None,None,None,None,None,None,None,None,None,None,None,None,None,None,None,None,None,None,None,None,None,-73.9669,40.7889,6,None,VRB,30,-1.2,10.00,29.95,30.10,OVC:08 44,48,2,None,0.00,None,17,-8.3,35,1.7,30.12,39.6,2016-01-02 09:51,None,None,None,2140,1220,None,None,None,None,None,None,None,None,None,None,None,None,None,None,None,None
.20,2016-01-02 09:18:34,2016-01-02 09:22:20,6,0,1.2,N,2016-07-03 00:00:00,2015-10-08 00:00:00,New York,10019,-73.989990234375,40.757305145263672,1,1,0.5,-73.9844951,40.7632328,0.3,4,0,-73.987525939941406,40.760303497314453,New York,2,2,NY CITY CENTRAL PARK NY US,WBAN:94728,1,FM-15,None,None,None,None,None,None,None,None,None,None,None,None,-9999,-9999,None,None,None,-9999,-9999,None,None,None,None,None,None,None,None,None,None,None,None,None,None,None,None,None,None,None,None,None,None,None,None,-73.9669,40.7889,6,None,VRB,30,-1.2,10.00,29.95,30.10,OVC:08 44,48,2,None,0.00,None,17,-8.3,35,1.7,30.12,39.6,2016-01-02 09:51,None,None,None,2140,1220,None,None,None,None,None,None,None,None,None,None,None,None,None,None,None,None
1.00,2016-01-02 09:18:35,2016-01-02 09:27:51,8.3,0,0,N,2016-12-31 00:00:00,2016-01-01 00:00:00,New York,10022,-73.961715698242188,40.7642822265625,2,1,0.5,-73.968,40.759,0.3,7.5,0,-73.9703369140625,40.752101898193359,New York,2,1,NY CITY CENTRAL PARK NY US,WBAN:94728,1,FM-15,None,None,None,None,None,None,None,None,None,None,None,None,-9999,-9999,None,None,None,-9999,-9999,None,None,None,None,None,None,None,None,None,None,None,None,None,None,None,None,None,None,None,None,None,None,None,None,-73.9669,40.7889,6,None,VRB,30,-1.2,10.00,29.95,30.10,OVC:08 44,48,2,None,0.00,None,17,-8.3,35,1.7,30.12,39.6,2016-01-02 09:51,None,None,None,2140,1220,None,None,None,None,None,None,None,None,None,None,None,None,None,None,None,None
.50,2016-01-02 09:18:35,2016-01-02 09:26:01,9.3,0,2,N,None | None | None,2016-01-01 00:00:00 | 2016-01-01 00:00:00 | 2016-01-01 02:00:00,New York | New York | New York,None | None | 10038,-74.005203247070313,40.718460083007813,1,1,0.5,-74.0064 | -74.0064 | -74.0081571,40.7142 | 40.7142 | 40.7090990,0.3,6.5,0,-74.011337280273437,40.714859008789063,New York | New York | New York,1 | 1 | 0,1,NY CITY CENTRAL PARK NY US,WBAN:94728,1,FM-15,None,None,None,None,None,None,None,None,None,None,None,None,-9999,-9999,None,None,None,-9999,-9999,None,None,None,None,None,None,None,None,None,None,None,None,None,None,None,None,None,None,None,None,None,None,None,None,-73.9669,40.7889,6,None,VRB,30,-1.2,10.00,29.95,30.10,OVC:08 44,48,2,None,0.00,None,17,-8.3,35,1.7,30.12,39.6,2016-01-02 09:51,None,None,None,2140,1220,None,None,None,None,None,None,None,None,None,None,None,None,None,None,None,None
1.98,2016-01-02 09:18:35,2016-01-02 09:33:11,12.8,0,0,N,None,None,None,None,-73.981391906738281,40.728908538818359,2,1,0.5,None,None,0.3,12,0,-73.969383239746094,40.748710632324219,None,None,2,NY CITY CENTRAL PARK NY US,WBAN:94728,1,FM-15,None,None,None,None,None,None,None,None,None,None,None,None,-9999,-9999,None,None,None,-9999,-9999,None,None,None,None,None,None,None,None,None,None,None,None,None,None,None,None,None,None,None,None,None,None,None,None,-73.9669,40.7889,6,None,VRB,30,-1.2,10.00,29.95,30.10,OVC:08 44,48,2,None,0.00,None,17,-8.3,35,1.7,30.12,39.6,2016-01-02 09:51,None,None,None,2140,1220,None,None,None,None,None,None,None,None,None,None,None,None,None,None,None,None
1.03,2016-01-02 09:18:35,2016-01-02 09:29:54,10.8,0,2,N,None,None,None,None,-73.982398986816406,40.751369476318359,1,1,0.5,None,None,0.3,8,0,-73.996902465820313,40.751399993896484,None,None,2,NY CITY CENTRAL PARK NY US,WBAN:94728,1,FM-15,None,None,None,None,None,None,None,None,None,None,None,None,-9999,-9999,None,None,None,-9999,-9999,None,None,None,None,None,None,None,None,None,None,None,None,None,None,None,None,None,None,None,None,None,None,None,None,-73.9669,40.7889,6,None,VRB,30,-1.2,10.00,29.95,30.10,OVC:08 44,48,2,None,0.00,None,17,-8.3,35,1.7,30.12,39.6,2016-01-02 09:51,None,None,None,2140,1220,None,None,None,None,None,None,None,None,None,None,None,None,None,None,None,None
1.79,2016-01-02 09:18:36,2016-01-02 09:33:44,11.3,0,0,N,None,None,None,None,-73.982757568359375,40.77191162109375,2,1,0.5,None,None,0.3,10.5,0,-73.991249084472656,40.749168395996094,None,None,2,NY CITY CENTRAL PARK NY US,WBAN:94728,1,FM-15,None,None,None,None,None,None,None,None,None,None,None,None,-9999,-9999,None,None,None,-9999,-9999,None,None,None,None,None,None,None,None,None,None,None,None,None,None,None,None,None,None,None,None,None,None,None,None,-73.9669,40.7889,6,None,VRB,30,-1.2,10.00,29.95,30.10,OVC:08 44,48,2,None,0.00,None,17,-8.3,35,1.7,30.12,39.6,2016-01-02 09:51,None,None,None,2140,1220,None,None,None,None,None,None,None,None,None,None,None,None,None,None,None,None
1.81,2016-01-02 09:18:36,2016-01-02 09:33:50,11.8,0,0,N,2016-12-31 00:00:00,2016-01-01 00:00:00,New York,10022,-73.95050048828125,40.779769897460938,1,6,0.5,-73.968,40.759,0.3,11,0,-73.968330383300781,40.761638641357422,New York,2,2,NY CITY CENTRAL PARK NY US,WBAN:94728,1,FM-15,None,None,None,None,None,None,None,None,None,None,None,None,-9999,-9999,None,None,None,-9999,-9999,None,None,None,None,None,None,None,None,None,None,None,None,None,None,None,None,None,None,None,None,None,None,None,None,-73.9669,40.7889,6,None,VRB,30,-1.2,10.00,29.95,30.10,OVC:08 44,48,2,None,0.00,None,17,-8.3,35,1.7,30.12,39.6,2016-01-02 09:51,None,None,None,2140,1220,None,None,None,None,None,None,None,None,None,None,None,None,None,None,None,None
.62,2016-01-02 09:18:36,2016-01-02 09:31:00,10.3,0,1,N,None | 2016-07-03 00:00:00,2016-01-01 00:00:00 | 2015-10-08 00:00:00,New York | New York,10019 | 10019,-73.965896606445313,40.759693145751953,1,2,0.5,-73.9803996 | -73.9844951,40.7656668 | 40.7632328,0.3,8.5,0,-73.975990295410156,40.763744354248047,New York | New York,1 | 2,2,NY CITY CENTRAL PARK NY US,WBAN:94728,1,FM-15,None,None,None,None,None,None,None,None,None,None,None,None,-9999,-9999,None,None,None,-9999,-9999,None,None,None,None,None,None,None,None,None,None,None,None,None,None,None,None,None,None,None,None,None,None,None,None,-73.9669,40.7889,6,None,VRB,30,-1.2,10.00,29.95,30.10,OVC:08 44,48,2,None,0.00,None,17,-8.3,35,1.7,30.12,39.6,2016-01-02 09:51,None,None,None,2140,1220,None,None,None,None,None,None,None,None,None,None,None,None,None,None,None,None
1.81,2016-01-02 09:18:36,2016-01-02 09:32:05,13.3,0,2,N,None | None | None,2016-01-01 00:00:00 | 2016-01-01 00:00:00 | 2016-01-01 02:00:00,New York | New York | New York,None | None | 10038,-73.995491027832031,40.717090606689453,1,1,0.5,-74.0064 | -74.0064 | -74.0081571,40.7142 | 40.7142 | 40.7090990,0.3,10.5,0,-74.013763427734375,40.714790344238281,New York | New York | New York,1 | 1 | 0,2,NY CITY CENTRAL PARK NY US,WBAN:94728,1,FM-15,None,None,None,None,None,None,None,None,None,None,None,None,-9999,-9999,None,None,None,-9999,-9999,None,None,None,None,None,None,None,None,None,None,None,None,None,None,None,None,None,None,None,None,None,None,None,None,-73.9669,40.7889,6,None,VRB,30,-1.2,10.00,29.95,30.10,OVC:08 44,48,2,None,0.00,None,17,-8.3,35,1.7,30.12,39.6,2016-01-02 09:51,None,None,None,2140,1220,None,None,None,None,None,None,None,None,None,None,None,None,None,None,None,None
.90,2016-01-02 09:18:37,2016-01-02 09:28:49,10.55,0,1.75,N,None | 2016-07-03 00:00:00,2016-01-01 00:00:00 | 2015-10-08 00:00:00,New York | New York,10019 | 10019,-73.995223999023437,40.749744415283203,1,1,0.5,-73.9803996 | -73.9844951,40.7656668 | 40.7632328,0.3,8,0,-73.9862060546875,40.762218475341797,New York | New York,1 | 2,1,NY CITY CENTRAL PARK NY US,WBAN:94728,1,FM-15,None,None,None,None,None,None,None,None,None,None,None,None,-9999,-9999,None,None,None,-9999,-9999,None,None,None,None,None,None,None,None,None,None,None,None,None,None,None,None,None,None,None,None,None,None,None,None,-73.9669,40.7889,6,None,VRB,30,-1.2,10.00,29.95,30.10,OVC:08 44,48,2,None,0.00,None,17,-8.3,35,1.7,30.12,39.6,2016-01-02 09:51,None,None,None,2140,1220,None,None,None,None,None,None,None,None,None,None,None,None,None,None,None,None
10.20,2016-01-02 09:18:37,2016-01-02 09:56:54,49.59,5.54,8.25,N,None | 2016-12-31 00:00:00,2016-01-01 00:00:00 | 2016-01-01 00:00:00,New York | New York,10019 | 10022,-73.872764587402344,40.773754119873047,1,1,0.5,-73.9803996 | -73.968,40.7656668 | 40.759,0.3,35,0,-73.973060607910156,40.761772155761719,New York | New York,1 | 2,1,NY CITY CENTRAL PARK NY US,WBAN:94728,1,FM-15,None,None,None,None,None,None,None,None,None,None,None,None,-9999,-9999,None,None,None,-9999,-9999,None,None,None,None,None,None,None,None,None,None,None,None,None,None,None,None,None,None,None,None,None,None,None,None,-73.9669,40.7889,6,None,VRB,30,-1.2,10.00,29.95,30.10,OVC:08 44,48,2,None,0.00,None,17,-8.3,35,1.7,30.12,39.6,2016-01-02 09:51,None,None,None,2140,1220,None,None,None,None,None,None,None,None,None,None,None,None,None,None,None,None
1.70,2016-01-02 09:18:37,2016-01-02 09:32:20,12.95,0,2.15,N,None,None,None,None,-74.005584716796875,40.738765716552734,1,1,0.5,None,None,0.3,10,0,-73.994392395019531,40.719661712646484,None,None,1,NY CITY CENTRAL PARK NY US,WBAN:94728,1,FM-15,None,None,None,None,None,None,None,None,None,None,None,None,-9999,-9999,None,None,None,-9999,-9999,None,None,None,None,None,None,None,None,None,None,None,None,None,None,None,None,None,None,None,None,None,None,None,None,-73.9669,40.7889,6,None,VRB,30,-1.2,10.00,29.95,30.10,OVC:08 44,48,2,None,0.00,None,17,-8.3,35,1.7,30.12,39.6,2016-01-02 09:51,None,None,None,2140,1220,None,None,None,None,None,None,None,None,None,None,None,None,None,None,None,None
2.72,2016-01-02 09:18:37,2016-01-02 09:49:44,20.3,0,0,N,None,None,None,None,-73.974586486816406,40.787940979003906,2,1,0.5,None,None,0.3,19.5,0,-73.957023620605469,40.762619018554687,None,None,2,NY CITY CENTRAL PARK NY US,WBAN:94728,1,FM-15,None,None,None,None,None,None,None,None,None,None,None,None,-9999,-9999,None,None,None,-9999,-9999,None,None,None,None,None,None,None,None,None,None,None,None,None,None,None,None,None,None,None,None,None,None,None,None,-73.9669,40.7889,6,None,VRB,30,-1.2,10.00,29.95,30.10,OVC:08 44,48,2,None,0.00,None,17,-8.3,35,1.7,30.12,39.6,2016-01-02 09:51,None,None,None,2140,1220,None,None,None,None,None,None,None,None,None,None,None,None,None,None,None,None
1.30,2016-01-02 09:18:37,2016-01-02 09:30:41,9.8,0,0,N,2016-12-31 00:00:00,2016-01-01 00:00:00,New York,10022,-73.965118408203125,40.769161224365234,2,1,0.5,-73.968,40.759,0.3,9,0,-73.976882934570313,40.758628845214844,New York,2,2,NY CITY CENTRAL PARK NY US,WBAN:94728,1,FM-15,None,None,None,None,None,None,None,None,None,None,None,None,-9999,-9999,None,None,None,-9999,-9999,None,None,None,None,None,None,None,None,None,None,None,None,None,None,None,None,None,None,None,None,None,None,None,None,-73.9669,40.7889,6,None,VRB,30,-1.2,10.00,29.95,30.10,OVC:08 44,48,2,None,0.00,None,17,-8.3,35,1.7,30.12,39.6,2016-01-02 09:51,None,None,None,2140,1220,None,None,None,None,None,None,None,None,None,None,None,None,None,None,None,None
1.31,2016-01-02 09:18:37,2016-01-02 09:37:56,15.96,0,2.66,N,None,None,None,None,-73.956771850585938,40.778068542480469,1,1,0.5,None,None,0.3,12.5,0,-73.961051940917969,40.766338348388672,None,None,2,NY CITY CENTRAL PARK NY US,WBAN:94728,1,FM-15,None,None,None,None,None,None,None,None,None,None,None,None,-9999,-9999,None,None,None,-9999,-9999,None,None,None,None,None,None,None,None,None,None,None,None,None,None,None,None,None,None,None,None,None,None,None,None,-73.9669,40.7889,6,None,VRB,30,-1.2,10.00,29.95,30.10,OVC:08 44,48,2,None,0.00,None,17,-8.3,35,1.7,30.12,39.6,2016-01-02 09:51,None,None,None,2140,1220,None,None,None,None,None,None,None,None,None,None,None,None,None,None,None,None
1.00,2016-01-02 09:18:38,2016-01-02 09:23:06,7.55,0,1.25,N,None,2016-01-01 02:00:00,New York,10038,-74.00994873046875,40.721141815185547,1,1,0.5,-74.0081571,40.7090990,0.3,5.5,0,-74.01556396484375,40.707981109619141,New York,0,1,NY CITY CENTRAL PARK NY US,WBAN:94728,1,FM-15,None,None,None,None,None,None,None,None,None,None,None,None,-9999,-9999,None,None,None,-9999,-9999,None,None,None,None,None,None,None,None,None,None,None,None,None,None,None,None,None,None,None,None,None,None,None,None,-73.9669,40.7889,6,None,VRB,30,-1.2,10.00,29.95,30.10,OVC:08 44,48,2,None,0.00,None,17,-8.3,35,1.7,30.12,39.6,2016-01-02 09:51,None,None,None,2140,1220,None,None,None,None,None,None,None,None,None,None,None,None,None,None,None,None
.70,2016-01-02 09:18:38,2016-01-02 09:27:30,7.8,0,0,N,2016-12-31 00:00:00,2016-01-01 00:00:00,New York,10022,-73.974716186523438,40.750328063964844,2,1,0.5,-73.968,40.759,0.3,7,0,-73.967498779296875,40.760543823242188,New York,2,1,NY CITY CENTRAL PARK NY US,WBAN:94728,1,FM-15,None,None,None,None,None,None,None,None,None,None,None,None,-9999,-9999,None,None,None,-9999,-9999,None,None,None,None,None,None,None,None,None,None,None,None,None,None,None,None,None,None,None,None,None,None,None,None,-73.9669,40.7889,6,None,VRB,30,-1.2,10.00,29.95,30.10,OVC:08 44,48,2,None,0.00,None,17,-8.3,35,1.7,30.12,39.6,2016-01-02 09:51,None,None,None,2140,1220,None,None,None,None,None,None,None,None,None,None,None,None,None,None,None,None
.60,2016-01-02 09:18:38,2016-01-02 09:26:15,7.3,0,0,N,None,None,None,None,-73.979545593261719,40.749332427978516,2,2,0.5,None,None,0.3,6.5,0,-73.986160278320312,40.743412017822266,None,None,1,NY CITY CENTRAL PARK NY US,WBAN:94728,1,FM-15,None,None,None,None,None,None,None,None,None,None,None,None,-9999,-9999,None,None,None,-9999,-9999,None,None,None,None,None,None,None,None,None,None,None,None,None,None,None,None,None,None,None,None,None,None,None,None,-73.9669,40.7889,6,None,VRB,30,-1.2,10.00,29.95,30.10,OVC:08 44,48,2,None,0.00,None,17,-8.3,35,1.7,30.12,39.6,2016-01-02 09:51,None,None,None,2140,1220,None,None,None,None,None,None,None,None,None,None,None,None,None,None,None,None
1.40,2016-01-02 09:18:38,2016-01-02 09:31:21,10.3,0,0,N,2016-12-31 00:00:00,2016-01-01 00:00:00,New York,10022,-73.954910278320312,40.765735626220703,2,3,0.5,-73.968,40.759,0.3,9.5,0,-73.971641540527344,40.757614135742187,New York,2,1,NY CITY CENTRAL PARK NY US,WBAN:94728,1,FM-15,None,None,None,None,None,None,None,None,None,None,None,None,-9999,-9999,None,None,None,-9999,-9999,None,None,None,None,None,None,None,None,None,None,None,None,None,None,None,None,None,None,None,None,None,None,None,None,-73.9669,40.7889,6,None,VRB,30,-1.2,10.00,29.95,30.10,OVC:08 44,48,2,None,0.00,None,17,-8.3,35,1.7,30.12,39.6,2016-01-02 09:51,None,None,None,2140,1220,None,None,None,None,None,None,None,None,None,None,None,None,None,None,None,None
1.15,2016-01-02 09:18:38,2016-01-02 09:28:24,10.3,0,1,N,None,None,None,None,-73.987335205078125,40.724716186523438,1,1,0.5,None,None,0.3,8.5,0,-73.976844787597656,40.739166259765625,None,None,2,NY CITY CENTRAL PARK NY US,WBAN:94728,1,FM-15,None,None,None,None,None,None,None,None,None,None,None,None,-9999,-9999,None,None,None,-9999,-9999,None,None,None,None,None,None,None,None,None,None,None,None,None,None,None,None,None,None,None,None,None,None,None,None,-73.9669,40.7889,6,None,VRB,30,-1.2,10.00,29.95,30.10,OVC:08 44,48,2,None,0.00,None,17,-8.3,35,1.7,30.12,39.6,2016-01-02 09:51,None,None,None,2140,1220,None,None,None,None,None,None,None,None,None,None,None,None,None,None,None,None
.85,2016-01-02 09:18:38,2016-01-02 09:29:00,8.3,0,0,N,2016-07-03 00:00:00,2015-10-08 00:00:00,New York,10019,-73.981361389160156,40.764617919921875,2,1,0.5,-73.9844951,40.7632328,0.3,7.5,0,-73.988563537597656,40.758888244628906,New York,2,2,NY CITY CENTRAL PARK NY US,WBAN:94728,1,FM-15,None,None,None,None,None,None,None,None,None,None,None,None,-9999,-9999,None,None,None,-9999,-9999,None,None,None,None,None,None,None,None,None,None,None,None,None,None,None,None,None,None,None,None,None,None,None,None,-73.9669,40.7889,6,None,VRB,30,-1.2,10.00,29.95,30.10,OVC:08 44,48,2,None,0.00,None,17,-8.3,35,1.7,30.12,39.6,2016-01-02 09:51,None,None,None,2140,1220,None,None,None,None,None,None,None,None,None,None,None,None,None,None,None,None
.94,2016-01-02 09:18:38,2016-01-02 09:23:59,6.3,0,0,N,None | None | None,2016-01-01 00:00:00 | 2016-01-01 00:00:00 | 2016-01-01 20:00:00,New York | New York | New York,None | None | 10013,-74.016250610351563,40.714809417724609,2,1,0.5,-74.0064 | -74.0064 | -74.0050159,40.7142 | 40.7142 | 40.7208412,0.3,5.5,0,-74.010093688964844,40.720241546630859,New York | New York | New York,1 | 1 | 0,2,NY CITY CENTRAL PARK NY US,WBAN:94728,1,FM-15,None,None,None,None,None,None,None,None,None,None,None,None,-9999,-9999,None,None,None,-9999,-9999,None,None,None,None,None,None,None,None,None,None,None,None,None,None,None,None,None,None,None,None,None,None,None,None,-73.9669,40.7889,6,None,VRB,30,-1.2,10.00,29.95,30.10,OVC:08 44,48,2,None,0.00,None,17,-8.3,35,1.7,30.12,39.6,2016-01-02 09:51,None,None,None,2140,1220,None,None,None,None,None,None,None,None,None,None,None,None,None,None,None,None
1.50,2016-01-02 09:18:39,2016-01-02 09:36:59,14.72,0,1.92,Y,None | 2016-12-31 00:00:00,2016-01-01 00:00:00 | 2016-01-01 00:00:00,New York | New York,10019 | 10022,-73.978408813476563,40.748237609863281,1,1,0.5,-73.9803996 | -73.968,40.7656668 | 40.759,0.3,12,0,-73.972946166992188,40.764553070068359,New York | New York,1 | 2,1,NY CITY CENTRAL PARK NY US,WBAN:94728,1,FM-15,None,None,None,None,None,None,None,None,None,None,None,None,-9999,-9999,None,None,None,-9999,-9999,None,None,None,None,None,None,None,None,None,None,None,None,None,None,None,None,None,None,None,None,None,None,None,None,-73.9669,40.7889,6,None,VRB,30,-1.2,10.00,29.95,30.10,OVC:08 44,48,2,None,0.00,None,17,-8.3,35,1.7,30.12,39.6,2016-01-02 09:51,None,None,None,2140,1220,None,None,None,None,None,None,None,None,None,None,None,None,None,None,None,None
15.20,2016-01-02 09:18:39,2016-01-02 09:53:16,75.84,5.54,17.5,N,None,None,None,None,-73.974411010742188,40.749656677246094,1,1,0.5,None,None,0.3,52,0,-73.790817260742188,40.663429260253906,None,None,1,NY CITY CENTRAL PARK NY US,WBAN:94728,2,FM-15,None,None,None,None,None,None,None,None,None,None,None,None,-9999,-9999,None,None,None,-9999,-9999,None,None,None,None,None,None,None,None,None,None,None,None,None,None,None,None,None,None,None,None,None,None,None,None,-73.9669,40.7889,6,None,VRB,30,-1.2,10.00,29.95,30.10,OVC:08 44,48,2,None,0.00,None,17,-8.3,35,1.7,30.12,39.6,2016-01-02 09:51,None,None,None,2140,1220,None,None,None,None,None,None,None,None,None,None,None,None,None,None,None,None
.80,2016-01-02 09:18:39,2016-01-02 09:22:05,6.35,0,1.05,N,None,None,None,None,-73.9879150390625,40.754638671875,1,1,0.5,None,None,0.3,4.5,0,-73.986289978027344,40.745880126953125,None,None,1,NY CITY CENTRAL PARK NY US,WBAN:94728,1,FM-15,None,None,None,None,None,None,None,None,None,None,None,None,-9999,-9999,None,None,None,-9999,-9999,None,None,None,None,None,None,None,None,None,None,None,None,None,None,None,None,None,None,None,None,None,None,None,None,-73.9669,40.7889,6,None,VRB,30,-1.2,10.00,29.95,30.10,OVC:08 44,48,2,None,0.00,None,17,-8.3,35,1.7,30.12,39.6,2016-01-02 09:51,None,None,None,2140,1220,None,None,None,None,None,None,None,None,None,None,None,None,None,None,None,None
.71,2016-01-02 09:18:39,2016-01-02 09:21:54,6.36,0,1.06,N,None,None,None,None,-73.987098693847656,40.7711181640625,1,2,0.5,None,None,0.3,4.5,0,-73.979751586914063,40.777801513671875,None,None,2,NY CITY CENTRAL PARK NY US,WBAN:94728,1,FM-15,None,None,None,None,None,None,None,None,None,None,None,None,-9999,-9999,None,None,None,-9999,-9999,None,None,None,None,None,None,None,None,None,None,None,None,None,None,None,None,None,None,None,None,None,None,None,None,-73.9669,40.7889,6,None,VRB,30,-1.2,10.00,29.95,30.10,OVC:08 44,48,2,None,0.00,None,17,-8.3,35,1.7,30.12,39.6,2016-01-02 09:51,None,None,None,2140,1220,None,None,None,None,None,None,None,None,None,None,None,None,None,None,None,None
6.31,2016-01-02 09:18:39,2016-01-02 09:54:47,33.96,0,5.66,N,None | 2016-07-03 00:00:00,2016-01-01 00:00:00 | 2015-10-08 00:00:00,New York | New York,10019 | 10019,-74.004600524902344,40.70684814453125,1,1,0.5,-73.9803996 | -73.9844951,40.7656668 | 40.7632328,0.3,27.5,0,-73.980201721191406,40.767330169677734,New York | New York,1 | 2,2,NY CITY CENTRAL PARK NY US,WBAN:94728,1,FM-15,None,None,None,None,None,None,None,None,None,None,None,None,-9999,-9999,None,None,None,-9999,-9999,None,None,None,None,None,None,None,None,None,None,None,None,None,None,None,None,None,None,None,None,None,None,None,None,-73.9669,40.7889,6,None,VRB,30,-1.2,10.00,29.95,30.10,OVC:08 44,48,2,None,0.00,None,17,-8.3,35,1.7,30.12,39.6,2016-01-02 09:51,None,None,None,2140,1220,None,None,None,None,None,None,None,None,None,None,None,None,None,None,None,None
6.75,2016-01-02 09:18:39,2016-01-02 09:59:56,22.8,0,0,N,None,None,None,None,-73.992462158203125,40.714260101318359,2,2,0.5,None,None,0.3,22,0,-73.921058654785156,40.66778564453125,None,None,2,NY CITY CENTRAL PARK NY US,WBAN:94728,5,FM-15,None,None,None,None,None,None,None,None,None,None,None,None,-9999,-9999,None,None,None,-9999,-9999,None,None,None,None,None,None,None,None,None,None,None,None,None,None,None,None,None,None,None,None,None,None,None,None,-73.9669,40.7889,6,None,VRB,30,-1.2,10.00,29.95,30.10,OVC:08 44,48,2,None,0.00,None,17,-8.3,35,1.7,30.12,39.6,2016-01-02 09:51,None,None,None,2140,1220,None,None,None,None,None,None,None,None,None,None,None,None,None,None,None,None
8.82,2016-01-02 09:18:39,2016-01-02 09:45:00,37.25,0,7.45,N,None,None,None,None,-73.975692749023438,40.765018463134766,1,2,0.5,None,None,0.3,29,0,-73.870613098144531,40.773979187011719,None,None,2,NY CITY CENTRAL PARK NY US,WBAN:94728,1,FM-15,None,None,None,None,None,None,None,None,None,None,None,None,-9999,-9999,None,None,None,-9999,-9999,None,None,None,None,None,None,None,None,None,None,None,None,None,None,None,None,None,None,None,None,None,None,None,None,-73.9669,40.7889,6,None,VRB,30,-1.2,10.00,29.95,30.10,OVC:08 44,48,2,None,0.00,None,17,-8.3,35,1.7,30.12,39.6,2016-01-02 09:51,None,None,None,2140,1220,None,None,None,None,None,None,None,None,None,None,None,None,None,None,None,None
1.02,2016-01-02 09:18:39,2016-01-02 09:26:14,7.3,0,0,N,None,None,None,None,-73.962226867675781,40.773078918457031,2,1,0.5,None,None,0.3,6.5,0,-73.958076477050781,40.764900207519531,None,None,2,NY CITY CENTRAL PARK NY US,WBAN:94728,1,FM-15,None,None,None,None,None,None,None,None,None,None,None,None,-9999,-9999,None,None,None,-9999,-9999,None,None,None,None,None,None,None,None,None,None,None,None,None,None,None,None,None,None,None,None,None,None,None,None,-73.9669,40.7889,6,None,VRB,30,-1.2,10.00,29.95,30.10,OVC:08 44,48,2,None,0.00,None,17,-8.3,35,1.7,30.12,39.6,2016-01-02 09:51,None,None,None,2140,1220,None,None,None,None,None,None,None,None,None,None,None,None,None,None,None,None
1.16,2016-01-02 09:18:39,2016-01-02 09:29:13,11.62,0,2.32,N,None,None,None,None,-73.98260498046875,40.739627838134766,1,1,0.5,None,None,0.3,8.5,0,-73.979484558105469,40.752418518066406,None,None,2,NY CITY CENTRAL PARK NY US,WBAN:94728,1,FM-15,None,None,None,None,None,None,None,None,None,None,None,None,-9999,-9999,None,None,None,-9999,-9999,None,None,None,None,None,None,None,None,None,None,None,None,None,None,None,None,None,None,None,None,None,None,None,None,-73.9669,40.7889,6,None,VRB,30,-1.2,10.00,29.95,30.10,OVC:08 44,48,2,None,0.00,None,17,-8.3,35,1.7,30.12,39.6,2016-01-02 09:51,None,None,None,2140,1220,None,None,None,None,None,None,None,None,None,None,None,None,None,None,None,None
6.84,2016-01-02 09:18:39,2016-01-02 09:46:46,32.25,0,6.45,N,None,2016-01-01 20:00:00,New York,10013,-73.966934204101563,40.804008483886719,1,1,0.5,-74.0050159,40.7208412,0.3,25,0,-74.009124755859375,40.725296020507812,New York,0,2,NY CITY CENTRAL PARK NY US,WBAN:94728,1,FM-15,None,None,None,None,None,None,None,None,None,None,None,None,-9999,-9999,None,None,None,-9999,-9999,None,None,None,None,None,None,None,None,None,None,None,None,None,None,None,None,None,None,None,None,None,None,None,None,-73.9669,40.7889,6,None,VRB,30,-1.2,10.00,29.95,30.10,OVC:08 44,48,2,None,0.00,None,17,-8.3,35,1.7,30.12,39.6,2016-01-02 09:51,None,None,None,2140,1220,None,None,None,None,None,None,None,None,None,None,None,None,None,None,None,None
1.40,2016-01-02 09:18:40,2016-01-02 09:25:58,8.3,0,0,N,None,None,None,None,-73.960205078125,40.781391143798828,2,2,0.5,None,None,0.3,7.5,0,-73.97998046875,40.782089233398437,None,None,1,NY CITY CENTRAL PARK NY US,WBAN:94728,1,FM-15,None,None,None,None,None,None,None,None,None,None,None,None,-9999,-9999,None,None,None,-9999,-9999,None,None,None,None,None,None,None,None,None,None,None,None,None,None,None,None,None,None,None,None,None,None,None,None,-73.9669,40.7889,6,None,VRB,30,-1.2,10.00,29.95,30.10,OVC:08 44,48,2,None,0.00,None,17,-8.3,35,1.7,30.12,39.6,2016-01-02 09:51,None,None,None,2140,1220,None,None,None,None,None,None,None,None,None,None,None,None,None,None,None,None
1.08,2016-01-02 09:18:40,2016-01-02 09:32:14,10.3,0,0,N,2016-12-31 00:00:00,2016-01-01 00:00:00,New York,10022,-73.974533081054687,40.757999420166016,2,1,0.5,-73.968,40.759,0.3,9.5,0,-73.964210510253906,40.760818481445313,New York,2,2,NY CITY CENTRAL PARK NY US,WBAN:94728,1,FM-15,None,None,None,None,None,None,None,None,None,None,None,None,-9999,-9999,None,None,None,-9999,-9999,None,None,None,None,None,None,None,None,None,None,None,None,None,None,None,None,None,None,None,None,None,None,None,None,-73.9669,40.7889,6,None,VRB,30,-1.2,10.00,29.95,30.10,OVC:08 44,48,2,None,0.00,None,17,-8.3,35,1.7,30.12,39.6,2016-01-02 09:51,None,None,None,2140,1220,None,None,None,None,None,None,None,None,None,None,None,None,None,None,None,None
.73,2016-01-02 09:18:40,2016-01-02 09:23:17,9.1,0,3.3,N,None | 2016-12-31 00:00:00,2016-01-01 00:00:00 | 2016-01-01 00:00:00,New York | New York,10019 | 10022,-73.983619689941406,40.765239715576172,1,1,0.5,-73.9803996 | -73.968,40.7656668 | 40.759,0.3,5,0,-73.973365783691406,40.76434326171875,New York | New York,1 | 2,2,NY CITY CENTRAL PARK NY US,WBAN:94728,1,FM-15,None,None,None,None,None,None,None,None,None,None,None,None,-9999,-9999,None,None,None,-9999,-9999,None,None,None,None,None,None,None,None,None,None,None,None,None,None,None,None,None,None,None,None,None,None,None,None,-73.9669,40.7889,6,None,VRB,30,-1.2,10.00,29.95,30.10,OVC:08 44,48,2,None,0.00,None,17,-8.3,35,1.7,30.12,39.6,2016-01-02 09:51,None,None,None,2140,1220,None,None,None,None,None,None,None,None,None,None,None,None,None,None,None,None
.60,2016-01-02 09:18:41,2016-01-02 09:20:51,5.75,0,0.95,N,None,None,None,None,-73.987617492675781,40.7545166015625,1,1,0.5,None,None,0.3,4,0,-73.983207702636719,40.749412536621094,None,None,1,NY CITY CENTRAL PARK NY US,WBAN:94728,1,FM-15,None,None,None,None,None,None,None,None,None,None,None,None,-9999,-9999,None,None,None,-9999,-9999,None,None,None,None,None,None,None,None,None,None,None,None,None,None,None,None,None,None,None,None,None,None,None,None,-73.9669,40.7889,6,None,VRB,30,-1.2,10.00,29.95,30.10,OVC:08 44,48,2,None,0.00,None,17,-8.3,35,1.7,30.12,39.6,2016-01-02 09:51,None,None,None,2140,1220,None,None,None,None,None,None,None,None,None,None,None,None,None,None,None,None
1.56,2016-01-02 09:18:41,2016-01-02 09:31:38,12.3,0,1.5,N,2016-12-31 00:00:00,2016-01-01 00:00:00,New York,10022,-73.95355224609375,40.766941070556641,1,1,0.5,-73.968,40.759,0.3,10,0,-73.968597412109375,40.757488250732422,New York,2,2,NY CITY CENTRAL PARK NY US,WBAN:94728,1,FM-15,None,None,None,None,None,None,None,None,None,None,None,None,-9999,-9999,None,None,None,-9999,-9999,None,None,None,None,None,None,None,None,None,None,None,None,None,None,None,None,None,None,None,None,None,None,None,None,-73.9669,40.7889,6,None,VRB,30,-1.2,10.00,29.95,30.10,OVC:08 44,48,2,None,0.00,None,17,-8.3,35,1.7,30.12,39.6,2016-01-02 09:51,None,None,None,2140,1220,None,None,None,None,None,None,None,None,None,None,None,None,None,None,None,None
.98,2016-01-02 09:18:41,2016-01-02 09:27:58,7.8,0,0,N,2022-04-16 02:00:00,2016-01-01 00:00:00,New York,None,-73.954139709472656,40.770511627197266,2,1,0.5,-73.9651814,40.7745779,0.3,7,0,-73.966781616210938,40.769821166992187,New York,1,2,NY CITY CENTRAL PARK NY US,WBAN:94728,1,FM-15,None,None,None,None,None,None,None,None,None,None,None,None,-9999,-9999,None,None,None,-9999,-9999,None,None,None,None,None,None,None,None,None,None,None,None,None,None,None,None,None,None,None,None,None,None,None,None,-73.9669,40.7889,6,None,VRB,30,-1.2,10.00,29.95,30.10,OVC:08 44,48,2,None,0.00,None,17,-8.3,35,1.7,30.12,39.6,2016-01-02 09:51,None,None,None,2140,1220,None,None,None,None,None,None,None,None,None,None,None,None,None,None,None,None
2.70,2016-01-02 09:18:41,2016-01-02 09:33:29,15.36,0,2.56,N,None,None,None,None,-74.000518798828125,40.727180480957031,1,4,0.5,None,None,0.3,12,0,-73.975883483886719,40.754173278808594,None,None,2,NY CITY CENTRAL PARK NY US,WBAN:94728,1,FM-15,None,None,None,None,None,None,None,None,None,None,None,None,-9999,-9999,None,None,None,-9999,-9999,None,None,None,None,None,None,None,None,None,None,None,None,None,None,None,None,None,None,None,None,None,None,None,None,-73.9669,40.7889,6,None,VRB,30,-1.2,10.00,29.95,30.10,OVC:08 44,48,2,None,0.00,None,17,-8.3,35,1.7,30.12,39.6,2016-01-02 09:51,None,None,None,2140,1220,None,None,None,None,None,None,None,None,None,None,None,None,None,None,None,None
3.80,2016-01-02 09:18:42,2016-01-02 09:45:40,19.8,0,0,N,None,None,None,None,-73.979827880859375,40.785671234130859,2,2,0.5,None,None,0.3,19,0,-74.002113342285156,40.742916107177734,None,None,1,NY CITY CENTRAL PARK NY US,WBAN:94728,1,FM-15,None,None,None,None,None,None,None,None,None,None,None,None,-9999,-9999,None,None,None,-9999,-9999,None,None,None,None,None,None,None,None,None,None,None,None,None,None,None,None,None,None,None,None,None,None,None,None,-73.9669,40.7889,6,None,VRB,30,-1.2,10.00,29.95,30.10,OVC:08 44,48,2,None,0.00,None,17,-8.3,35,1.7,30.12,39.6,2016-01-02 09:51,None,None,None,2140,1220,None,None,None,None,None,None,None,None,None,None,None,None,None,None,None,None
2.15,2016-01-02 09:18:42,2016-01-02 09:41:04,18.36,0,3.06,N,2016-12-31 00:00:00,2016-01-01 00:00:00,New York,10022,-73.994010925292969,40.750118255615234,1,2,0.5,-73.968,40.759,0.3,14.5,0,-73.96942138671875,40.762870788574219,New York,2,2,NY CITY CENTRAL PARK NY US,WBAN:94728,1,FM-15,None,None,None,None,None,None,None,None,None,None,None,None,-9999,-9999,None,None,None,-9999,-9999,None,None,None,None,None,None,None,None,None,None,None,None,None,None,None,None,None,None,None,None,None,None,None,None,-73.9669,40.7889,6,None,VRB,30,-1.2,10.00,29.95,30.10,OVC:08 44,48,2,None,0.00,None,17,-8.3,35,1.7,30.12,39.6,2016-01-02 09:51,None,None,None,2140,1220,None,None,None,None,None,None,None,None,None,None,None,None,None,None,None,None
2.38,2016-01-02 09:18:42,2016-01-02 09:36:43,17.25,0,3.45,N,None,None,None,None,-74.002555847167969,40.729007720947266,1,1,0.5,None,None,0.3,13,0,-73.978981018066406,40.753105163574219,None,None,2,NY CITY CENTRAL PARK NY US,WBAN:94728,1,FM-15,None,None,None,None,None,None,None,None,None,None,None,None,-9999,-9999,None,None,None,-9999,-9999,None,None,None,None,None,None,None,None,None,None,None,None,None,None,None,None,None,None,None,None,None,None,None,None,-73.9669,40.7889,6,None,VRB,30,-1.2,10.00,29.95,30.10,OVC:08 44,48,2,None,0.00,None,17,-8.3,35,1.7,30.12,39.6,2016-01-02 09:51,None,None,None,2140,1220,None,None,None,None,None,None,None,None,None,None,None,None,None,None,None,None
1.54,2016-01-02 09:18:42,2016-01-02 09:31:15,12.88,0,2.58,N,None,None,None,None,-73.998504638671875,40.681678771972656,1,1,0.5,None,None,0.3,9.5,0,-73.988739013671875,40.692901611328125,None,None,2,NY CITY CENTRAL PARK NY US,WBAN:94728,1,FM-15,None,None,None,None,None,None,None,None,None,None,None,None,-9999,-9999,None,None,None,-9999,-9999,None,None,None,None,None,None,None,None,None,None,None,None,None,None,None,None,None,None,None,None,None,None,None,None,-73.9669,40.7889,6,None,VRB,30,-1.2,10.00,29.95,30.10,OVC:08 44,48,2,None,0.00,None,17,-8.3,35,1.7,30.12,39.6,2016-01-02 09:51,None,None,None,2140,1220,None,None,None,None,None,None,None,None,None,None,None,None,None,None,None,None
1.05,2016-01-02 09:18:42,2016-01-02 09:26:23,8.76,0,1.46,N,None | 2016-07-03 00:00:00,2016-01-01 00:00:00 | 2015-10-08 00:00:00,New York | New York,10019 | 10019,-73.994400024414063,40.755970001220703,1,6,0.5,-73.9803996 | -73.9844951,40.7656668 | 40.7632328,0.3,6.5,0,-73.981254577636719,40.759101867675781,New York | New York,1 | 2,2,NY CITY CENTRAL PARK NY US,WBAN:94728,1,FM-15,None,None,None,None,None,None,None,None,None,None,None,None,-9999,-9999,None,None,None,-9999,-9999,None,None,None,None,None,None,None,None,None,None,None,None,None,None,None,None,None,None,None,None,None,None,None,None,-73.9669,40.7889,6,None,VRB,30,-1.2,10.00,29.95,30.10,OVC:08 44,48,2,None,0.00,None,17,-8.3,35,1.7,30.12,39.6,2016-01-02 09:51,None,None,None,2140,1220,None,None,None,None,None,None,None,None,None,None,None,None,None,None,None,None
1.27,2016-01-02 09:18:42,2016-01-02 09:33:44,13.56,0,2.26,N,None | 2016-07-03 00:00:00,2016-01-01 00:00:00 | 2015-10-08 00:00:00,New York | New York,10019 | 10019,-73.976860046386719,40.755649566650391,1,6,0.5,-73.9803996 | -73.9844951,40.7656668 | 40.7632328,0.3,10.5,0,-73.985740661621094,40.767841339111328,New York | New York,1 | 2,2,NY CITY CENTRAL PARK NY US,WBAN:94728,1,FM-15,None,None,None,None,None,None,None,None,None,None,None,None,-9999,-9999,None,None,None,-9999,-9999,None,None,None,None,None,None,None,None,None,None,None,None,None,None,None,None,None,None,None,None,None,None,None,None,-73.9669,40.7889,6,None,VRB,30,-1.2,10.00,29.95,30.10,OVC:08 44,48,2,None,0.00,None,17,-8.3,35,1.7,30.12,39.6,2016-01-02 09:51,None,None,None,2140,1220,None,None,None,None,None,None,None,None,None,None,None,None,None,None,None,None
1.14,2016-01-02 09:18:42,2016-01-02 09:33:55,11.3,0,0,N,None,None,None,None,-73.981788635253906,40.728397369384766,2,1,0.5,None,None,0.3,10.5,0,-73.993675231933594,40.722503662109375,None,None,2,NY CITY CENTRAL PARK NY US,WBAN:94728,1,FM-15,None,None,None,None,None,None,None,None,None,None,None,None,-9999,-9999,None,None,None,-9999,-9999,None,None,None,None,None,None,None,None,None,None,None,None,None,None,None,None,None,None,None,None,None,None,None,None,-73.9669,40.7889,6,None,VRB,30,-1.2,10.00,29.95,30.10,OVC:08 44,48,2,None,0.00,None,17,-8.3,35,1.7,30.12,39.6,2016-01-02 09:51,None,None,None,2140,1220,None,None,None,None,None,None,None,None,None,None,None,None,None,None,None,None
7.70,2016-01-02 09:18:43,2016-01-02 09:37:43,26.8,0,2.5,N,None,2016-01-01 02:00:00,New York,10038,-73.9443359375,40.780727386474609,1,1,0.5,-74.0081571,40.7090990,0.3,23.5,0,-74.007133483886719,40.703853607177734,New York,0,1,NY CITY CENTRAL PARK NY US,WBAN:94728,1,FM-15,None,None,None,None,None,None,None,None,None,None,None,None,-9999,-9999,None,None,None,-9999,-9999,None,None,None,None,None,None,None,None,None,None,None,None,None,None,None,None,None,None,None,None,None,None,None,None,-73.9669,40.7889,6,None,VRB,30,-1.2,10.00,29.95,30.10,OVC:08 44,48,2,None,0.00,None,17,-8.3,35,1.7,30.12,39.6,2016-01-02 09:51,None,None,None,2140,1220,None,None,None,None,None,None,None,None,None,None,None,None,None,None,None,None
.80,2016-01-02 09:18:43,2016-01-02 09:22:28,7.25,0,1.45,N,None,None,None,None,-73.993858337402344,40.745693206787109,1,1,0.5,None,None,0.3,5,0,-74.004783630371094,40.7447509765625,None,None,1,NY CITY CENTRAL PARK NY US,WBAN:94728,1,FM-15,None,None,None,None,None,None,None,None,None,None,None,None,-9999,-9999,None,None,None,-9999,-9999,None,None,None,None,None,None,None,None,None,None,None,None,None,None,None,None,None,None,None,None,None,None,None,None,-73.9669,40.7889,6,None,VRB,30,-1.2,10.00,29.95,30.10,OVC:08 44,48,2,None,0.00,None,17,-8.3,35,1.7,30.12,39.6,2016-01-02 09:51,None,None,None,2140,1220,None,None,None,None,None,None,None,None,None,None,None,None,None,None,None,None
1.50,2016-01-02 09:18:43,2016-01-02 09:25:53,9.3,0,1,N,None,None,None,None,-73.957183837890625,40.766124725341797,1,1,0.5,None,None,0.3,7.5,0,-73.9498291015625,40.78460693359375,None,None,1,NY CITY CENTRAL PARK NY US,WBAN:94728,1,FM-15,None,None,None,None,None,None,None,None,None,None,None,None,-9999,-9999,None,None,None,-9999,-9999,None,None,None,None,None,None,None,None,None,None,None,None,None,None,None,None,None,None,None,None,None,None,None,None,-73.9669,40.7889,6,None,VRB,30,-1.2,10.00,29.95,30.10,OVC:08 44,48,2,None,0.00,None,17,-8.3,35,1.7,30.12,39.6,2016-01-02 09:51,None,None,None,2140,1220,None,None,None,None,None,None,None,None,None,None,None,None,None,None,None,None
1.10,2016-01-02 09:18:44,2016-01-02 09:33:05,12.95,0,2.15,N,None,2016-01-01 09:00:00,New York,10003,-74.006637573242188,40.736415863037109,1,2,0.5,-73.9870210,40.7308580,0.3,10,0,-73.989677429199219,40.73443603515625,New York,0,1,NY CITY CENTRAL PARK NY US,WBAN:94728,1,FM-15,None,None,None,None,None,None,None,None,None,None,None,None,-9999,-9999,None,None,None,-9999,-9999,None,None,None,None,None,None,None,None,None,None,None,None,None,None,None,None,None,None,None,None,None,None,None,None,-73.9669,40.7889,6,None,VRB,30,-1.2,10.00,29.95,30.10,OVC:08 44,48,2,None,0.00,None,17,-8.3,35,1.7,30.12,39.6,2016-01-02 09:51,None,None,None,2140,1220,None,None,None,None,None,None,None,None,None,None,None,None,None,None,None,None
.50,2016-01-02 09:18:44,2016-01-02 09:21:06,5.75,0,0.95,N,None,None,None,None,-73.991584777832031,40.749885559082031,1,1,0.5,None,None,0.3,4,0,-73.996780395507813,40.742397308349609,None,None,1,NY CITY CENTRAL PARK NY US,WBAN:94728,1,FM-15,None,None,None,None,None,None,None,None,None,None,None,None,-9999,-9999,None,None,None,-9999,-9999,None,None,None,None,None,None,None,None,None,None,None,None,None,None,None,None,None,None,None,None,None,None,None,None,-73.9669,40.7889,6,None,VRB,30,-1.2,10.00,29.95,30.10,OVC:08 44,48,2,None,0.00,None,17,-8.3,35,1.7,30.12,39.6,2016-01-02 09:51,None,None,None,2140,1220,None,None,None,None,None,None,None,None,None,None,None,None,None,None,None,None
2.30,2016-01-02 09:18:44,2016-01-02 09:35:31,15.35,0,2.55,N,None,None,None,None,-73.948959350585937,40.781532287597656,1,1,0.5,None,None,0.3,12,0,-73.970718383789063,40.751499176025391,None,None,1,NY CITY CENTRAL PARK NY US,WBAN:94728,1,FM-15,None,None,None,None,None,None,None,None,None,None,None,None,-9999,-9999,None,None,None,-9999,-9999,None,None,None,None,None,None,None,None,None,None,None,None,None,None,None,None,None,None,None,None,None,None,None,None,-73.9669,40.7889,6,None,VRB,30,-1.2,10.00,29.95,30.10,OVC:08 44,48,2,None,0.00,None,17,-8.3,35,1.7,30.12,39.6,2016-01-02 09:51,None,None,None,2140,1220,None,None,None,None,None,None,None,None,None,None,None,None,None,None,None,None
3.56,2016-01-02 09:18:44,2016-01-02 09:37:53,15.3,0,0,N,None | None,2016-01-01 03:00:00 | 2016-01-01 11:00:00,New York | New York,10002 | 10002,-73.9761962890625,40.715450286865234,2,5,0.5,-73.9847 | -73.9847,40.7182 | 40.7182,0.3,14.5,0,-73.9761962890625,40.715450286865234,New York | New York,0 | 0,2,NY CITY CENTRAL PARK NY US,WBAN:94728,1,FM-15,None,None,None,None,None,None,None,None,None,None,None,None,-9999,-9999,None,None,None,-9999,-9999,None,None,None,None,None,None,None,None,None,None,None,None,None,None,None,None,None,None,None,None,None,None,None,None,-73.9669,40.7889,6,None,VRB,30,-1.2,10.00,29.95,30.10,OVC:08 44,48,2,None,0.00,None,17,-8.3,35,1.7,30.12,39.6,2016-01-02 09:51,None,None,None,2140,1220,None,None,None,None,None,None,None,None,None,None,None,None,None,None,None,None
.67,2016-01-02 09:18:45,2016-01-02 09:24:11,7.88,0,1.58,N,None,None,None,None,-73.965858459472656,40.762405395507813,1,1,0.5,None,None,0.3,5.5,0,-73.956878662109375,40.762577056884766,None,None,2,NY CITY CENTRAL PARK NY US,WBAN:94728,1,FM-15,None,None,None,None,None,None,None,None,None,None,None,None,-9999,-9999,None,None,None,-9999,-9999,None,None,None,None,None,None,None,None,None,None,None,None,None,None,None,None,None,None,None,None,None,None,None,None,-73.9669,40.7889,6,None,VRB,30,-1.2,10.00,29.95,30.10,OVC:08 44,48,2,None,0.00,None,17,-8.3,35,1.7,30.12,39.6,2016-01-02 09:51,None,None,None,2140,1220,None,None,None,None,None,None,None,None,None,None,None,None,None,None,None,None
1.06,2016-01-02 09:18:45,2016-01-02 09:25:20,8.3,0,1,N,None,None,None,None,-73.967147827148438,40.803680419921875,1,1,0.5,None,None,0.3,6.5,0,-73.97637939453125,40.790481567382813,None,None,2,NY CITY CENTRAL PARK NY US,WBAN:94728,1,FM-15,None,None,None,None,None,None,None,None,None,None,None,None,-9999,-9999,None,None,None,-9999,-9999,None,None,None,None,None,None,None,None,None,None,None,None,None,None,None,None,None,None,None,None,None,None,None,None,-73.9669,40.7889,6,None,VRB,30,-1.2,10.00,29.95,30.10,OVC:08 44,48,2,None,0.00,None,17,-8.3,35,1.7,30.12,39.6,2016-01-02 09:51,None,None,None,2140,1220,None,None,None,None,None,None,None,None,None,None,None,None,None,None,None,None
.68,2016-01-02 09:18:45,2016-01-02 09:22:01,5.3,0,0,N,None,None,None,None,-73.988311767578125,40.753448486328125,2,1,0.5,None,None,0.3,4.5,0,-73.995018005371094,40.744659423828125,None,None,2,NY CITY CENTRAL PARK NY US,WBAN:94728,1,FM-15,None,None,None,None,None,None,None,None,None,None,None,None,-9999,-9999,None,None,None,-9999,-9999,None,None,None,None,None,None,None,None,None,None,None,None,None,None,None,None,None,None,None,None,None,None,None,None,-73.9669,40.7889,6,None,VRB,30,-1.2,10.00,29.95,30.10,OVC:08 44,48,2,None,0.00,None,17,-8.3,35,1.7,30.12,39.6,2016-01-02 09:51,None,None,None,2140,1220,None,None,None,None,None,None,None,None,None,None,None,None,None,None,None,None
1.82,2016-01-02 09:18:45,2016-01-02 09:31:04,12.96,0,2.16,N,None,None,None,None,-73.995803833007812,40.73870849609375,1,1,0.5,None,None,0.3,10,0,-73.99835205078125,40.755599975585938,None,None,2,NY CITY CENTRAL PARK NY US,WBAN:94728,1,FM-15,None,None,None,None,None,None,None,None,None,None,None,None,-9999,-9999,None,None,None,-9999,-9999,None,None,None,None,None,None,None,None,None,None,None,None,None,None,None,None,None,None,None,None,None,None,None,None,-73.9669,40.7889,6,None,VRB,30,-1.2,10.00,29.95,30.10,OVC:08 44,48,2,None,0.00,None,17,-8.3,35,1.7,30.12,39.6,2016-01-02 09:51,None,None,None,2140,1220,None,None,None,None,None,None,None,None,None,None,None,None,None,None,None,None
.00,2016-01-02 09:18:45,2016-01-02 09:18:47,60.8,0,8,N,None,None,None,None,0,0,1,1,0.5,None,None,0.3,52,0,0,0,None,None,2,NY CITY CENTRAL PARK NY US,WBAN:94728,2,FM-15,None,None,None,None,None,None,None,None,None,None,None,None,-9999,-9999,None,None,None,-9999,-9999,None,None,None,None,None,None,None,None,None,None,None,None,None,None,None,None,None,None,None,None,None,None,None,None,-73.9669,40.7889,6,None,VRB,30,-1.2,10.00,29.95,30.10,OVC:08 44,48,2,None,0.00,None,17,-8.3,35,1.7,30.12,39.6,2016-01-02 09:51,None,None,None,2140,1220,None,None,None,None,None,None,None,None,None,None,None,None,None,None,None,None
1.87,2016-01-02 09:18:45,2016-01-02 09:37:37,16.56,0,2.76,N,None,None,None,None,-73.960716247558594,40.775104522705078,1,3,0.5,None,None,0.3,13,0,-73.978240966796875,40.755210876464844,None,None,2,NY CITY CENTRAL PARK NY US,WBAN:94728,1,FM-15,None,None,None,None,None,None,None,None,None,None,None,None,-9999,-9999,None,None,None,-9999,-9999,None,None,None,None,None,None,None,None,None,None,None,None,None,None,None,None,None,None,None,None,None,None,None,None,-73.9669,40.7889,6,None,VRB,30,-1.2,10.00,29.95,30.10,OVC:08 44,48,2,None,0.00,None,17,-8.3,35,1.7,30.12,39.6,2016-01-02 09:51,None,None,None,2140,1220,None,None,None,None,None,None,None,None,None,None,None,None,None,None,None,None
4.70,2016-01-02 09:18:46,2016-01-02 09:32:16,19.55,0,3.25,N,None,2016-01-01 02:00:00,New York,10038,-73.977188110351562,40.750118255615234,1,1,0.5,-74.0081571,40.7090990,0.3,15.5,0,-74.007644653320312,40.703525543212891,New York,0,1,NY CITY CENTRAL PARK NY US,WBAN:94728,1,FM-15,None,None,None,None,None,None,None,None,None,None,None,None,-9999,-9999,None,None,None,-9999,-9999,None,None,None,None,None,None,None,None,None,None,None,None,None,None,None,None,None,None,None,None,None,None,None,None,-73.9669,40.7889,6,None,VRB,30,-1.2,10.00,29.95,30.10,OVC:08 44,48,2,None,0.00,None,17,-8.3,35,1.7,30.12,39.6,2016-01-02 09:51,None,None,None,2140,1220,None,None,None,None,None,None,None,None,None,None,None,None,None,None,None,None
.79,2016-01-02 09:18:46,2016-01-02 09:27:10,9.36,0,1.56,N,None,2016-01-01 00:00:00,New York,10028,-73.981246948242188,40.779109954833984,1,2,0.5,-73.9634699,40.7792134,0.3,7,0,-73.9715576171875,40.782848358154297,New York,2,2,NY CITY CENTRAL PARK NY US,WBAN:94728,1,FM-15,None,None,None,None,None,None,None,None,None,None,None,None,-9999,-9999,None,None,None,-9999,-9999,None,None,None,None,None,None,None,None,None,None,None,None,None,None,None,None,None,None,None,None,None,None,None,None,-73.9669,40.7889,6,None,VRB,30,-1.2,10.00,29.95,30.10,OVC:08 44,48,2,None,0.00,None,17,-8.3,35,1.7,30.12,39.6,2016-01-02 09:51,None,None,None,2140,1220,None,None,None,None,None,None,None,None,None,None,None,None,None,None,None,None
.26,2016-01-02 09:18:46,2016-01-02 09:20:47,4.3,0,0,N,None,None,None,None,-73.978157043457031,40.753303527832031,1,1,0.5,None,None,0.3,3.5,0,-73.98199462890625,40.754936218261719,None,None,2,NY CITY CENTRAL PARK NY US,WBAN:94728,1,FM-15,None,None,None,None,None,None,None,None,None,None,None,None,-9999,-9999,None,None,None,-9999,-9999,None,None,None,None,None,None,None,None,None,None,None,None,None,None,None,None,None,None,None,None,None,None,None,None,-73.9669,40.7889,6,None,VRB,30,-1.2,10.00,29.95,30.10,OVC:08 44,48,2,None,0.00,None,17,-8.3,35,1.7,30.12,39.6,2016-01-02 09:51,None,None,None,2140,1220,None,None,None,None,None,None,None,None,None,None,None,None,None,None,None,None
1.74,2016-01-02 09:18:46,2016-01-02 09:31:00,12.96,0,2.16,N,None,None,None,None,-74.013374328613281,40.716682434082031,1,1,0.5,None,None,0.3,10,0,-73.995010375976563,40.72564697265625,None,None,2,NY CITY CENTRAL PARK NY US,WBAN:94728,1,FM-15,None,None,None,None,None,None,None,None,None,None,None,None,-9999,-9999,None,None,None,-9999,-9999,None,None,None,None,None,None,None,None,None,None,None,None,None,None,None,None,None,None,None,None,None,None,None,None,-73.9669,40.7889,6,None,VRB,30,-1.2,10.00,29.95,30.10,OVC:08 44,48,2,None,0.00,None,17,-8.3,35,1.7,30.12,39.6,2016-01-02 09:51,None,None,None,2140,1220,None,None,None,None,None,None,None,None,None,None,None,None,None,None,None,None
3.42,2016-01-02 09:18:46,2016-01-02 09:47:11,21.3,0,2,N,None,None,None,None,-73.993995666503906,40.751155853271484,1,1,0.5,None,None,0.3,18.5,0,-73.953994750976563,40.770530700683594,None,None,2,NY CITY CENTRAL PARK NY US,WBAN:94728,1,FM-15,None,None,None,None,None,None,None,None,None,None,None,None,-9999,-9999,None,None,None,-9999,-9999,None,None,None,None,None,None,None,None,None,None,None,None,None,None,None,None,None,None,None,None,None,None,None,None,-73.9669,40.7889,6,None,VRB,30,-1.2,10.00,29.95,30.10,OVC:08 44,48,2,None,0.00,None,17,-8.3,35,1.7,30.12,39.6,2016-01-02 09:51,None,None,None,2140,1220,None,None,None,None,None,None,None,None,None,None,None,None,None,None,None,None
1.20,2016-01-02 09:18:47,2016-01-02 09:26:15,7.8,0,0,N,None,None,None,None,-73.991493225097656,40.727180480957031,2,1,0.5,None,None,0.3,7,0,-73.985000610351563,40.741851806640625,None,None,1,NY CITY CENTRAL PARK NY US,WBAN:94728,1,FM-15,None,None,None,None,None,None,None,None,None,None,None,None,-9999,-9999,None,None,None,-9999,-9999,None,None,None,None,None,None,None,None,None,None,None,None,None,None,None,None,None,None,None,None,None,None,None,None,-73.9669,40.7889,6,None,VRB,30,-1.2,10.00,29.95,30.10,OVC:08 44,48,2,None,0.00,None,17,-8.3,35,1.7,30.12,39.6,2016-01-02 09:51,None,None,None,2140,1220,None,None,None,None,None,None,None,None,None,None,None,None,None,None,None,None
.40,2016-01-02 09:18:47,2016-01-02 09:26:22,7.48,0,0.68,N,None,None,None,None,-73.981231689453125,40.747089385986328,1,1,0.5,None,None,0.3,6,0,-73.984245300292969,40.742805480957031,None,None,1,NY CITY CENTRAL PARK NY US,WBAN:94728,1,FM-15,None,None,None,None,None,None,None,None,None,None,None,None,-9999,-9999,None,None,None,-9999,-9999,None,None,None,None,None,None,None,None,None,None,None,None,None,None,None,None,None,None,None,None,None,None,None,None,-73.9669,40.7889,6,None,VRB,30,-1.2,10.00,29.95,30.10,OVC:08 44,48,2,None,0.00,None,17,-8.3,35,1.7,30.12,39.6,2016-01-02 09:51,None,None,None,2140,1220,None,None,None,None,None,None,None,None,None,None,None,None,None,None,None,None
1.00,2016-01-02 09:18:47,2016-01-02 09:31:56,11.8,0,1.5,N,2016-12-31 00:00:00,2016-01-01 00:00:00,New York,10022,-73.953971862792969,40.772991180419922,1,1,0.5,-73.968,40.759,0.3,9.5,0,-73.965690612792969,40.765430450439453,New York,2,1,NY CITY CENTRAL PARK NY US,WBAN:94728,1,FM-15,None,None,None,None,None,None,None,None,None,None,None,None,-9999,-9999,None,None,None,-9999,-9999,None,None,None,None,None,None,None,None,None,None,None,None,None,None,None,None,None,None,None,None,None,None,None,None,-73.9669,40.7889,6,None,VRB,30,-1.2,10.00,29.95,30.10,OVC:08 44,48,2,None,0.00,None,17,-8.3,35,1.7,30.12,39.6,2016-01-02 09:51,None,None,None,2140,1220,None,None,None,None,None,None,None,None,None,None,None,None,None,None,None,None
2.17,2016-01-02 09:18:47,2016-01-02 09:38:15,17.16,0,2.86,N,None,2016-01-01 00:00:00,New York,10028,-73.95794677734375,40.760948181152344,1,1,0.5,-73.9634699,40.7792134,0.3,13.5,0,-73.957733154296875,40.784599304199219,New York,2,2,NY CITY CENTRAL PARK NY US,WBAN:94728,1,FM-15,None,None,None,None,None,None,None,None,None,None,None,None,-9999,-9999,None,None,None,-9999,-9999,None,None,None,None,None,None,None,None,None,None,None,None,None,None,None,None,None,None,None,None,None,None,None,None,-73.9669,40.7889,6,None,VRB,30,-1.2,10.00,29.95,30.10,OVC:08 44,48,2,None,0.00,None,17,-8.3,35,1.7,30.12,39.6,2016-01-02 09:51,None,None,None,2140,1220,None,None,None,None,None,None,None,None,None,None,None,None,None,None,None,None
.30,2016-01-02 09:18:48,2016-01-02 09:20:25,4.3,0,0,N,None,None,None,None,-73.974838256835938,40.787921905517578,2,1,0.5,None,None,0.3,3.5,0,-73.970321655273437,40.790763854980469,None,None,1,NY CITY CENTRAL PARK NY US,WBAN:94728,1,FM-15,None,None,None,None,None,None,None,None,None,None,None,None,-9999,-9999,None,None,None,-9999,-9999,None,None,None,None,None,None,None,None,None,None,None,None,None,None,None,None,None,None,None,None,None,None,None,None,-73.9669,40.7889,6,None,VRB,30,-1.2,10.00,29.95,30.10,OVC:08 44,48,2,None,0.00,None,17,-8.3,35,1.7,30.12,39.6,2016-01-02 09:51,None,None,None,2140,1220,None,None,None,None,None,None,None,None,None,None,None,None,None,None,None,None
1.70,2016-01-02 09:18:48,2016-01-02 09:30:58,12.3,0,2,N,2016-12-31 00:00:00,2016-01-01 00:00:00,New York,10022,-73.989173889160156,40.747989654541016,1,1,0.5,-73.968,40.759,0.3,9.5,0,-73.96990966796875,40.762306213378906,New York,2,1,NY CITY CENTRAL PARK NY US,WBAN:94728,1,FM-15,None,None,None,None,None,None,None,None,None,None,None,None,-9999,-9999,None,None,None,-9999,-9999,None,None,None,None,None,None,None,None,None,None,None,None,None,None,None,None,None,None,None,None,None,None,None,None,-73.9669,40.7889,6,None,VRB,30,-1.2,10.00,29.95,30.10,OVC:08 44,48,2,None,0.00,None,17,-8.3,35,1.7,30.12,39.6,2016-01-02 09:51,None,None,None,2140,1220,None,None,None,None,None,None,None,None,None,None,None,None,None,None,None,None
1.00,2016-01-02 09:18:48,2016-01-02 09:25:10,7.8,0,1,N,2016-12-31 00:00:00,2016-01-01 00:00:00,New York,10022,-73.952987670898437,40.776741027832031,1,1,0.5,-73.968,40.759,0.3,6,0,-73.9617919921875,40.763637542724609,New York,2,1,NY CITY CENTRAL PARK NY US,WBAN:94728,1,FM-15,None,None,None,None,None,None,None,None,None,None,None,None,-9999,-9999,None,None,None,-9999,-9999,None,None,None,None,None,None,None,None,None,None,None,None,None,None,None,None,None,None,None,None,None,None,None,None,-73.9669,40.7889,6,None,VRB,30,-1.2,10.00,29.95,30.10,OVC:08 44,48,2,None,0.00,None,17,-8.3,35,1.7,30.12,39.6,2016-01-02 09:51,None,None,None,2140,1220,None,None,None,None,None,None,None,None,None,None,None,None,None,None,None,None
1.10,2016-01-02 09:18:48,2016-01-02 09:32:28,13.5,0,2.7,N,None,None,None,None,-73.994094848632812,40.751190185546875,1,2,0.5,None,None,0.3,10,0,-74.004623413085938,40.741909027099609,None,None,1,NY CITY CENTRAL PARK NY US,WBAN:94728,1,FM-15,None,None,None,None,None,None,None,None,None,None,None,None,-9999,-9999,None,None,None,-9999,-9999,None,None,None,None,None,None,None,None,None,None,None,None,None,None,None,None,None,None,None,None,None,None,None,None,-73.9669,40.7889,6,None,VRB,30,-1.2,10.00,29.95,30.10,OVC:08 44,48,2,None,0.00,None,17,-8.3,35,1.7,30.12,39.6,2016-01-02 09:51,None,None,None,2140,1220,None,None,None,None,None,None,None,None,None,None,None,None,None,None,None,None
1.10,2016-01-02 09:18:48,2016-01-02 09:33:01,10.8,0,0.5,N,None,None,None,None,-73.967315673828125,40.757591247558594,1,1,0.5,None,None,0.3,9.5,0,-73.980224609375,40.753055572509766,None,None,1,NY CITY CENTRAL PARK NY US,WBAN:94728,1,FM-15,None,None,None,None,None,None,None,None,None,None,None,None,-9999,-9999,None,None,None,-9999,-9999,None,None,None,None,None,None,None,None,None,None,None,None,None,None,None,None,None,None,None,None,None,None,None,None,-73.9669,40.7889,6,None,VRB,30,-1.2,10.00,29.95,30.10,OVC:08 44,48,2,None,0.00,None,17,-8.3,35,1.7,30.12,39.6,2016-01-02 09:51,None,None,None,2140,1220,None,None,None,None,None,None,None,None,None,None,None,None,None,None,None,None
.75,2016-01-02 09:18:48,2016-01-02 09:21:13,4.8,0,0,N,None,None,None,None,-73.971511840820313,40.787269592285156,2,6,0.5,None,None,0.3,4,0,-73.970489501953125,40.793869018554687,None,None,2,NY CITY CENTRAL PARK NY US,WBAN:94728,1,FM-15,None,None,None,None,None,None,None,None,None,None,None,None,-9999,-9999,None,None,None,-9999,-9999,None,None,None,None,None,None,None,None,None,None,None,None,None,None,None,None,None,None,None,None,None,None,None,None,-73.9669,40.7889,6,None,VRB,30,-1.2,10.00,29.95,30.10,OVC:08 44,48,2,None,0.00,None,17,-8.3,35,1.7,30.12,39.6,2016-01-02 09:51,None,None,None,2140,1220,None,None,None,None,None,None,None,None,None,None,None,None,None,None,None,None
2.83,2016-01-02 09:18:48,2016-01-02 09:30:20,15.3,0,3,N,None,None,None,None,-73.904159545898437,40.771560668945313,1,1,0.5,None,None,0.3,11.5,0,-73.875068664550781,40.750930786132813,None,None,2,NY CITY CENTRAL PARK NY US,WBAN:94728,1,FM-15,None,None,None,None,None,None,None,None,None,None,None,None,-9999,-9999,None,None,None,-9999,-9999,None,None,None,None,None,None,None,None,None,None,None,None,None,None,None,None,None,None,None,None,None,None,None,None,-73.9669,40.7889,6,None,VRB,30,-1.2,10.00,29.95,30.10,OVC:08 44,48,2,None,0.00,None,17,-8.3,35,1.7,30.12,39.6,2016-01-02 09:51,None,None,None,2140,1220,None,None,None,None,None,None,None,None,None,None,None,None,None,None,None,None
2.47,2016-01-02 09:18:48,2016-01-02 09:41:47,18.8,0,2,N,2016-12-31 00:00:00,2016-01-01 00:00:00,New York,10022,-73.980461120605469,40.730060577392578,1,1,0.5,-73.968,40.759,0.3,16,0,-73.973419189453125,40.754283905029297,New York,2,2,NY CITY CENTRAL PARK NY US,WBAN:94728,1,FM-15,None,None,None,None,None,None,None,None,None,None,None,None,-9999,-9999,None,None,None,-9999,-9999,None,None,None,None,None,None,None,None,None,None,None,None,None,None,None,None,None,None,None,None,None,None,None,None,-73.9669,40.7889,6,None,VRB,30,-1.2,10.00,29.95,30.10,OVC:08 44,48,2,None,0.00,None,17,-8.3,35,1.7,30.12,39.6,2016-01-02 09:51,None,None,None,2140,1220,None,None,None,None,None,None,None,None,None,None,None,None,None,None,None,None
1.60,2016-01-02 09:18:48,2016-01-02 09:27:31,10.56,0,1.76,N,None,2016-01-01 20:00:00,New York,10013,-74.016326904296875,40.714778900146484,1,1,0.5,-74.0050159,40.7208412,0.3,8,0,-74.001121520996094,40.721111297607422,New York,0,2,NY CITY CENTRAL PARK NY US,WBAN:94728,1,FM-15,None,None,None,None,None,None,None,None,None,None,None,None,-9999,-9999,None,None,None,-9999,-9999,None,None,None,None,None,None,None,None,None,None,None,None,None,None,None,None,None,None,None,None,None,None,None,None,-73.9669,40.7889,6,None,VRB,30,-1.2,10.00,29.95,30.10,OVC:08 44,48,2,None,0.00,None,17,-8.3,35,1.7,30.12,39.6,2016-01-02 09:51,None,None,None,2140,1220,None,None,None,None,None,None,None,None,None,None,None,None,None,None,None,None
1.89,2016-01-02 09:18:48,2016-01-02 09:27:38,10.8,0,1,N,None | None | None,2016-01-01 00:00:00 | 2016-01-01 00:00:00 | 2016-01-01 20:00:00,New York | New York | New York,None | None | 10013,-73.986923217773437,40.701061248779297,1,2,0.5,-74.0064 | -74.0064 | -74.0050159,40.7142 | 40.7142 | 40.7208412,0.3,9,0,-74.002799987792969,40.717830657958984,New York | New York | New York,1 | 1 | 0,2,NY CITY CENTRAL PARK NY US,WBAN:94728,1,FM-15,None,None,None,None,None,None,None,None,None,None,None,None,-9999,-9999,None,None,None,-9999,-9999,None,None,None,None,None,None,None,None,None,None,None,None,None,None,None,None,None,None,None,None,None,None,None,None,-73.9669,40.7889,6,None,VRB,30,-1.2,10.00,29.95,30.10,OVC:08 44,48,2,None,0.00,None,17,-8.3,35,1.7,30.12,39.6,2016-01-02 09:51,None,None,None,2140,1220,None,None,None,None,None,None,None,None,None,None,None,None,None,None,None,None
2.10,2016-01-02 09:18:49,2016-01-02 09:42:25,19,0,2.7,N,None,None,None,None,-73.9586181640625,40.777938842773438,1,1,0.5,None,None,0.3,15.5,0,-73.974983215332031,40.752761840820312,None,None,1,NY CITY CENTRAL PARK NY US,WBAN:94728,1,FM-15,None,None,None,None,None,None,None,None,None,None,None,None,-9999,-9999,None,None,None,-9999,-9999,None,None,None,None,None,None,None,None,None,None,None,None,None,None,None,None,None,None,None,None,None,None,None,None,-73.9669,40.7889,6,None,VRB,30,-1.2,10.00,29.95,30.10,OVC:08 44,48,2,None,0.00,None,17,-8.3,35,1.7,30.12,39.6,2016-01-02 09:51,None,None,None,2140,1220,None,None,None,None,None,None,None,None,None,None,None,None,None,None,None,None
3.20,2016-01-02 09:18:49,2016-01-02 09:46:10,20,0,1.2,N,None,None,None,None,-73.981613159179688,40.746574401855469,1,1,0.5,None,None,0.3,18,0,-73.953865051269531,40.779579162597656,None,None,1,NY CITY CENTRAL PARK NY US,WBAN:94728,1,FM-15,None,None,None,None,None,None,None,None,None,None,None,None,-9999,-9999,None,None,None,-9999,-9999,None,None,None,None,None,None,None,None,None,None,None,None,None,None,None,None,None,None,None,None,None,None,None,None,-73.9669,40.7889,6,None,VRB,30,-1.2,10.00,29.95,30.10,OVC:08 44,48,2,None,0.00,None,17,-8.3,35,1.7,30.12,39.6,2016-01-02 09:51,None,None,None,2140,1220,None,None,None,None,None,None,None,None,None,None,None,None,None,None,None,None
.50,2016-01-02 09:18:49,2016-01-02 09:22:03,5.3,0,0,N,None | 2016-07-03 00:00:00,2016-01-01 00:00:00 | 2015-10-08 00:00:00,New York | New York,10019 | 10019,-73.984710693359375,40.754104614257813,2,2,0.5,-73.9803996 | -73.9844951,40.7656668 | 40.7632328,0.3,4.5,0,-73.979393005371094,40.761604309082031,New York | New York,1 | 2,1,NY CITY CENTRAL PARK NY US,WBAN:94728,1,FM-15,None,None,None,None,None,None,None,None,None,None,None,None,-9999,-9999,None,None,None,-9999,-9999,None,None,None,None,None,None,None,None,None,None,None,None,None,None,None,None,None,None,None,None,None,None,None,None,-73.9669,40.7889,6,None,VRB,30,-1.2,10.00,29.95,30.10,OVC:08 44,48,2,None,0.00,None,17,-8.3,35,1.7,30.12,39.6,2016-01-02 09:51,None,None,None,2140,1220,None,None,None,None,None,None,None,None,None,None,None,None,None,None,None,None
2.70,2016-01-02 09:18:50,2016-01-02 09:41:00,15.8,0,0,N,None,None,None,None,-73.98828125,40.749252319335938,2,1,0.5,None,None,0.3,15,0,-73.989463806152344,40.773048400878906,None,None,1,NY CITY CENTRAL PARK NY US,WBAN:94728,1,FM-15,None,None,None,None,None,None,None,None,None,None,None,None,-9999,-9999,None,None,None,-9999,-9999,None,None,None,None,None,None,None,None,None,None,None,None,None,None,None,None,None,None,None,None,None,None,None,None,-73.9669,40.7889,6,None,VRB,30,-1.2,10.00,29.95,30.10,OVC:08 44,48,2,None,0.00,None,17,-8.3,35,1.7,30.12,39.6,2016-01-02 09:51,None,None,None,2140,1220,None,None,None,None,None,None,None,None,None,None,None,None,None,None,None,None
1.60,2016-01-02 09:18:50,2016-01-02 09:27:47,9.8,0,0,N,None,None,None,None,-73.980873107910156,40.781730651855469,3,1,0.5,None,None,0.3,9,0,-73.967849731445312,40.801921844482422,None,None,1,NY CITY CENTRAL PARK NY US,WBAN:94728,1,FM-15,None,None,None,None,None,None,None,None,None,None,None,None,-9999,-9999,None,None,None,-9999,-9999,None,None,None,None,None,None,None,None,None,None,None,None,None,None,None,None,None,None,None,None,None,None,None,None,-73.9669,40.7889,6,None,VRB,30,-1.2,10.00,29.95,30.10,OVC:08 44,48,2,None,0.00,None,17,-8.3,35,1.7,30.12,39.6,2016-01-02 09:51,None,None,None,2140,1220,None,None,None,None,None,None,None,None,None,None,None,None,None,None,None,None
.90,2016-01-02 09:18:50,2016-01-02 09:27:01,9,0,1.2,N,None,None,None,None,-73.976615905761719,40.750751495361328,1,1,0.5,None,None,0.3,7,0,-73.974899291992187,40.741756439208984,None,None,1,NY CITY CENTRAL PARK NY US,WBAN:94728,1,FM-15,None,None,None,None,None,None,None,None,None,None,None,None,-9999,-9999,None,None,None,-9999,-9999,None,None,None,None,None,None,None,None,None,None,None,None,None,None,None,None,None,None,None,None,None,None,None,None,-73.9669,40.7889,6,None,VRB,30,-1.2,10.00,29.95,30.10,OVC:08 44,48,2,None,0.00,None,17,-8.3,35,1.7,30.12,39.6,2016-01-02 09:51,None,None,None,2140,1220,None,None,None,None,None,None,None,None,None,None,None,None,None,None,None,None
2.20,2016-01-02 09:18:50,2016-01-02 09:30:13,12.3,0,1,N,None,None,None,None,-73.998481750488281,40.725879669189453,1,1,0.5,None,None,0.3,10.5,0,-74.0078125,40.751537322998047,None,None,1,NY CITY CENTRAL PARK NY US,WBAN:94728,1,FM-15,None,None,None,None,None,None,None,None,None,None,None,None,-9999,-9999,None,None,None,-9999,-9999,None,None,None,None,None,None,None,None,None,None,None,None,None,None,None,None,None,None,None,None,None,None,None,None,-73.9669,40.7889,6,None,VRB,30,-1.2,10.00,29.95,30.10,OVC:08 44,48,2,None,0.00,None,17,-8.3,35,1.7,30.12,39.6,2016-01-02 09:51,None,None,None,2140,1220,None,None,None,None,None,None,None,None,None,None,None,None,None,None,None,None
.85,2016-01-02 09:18:50,2016-01-02 09:27:17,7.8,0,0,N,None | 2016-12-31 00:00:00,2016-01-01 00:00:00 | 2016-01-01 00:00:00,New York | New York,10019 | 10022,-73.983428955078125,40.765159606933594,2,2,0.5,-73.9803996 | -73.968,40.7656668 | 40.759,0.3,7,0,-73.974128723144531,40.762420654296875,New York | New York,1 | 2,2,NY CITY CENTRAL PARK NY US,WBAN:94728,1,FM-15,None,None,None,None,None,None,None,None,None,None,None,None,-9999,-9999,None,None,None,-9999,-9999,None,None,None,None,None,None,None,None,None,None,None,None,None,None,None,None,None,None,None,None,None,None,None,None,-73.9669,40.7889,6,None,VRB,30,-1.2,10.00,29.95,30.10,OVC:08 44,48,2,None,0.00,None,17,-8.3,35,1.7,30.12,39.6,2016-01-02 09:51,None,None,None,2140,1220,None,None,None,None,None,None,None,None,None,None,None,None,None,None,None,None
1.27,2016-01-02 09:18:50,2016-01-02 09:27:13,8.3,0,0,N,None,2016-01-01 12:00:00,New York,10029,-73.964302062988281,40.79718017578125,1,2,0.5,-73.9519050,40.7924950,0.3,7.5,0,-73.953514099121094,40.788307189941406,New York,0,2,NY CITY CENTRAL PARK NY US,WBAN:94728,1,FM-15,None,None,None,None,None,None,None,None,None,None,None,None,-9999,-9999,None,None,None,-9999,-9999,None,None,None,None,None,None,None,None,None,None,None,None,None,None,None,None,None,None,None,None,None,None,None,None,-73.9669,40.7889,6,None,VRB,30,-1.2,10.00,29.95,30.10,OVC:08 44,48,2,None,0.00,None,17,-8.3,35,1.7,30.12,39.6,2016-01-02 09:51,None,None,None,2140,1220,None,None,None,None,None,None,None,None,None,None,None,None,None,None,None,None
2.36,2016-01-02 09:18:50,2016-01-02 09:38:24,16.44,0,2.14,N,None | 2016-07-03 00:00:00,2016-01-01 00:00:00 | 2015-10-08 00:00:00,New York | New York,10019 | 10019,-73.974288940429688,40.791240692138672,1,1,0.5,-73.9803996 | -73.9844951,40.7656668 | 40.7632328,0.3,13.5,0,-73.975753784179688,40.763763427734375,New York | New York,1 | 2,2,NY CITY CENTRAL PARK NY US,WBAN:94728,1,FM-15,None,None,None,None,None,None,None,None,None,None,None,None,-9999,-9999,None,None,None,-9999,-9999,None,None,None,None,None,None,None,None,None,None,None,None,None,None,None,None,None,None,None,None,None,None,None,None,-73.9669,40.7889,6,None,VRB,30,-1.2,10.00,29.95,30.10,OVC:08 44,48,2,None,0.00,None,17,-8.3,35,1.7,30.12,39.6,2016-01-02 09:51,None,None,None,2140,1220,None,None,None,None,None,None,None,None,None,None,None,None,None,None,None,None
3.01,2016-01-02 09:18:50,2016-01-02 09:43:10,17.8,0,0,N,None,None,None,None,-73.972442626953125,40.795982360839844,2,1,0.5,None,None,0.3,17,0,-73.953147888183594,40.769161224365234,None,None,2,NY CITY CENTRAL PARK NY US,WBAN:94728,1,FM-15,None,None,None,None,None,None,None,None,None,None,None,None,-9999,-9999,None,None,None,-9999,-9999,None,None,None,None,None,None,None,None,None,None,None,None,None,None,None,None,None,None,None,None,None,None,None,None,-73.9669,40.7889,6,None,VRB,30,-1.2,10.00,29.95,30.10,OVC:08 44,48,2,None,0.00,None,17,-8.3,35,1.7,30.12,39.6,2016-01-02 09:51,None,None,None,2140,1220,None,None,None,None,None,None,None,None,None,None,None,None,None,None,None,None
1.40,2016-01-02 09:18:51,2016-01-02 09:30:37,11.8,0,2,N,None,2016-01-01 20:00:00,New York,10013,-73.981521606445313,40.721073150634766,1,1,0.5,-74.0050159,40.7208412,0.3,9,0,-74.003227233886719,40.726963043212891,New York,0,1,NY CITY CENTRAL PARK NY US,WBAN:94728,1,FM-15,None,None,None,None,None,None,None,None,None,None,None,None,-9999,-9999,None,None,None,-9999,-9999,None,None,None,None,None,None,None,None,None,None,None,None,None,None,None,None,None,None,None,None,None,None,None,None,-73.9669,40.7889,6,None,VRB,30,-1.2,10.00,29.95,30.10,OVC:08 44,48,2,None,0.00,None,17,-8.3,35,1.7,30.12,39.6,2016-01-02 09:51,None,None,None,2140,1220,None,None,None,None,None,None,None,None,None,None,None,None,None,None,None,None
.90,2016-01-02 09:18:51,2016-01-02 09:27:26,10.8,0,3,N,2016-12-31 00:00:00,2016-01-01 00:00:00,New York,10022,-73.972023010253906,40.762638092041016,1,1,0.5,-73.968,40.759,0.3,7,0,-73.970649719238281,40.754238128662109,New York,2,1,NY CITY CENTRAL PARK NY US,WBAN:94728,1,FM-15,None,None,None,None,None,None,None,None,None,None,None,None,-9999,-9999,None,None,None,-9999,-9999,None,None,None,None,None,None,None,None,None,None,None,None,None,None,None,None,None,None,None,None,None,None,None,None,-73.9669,40.7889,6,None,VRB,30,-1.2,10.00,29.95,30.10,OVC:08 44,48,2,None,0.00,None,17,-8.3,35,1.7,30.12,39.6,2016-01-02 09:51,None,None,None,2140,1220,None,None,None,None,None,None,None,None,None,None,None,None,None,None,None,None
.32,2016-01-02 09:18:51,2016-01-02 09:21:30,4.3,0,0,N,2022-04-16 02:00:00,2016-01-01 00:00:00,New York,None,-73.965286254882813,40.771648406982422,2,1,0.5,-73.9651814,40.7745779,0.3,3.5,0,-73.963470458984375,40.768669128417969,New York,1,2,NY CITY CENTRAL PARK NY US,WBAN:94728,1,FM-15,None,None,None,None,None,None,None,None,None,None,None,None,-9999,-9999,None,None,None,-9999,-9999,None,None,None,None,None,None,None,None,None,None,None,None,None,None,None,None,None,None,None,None,None,None,None,None,-73.9669,40.7889,6,None,VRB,30,-1.2,10.00,29.95,30.10,OVC:08 44,48,2,None,0.00,None,17,-8.3,35,1.7,30.12,39.6,2016-01-02 09:51,None,None,None,2140,1220,None,None,None,None,None,None,None,None,None,None,None,None,None,None,None,None
1.85,2016-01-02 09:18:51,2016-01-02 09:37:13,13.3,0,0,N,None,None,None,None,-73.988349914550781,40.769058227539062,2,1,0.5,None,None,0.3,12.5,0,-73.993202209472656,40.747959136962891,None,None,2,NY CITY CENTRAL PARK NY US,WBAN:94728,1,FM-15,None,None,None,None,None,None,None,None,None,None,None,None,-9999,-9999,None,None,None,-9999,-9999,None,None,None,None,None,None,None,None,None,None,None,None,None,None,None,None,None,None,None,None,None,None,None,None,-73.9669,40.7889,6,None,VRB,30,-1.2,10.00,29.95,30.10,OVC:08 44,48,2,None,0.00,None,17,-8.3,35,1.7,30.12,39.6,2016-01-02 09:51,None,None,None,2140,1220,None,None,None,None,None,None,None,None,None,None,None,None,None,None,None,None
.90,2016-01-02 09:18:52,2016-01-02 09:25:36,8.76,0,1.46,N,None,None,None,None,-73.989608764648437,40.748710632324219,1,1,0.5,None,None,0.3,6.5,0,-73.976844787597656,40.748569488525391,None,None,1,NY CITY CENTRAL PARK NY US,WBAN:94728,1,FM-15,None,None,None,None,None,None,None,None,None,None,None,None,-9999,-9999,None,None,None,-9999,-9999,None,None,None,None,None,None,None,None,None,None,None,None,None,None,None,None,None,None,None,None,None,None,None,None,-73.9669,40.7889,6,None,VRB,30,-1.2,10.00,29.95,30.10,OVC:08 44,48,2,None,0.00,None,17,-8.3,35,1.7,30.12,39.6,2016-01-02 09:51,None,None,None,2140,1220,None,None,None,None,None,None,None,None,None,None,None,None,None,None,None,None
.80,2016-01-02 09:18:52,2016-01-02 09:23:13,5.8,0,0,N,None,2016-01-01 00:00:00,New York,10028,-73.961441040039063,40.777828216552734,2,1,0.5,-73.9634699,40.7792134,0.3,5,0,-73.972427368164062,40.781227111816406,New York,2,1,NY CITY CENTRAL PARK NY US,WBAN:94728,1,FM-15,None,None,None,None,None,None,None,None,None,None,None,None,-9999,-9999,None,None,None,-9999,-9999,None,None,None,None,None,None,None,None,None,None,None,None,None,None,None,None,None,None,None,None,None,None,None,None,-73.9669,40.7889,6,None,VRB,30,-1.2,10.00,29.95,30.10,OVC:08 44,48,2,None,0.00,None,17,-8.3,35,1.7,30.12,39.6,2016-01-02 09:51,None,None,None,2140,1220,None,None,None,None,None,None,None,None,None,None,None,None,None,None,None,None
1.50,2016-01-02 09:18:52,2016-01-02 09:30:26,11.3,0,1,N,None,None,None,None,-73.99029541015625,40.771915435791016,1,1,0.5,None,None,0.3,9.5,0,-73.988655090332031,40.756664276123047,None,None,1,NY CITY CENTRAL PARK NY US,WBAN:94728,1,FM-15,None,None,None,None,None,None,None,None,None,None,None,None,-9999,-9999,None,None,None,-9999,-9999,None,None,None,None,None,None,None,None,None,None,None,None,None,None,None,None,None,None,None,None,None,None,None,None,-73.9669,40.7889,6,None,VRB,30,-1.2,10.00,29.95,30.10,OVC:08 44,48,2,None,0.00,None,17,-8.3,35,1.7,30.12,39.6,2016-01-02 09:51,None,None,None,2140,1220,None,None,None,None,None,None,None,None,None,None,None,None,None,None,None,None
.71,2016-01-02 09:18:52,2016-01-02 09:24:07,6.3,0,0,N,None,2016-01-01 00:00:00,New York,10019,-73.976966857910156,40.7646484375,2,2,0.5,-73.9803996,40.7656668,0.3,5.5,0,-73.981910705566406,40.772529602050781,New York,1,2,NY CITY CENTRAL PARK NY US,WBAN:94728,1,FM-15,None,None,None,None,None,None,None,None,None,None,None,None,-9999,-9999,None,None,None,-9999,-9999,None,None,None,None,None,None,None,None,None,None,None,None,None,None,None,None,None,None,None,None,None,None,None,None,-73.9669,40.7889,6,None,VRB,30,-1.2,10.00,29.95,30.10,OVC:08 44,48,2,None,0.00,None,17,-8.3,35,1.7,30.12,39.6,2016-01-02 09:51,None,None,None,2140,1220,None,None,None,None,None,None,None,None,None,None,None,None,None,None,None,None
1.55,2016-01-02 09:18:52,2016-01-02 09:35:29,14.16,0,2.36,N,None,None,None,None,0,0,1,1,0.5,None,None,0.3,11,0,0,0,None,None,2,NY CITY CENTRAL PARK NY US,WBAN:94728,1,FM-15,None,None,None,None,None,None,None,None,None,None,None,None,-9999,-9999,None,None,None,-9999,-9999,None,None,None,None,None,None,None,None,None,None,None,None,None,None,None,None,None,None,None,None,None,None,None,None,-73.9669,40.7889,6,None,VRB,30,-1.2,10.00,29.95,30.10,OVC:08 44,48,2,None,0.00,None,17,-8.3,35,1.7,30.12,39.6,2016-01-02 09:51,None,None,None,2140,1220,None,None,None,None,None,None,None,None,None,None,None,None,None,None,None,None
1.80,2016-01-02 09:18:53,2016-01-02 09:30:08,12.1,0,1.8,N,None,2016-01-01 12:00:00,New York,10029,-73.97509765625,40.78753662109375,1,1,0.5,-73.9519050,40.7924950,0.3,9.5,0,-73.948677062988281,40.786361694335938,New York,0,1,NY CITY CENTRAL PARK NY US,WBAN:94728,1,FM-15,None,None,None,None,None,None,None,None,None,None,None,None,-9999,-9999,None,None,None,-9999,-9999,None,None,None,None,None,None,None,None,None,None,None,None,None,None,None,None,None,None,None,None,None,None,None,None,-73.9669,40.7889,6,None,VRB,30,-1.2,10.00,29.95,30.10,OVC:08 44,48,2,None,0.00,None,17,-8.3,35,1.7,30.12,39.6,2016-01-02 09:51,None,None,None,2140,1220,None,None,None,None,None,None,None,None,None,None,None,None,None,None,None,None
1.30,2016-01-02 09:18:53,2016-01-02 09:29:17,11.6,0,2.3,N,None | 2016-07-03 00:00:00,2016-01-01 00:00:00 | 2015-10-08 00:00:00,New York | New York,10019 | 10019,-73.991340637207031,40.74981689453125,1,1,0.5,-73.9803996 | -73.9844951,40.7656668 | 40.7632328,0.3,8.5,0,-73.978652954101563,40.758892059326172,New York | New York,1 | 2,1,NY CITY CENTRAL PARK NY US,WBAN:94728,1,FM-15,None,None,None,None,None,None,None,None,None,None,None,None,-9999,-9999,None,None,None,-9999,-9999,None,None,None,None,None,None,None,None,None,None,None,None,None,None,None,None,None,None,None,None,None,None,None,None,-73.9669,40.7889,6,None,VRB,30,-1.2,10.00,29.95,30.10,OVC:08 44,48,2,None,0.00,None,17,-8.3,35,1.7,30.12,39.6,2016-01-02 09:51,None,None,None,2140,1220,None,None,None,None,None,None,None,None,None,None,None,None,None,None,None,None
3.80,2016-01-02 09:18:53,2016-01-02 09:39:56,20.3,0,2,N,2016-12-31 00:00:00,2016-01-01 00:00:00,New York,10022,-73.987060546875,40.722305297851563,1,1,0.5,-73.968,40.759,0.3,17.5,0,-73.968971252441406,40.759075164794922,New York,2,1,NY CITY CENTRAL PARK NY US,WBAN:94728,1,FM-15,None,None,None,None,None,None,None,None,None,None,None,None,-9999,-9999,None,None,None,-9999,-9999,None,None,None,None,None,None,None,None,None,None,None,None,None,None,None,None,None,None,None,None,None,None,None,None,-73.9669,40.7889,6,None,VRB,30,-1.2,10.00,29.95,30.10,OVC:08 44,48,2,None,0.00,None,17,-8.3,35,1.7,30.12,39.6,2016-01-02 09:51,None,None,None,2140,1220,None,None,None,None,None,None,None,None,None,None,None,None,None,None,None,None
.97,2016-01-02 09:18:53,2016-01-02 09:24:05,8.19,0,1.89,N,None,None,None,None,-73.994422912597656,40.756656646728516,1,2,0.5,None,None,0.3,5.5,0,-74.005691528320313,40.750835418701172,None,None,2,NY CITY CENTRAL PARK NY US,WBAN:94728,1,FM-15,None,None,None,None,None,None,None,None,None,None,None,None,-9999,-9999,None,None,None,-9999,-9999,None,None,None,None,None,None,None,None,None,None,None,None,None,None,None,None,None,None,None,None,None,None,None,None,-73.9669,40.7889,6,None,VRB,30,-1.2,10.00,29.95,30.10,OVC:08 44,48,2,None,0.00,None,17,-8.3,35,1.7,30.12,39.6,2016-01-02 09:51,None,None,None,2140,1220,None,None,None,None,None,None,None,None,None,None,None,None,None,None,None,None
4.35,2016-01-02 09:18:53,2016-01-02 09:46:09,22.8,0,1,N,None,None,None,None,-73.961456298828125,40.760246276855469,1,1,0.5,None,None,0.3,21,0,-73.998786926269531,40.738151550292969,None,None,2,NY CITY CENTRAL PARK NY US,WBAN:94728,1,FM-15,None,None,None,None,None,None,None,None,None,None,None,None,-9999,-9999,None,None,None,-9999,-9999,None,None,None,None,None,None,None,None,None,None,None,None,None,None,None,None,None,None,None,None,None,None,None,None,-73.9669,40.7889,6,None,VRB,30,-1.2,10.00,29.95,30.10,OVC:08 44,48,2,None,0.00,None,17,-8.3,35,1.7,30.12,39.6,2016-01-02 09:51,None,None,None,2140,1220,None,None,None,None,None,None,None,None,None,None,None,None,None,None,None,None
2.71,2016-01-02 09:18:53,2016-01-02 09:34:14,15.96,0,2.66,N,None,2016-01-01 00:00:00,New York,10028,-73.960952758789063,40.781089782714844,1,1,0.5,-73.9634699,40.7792134,0.3,12.5,0,-73.960952758789063,40.781089782714844,New York,2,2,NY CITY CENTRAL PARK NY US,WBAN:94728,1,FM-15,None,None,None,None,None,None,None,None,None,None,None,None,-9999,-9999,None,None,None,-9999,-9999,None,None,None,None,None,None,None,None,None,None,None,None,None,None,None,None,None,None,None,None,None,None,None,None,-73.9669,40.7889,6,None,VRB,30,-1.2,10.00,29.95,30.10,OVC:08 44,48,2,None,0.00,None,17,-8.3,35,1.7,30.12,39.6,2016-01-02 09:51,None,None,None,2140,1220,None,None,None,None,None,None,None,None,None,None,None,None,None,None,None,None
4.90,2016-01-02 09:18:53,2016-01-02 09:47:19,26.16,0,4.36,N,None | None | None,2016-01-01 00:00:00 | 2016-01-01 00:00:00 | 2016-01-01 02:00:00,New York | New York | New York,None | None | 10038,-73.98223876953125,40.7647705078125,1,1,0.5,-74.0064 | -74.0064 | -74.0081571,40.7142 | 40.7142 | 40.7090990,0.3,21,0,-74.014122009277344,40.712669372558594,New York | New York | New York,1 | 1 | 0,2,NY CITY CENTRAL PARK NY US,WBAN:94728,1,FM-15,None,None,None,None,None,None,None,None,None,None,None,None,-9999,-9999,None,None,None,-9999,-9999,None,None,None,None,None,None,None,None,None,None,None,None,None,None,None,None,None,None,None,None,None,None,None,None,-73.9669,40.7889,6,None,VRB,30,-1.2,10.00,29.95,30.10,OVC:08 44,48,2,None,0.00,None,17,-8.3,35,1.7,30.12,39.6,2016-01-02 09:51,None,None,None,2140,1220,None,None,None,None,None,None,None,None,None,None,None,None,None,None,None,None
3.23,2016-01-02 09:18:53,2016-01-02 09:49:58,17.3,0,0,N,None,None,None,None,-73.983383178710938,40.738998413085938,2,1,0.5,None,None,0.3,16.5,0,-73.998420715332031,40.757671356201172,None,None,2,NY CITY CENTRAL PARK NY US,WBAN:94728,1,FM-15,None,None,None,None,None,None,None,None,None,None,None,None,-9999,-9999,None,None,None,-9999,-9999,None,None,None,None,None,None,None,None,None,None,None,None,None,None,None,None,None,None,None,None,None,None,None,None,-73.9669,40.7889,6,None,VRB,30,-1.2,10.00,29.95,30.10,OVC:08 44,48,2,None,0.00,None,17,-8.3,35,1.7,30.12,39.6,2016-01-02 09:51,None,None,None,2140,1220,None,None,None,None,None,None,None,None,None,None,None,None,None,None,None,None
1.00,2016-01-02 09:18:54,2016-01-02 09:29:45,12.05,0,2.75,N,None,2016-01-01 09:00:00,New York,10003,-73.996879577636719,40.737560272216797,1,1,0.5,-73.9870210,40.7308580,0.3,8.5,0,-73.982742309570313,40.736156463623047,New York,0,1,NY CITY CENTRAL PARK NY US,WBAN:94728,1,FM-15,None,None,None,None,None,None,None,None,None,None,None,None,-9999,-9999,None,None,None,-9999,-9999,None,None,None,None,None,None,None,None,None,None,None,None,None,None,None,None,None,None,None,None,None,None,None,None,-73.9669,40.7889,6,None,VRB,30,-1.2,10.00,29.95,30.10,OVC:08 44,48,2,None,0.00,None,17,-8.3,35,1.7,30.12,39.6,2016-01-02 09:51,None,None,None,2140,1220,None,None,None,None,None,None,None,None,None,None,None,None,None,None,None,None
7.80,2016-01-02 09:18:54,2016-01-02 09:41:32,32.15,0,5.35,N,None,None,None,None,-73.981590270996094,40.73248291015625,1,1,0.5,None,None,0.3,26,0,-73.949752807617188,40.812110900878906,None,None,1,NY CITY CENTRAL PARK NY US,WBAN:94728,1,FM-15,None,None,None,None,None,None,None,None,None,None,None,None,-9999,-9999,None,None,None,-9999,-9999,None,None,None,None,None,None,None,None,None,None,None,None,None,None,None,None,None,None,None,None,None,None,None,None,-73.9669,40.7889,6,None,VRB,30,-1.2,10.00,29.95,30.10,OVC:08 44,48,2,None,0.00,None,17,-8.3,35,1.7,30.12,39.6,2016-01-02 09:51,None,None,None,2140,1220,None,None,None,None,None,None,None,None,None,None,None,None,None,None,None,None
1.92,2016-01-02 09:18:54,2016-01-02 09:28:31,8.8,0,0,N,2022-04-16 02:00:00,2016-01-01 00:00:00,New York,None,-73.978019714355469,40.763908386230469,2,1,0.5,-73.9651814,40.7745779,0.3,8,0,-73.966743469238281,40.770591735839844,New York,1,2,NY CITY CENTRAL PARK NY US,WBAN:94728,1,FM-15,None,None,None,None,None,None,None,None,None,None,None,None,-9999,-9999,None,None,None,-9999,-9999,None,None,None,None,None,None,None,None,None,None,None,None,None,None,None,None,None,None,None,None,None,None,None,None,-73.9669,40.7889,6,None,VRB,30,-1.2,10.00,29.95,30.10,OVC:08 44,48,2,None,0.00,None,17,-8.3,35,1.7,30.12,39.6,2016-01-02 09:51,None,None,None,2140,1220,None,None,None,None,None,None,None,None,None,None,None,None,None,None,None,None
12.93,2016-01-02 09:18:54,2016-01-02 10:08:47,62.81,5.54,10.47,N,None,None,None,None,-74.000770568847656,40.762310028076172,1,2,0.5,None,None,0.3,46,0,-73.865028381347656,40.770580291748047,None,None,2,NY CITY CENTRAL PARK NY US,WBAN:94728,1,FM-15,None,None,None,None,None,None,None,None,None,None,None,None,-9999,-9999,None,None,None,-9999,-9999,None,None,None,None,None,None,None,None,None,None,None,None,None,None,None,None,None,None,None,None,None,None,None,None,-73.9669,40.7889,6,None,VRB,30,-1.2,10.00,29.95,30.10,OVC:08 44,48,2,None,0.00,None,17,-8.3,35,1.7,30.12,39.6,2016-01-02 09:51,None,None,None,2140,1220,None,None,None,None,None,None,None,None,None,None,None,None,None,None,None,None
.60,2016-01-02 09:18:55,2016-01-02 09:29:30,9.3,0,1,N,None,None,None,None,-73.996627807617188,40.715206146240234,1,1,0.5,None,None,0.3,7.5,0,-73.992767333984375,40.723545074462891,None,None,1,NY CITY CENTRAL PARK NY US,WBAN:94728,1,FM-15,None,None,None,None,None,None,None,None,None,None,None,None,-9999,-9999,None,None,None,-9999,-9999,None,None,None,None,None,None,None,None,None,None,None,None,None,None,None,None,None,None,None,None,None,None,None,None,-73.9669,40.7889,6,None,VRB,30,-1.2,10.00,29.95,30.10,OVC:08 44,48,2,None,0.00,None,17,-8.3,35,1.7,30.12,39.6,2016-01-02 09:51,None,None,None,2140,1220,None,None,None,None,None,None,None,None,None,None,None,None,None,None,None,None
.68,2016-01-02 09:18:55,2016-01-02 09:26:00,8.16,0,1.36,N,None | 2016-07-03 00:00:00,2016-01-01 00:00:00 | 2015-10-08 00:00:00,New York | New York,10019 | 10019,-73.989852905273438,40.756721496582031,1,5,0.5,-73.9803996 | -73.9844951,40.7656668 | 40.7632328,0.3,6,0,-73.982696533203125,40.760932922363281,New York | New York,1 | 2,2,NY CITY CENTRAL PARK NY US,WBAN:94728,1,FM-15,None,None,None,None,None,None,None,None,None,None,None,None,-9999,-9999,None,None,None,-9999,-9999,None,None,None,None,None,None,None,None,None,None,None,None,None,None,None,None,None,None,None,None,None,None,None,None,-73.9669,40.7889,6,None,VRB,30,-1.2,10.00,29.95,30.10,OVC:08 44,48,2,None,0.00,None,17,-8.3,35,1.7,30.12,39.6,2016-01-02 09:51,None,None,None,2140,1220,None,None,None,None,None,None,None,None,None,None,None,None,None,None,None,None
1.40,2016-01-02 09:18:56,2016-01-02 09:32:38,12.35,0,2.05,N,None,None,None,None,-73.994964599609375,40.733192443847656,1,1,0.5,None,None,0.3,9.5,0,-73.976837158203125,40.739227294921875,None,None,1,NY CITY CENTRAL PARK NY US,WBAN:94728,1,FM-15,None,None,None,None,None,None,None,None,None,None,None,None,-9999,-9999,None,None,None,-9999,-9999,None,None,None,None,None,None,None,None,None,None,None,None,None,None,None,None,None,None,None,None,None,None,None,None,-73.9669,40.7889,6,None,VRB,30,-1.2,10.00,29.95,30.10,OVC:08 44,48,2,None,0.00,None,17,-8.3,35,1.7,30.12,39.6,2016-01-02 09:51,None,None,None,2140,1220,None,None,None,None,None,None,None,None,None,None,None,None,None,None,None,None
1.90,2016-01-02 09:18:56,2016-01-02 09:38:43,16.3,0,2,N,None,None,None,None,-73.989410400390625,40.772724151611328,1,2,0.5,None,None,0.3,13.5,0,-73.979766845703125,40.75457763671875,None,None,1,NY CITY CENTRAL PARK NY US,WBAN:94728,1,FM-15,None,None,None,None,None,None,None,None,None,None,None,None,-9999,-9999,None,None,None,-9999,-9999,None,None,None,None,None,None,None,None,None,None,None,None,None,None,None,None,None,None,None,None,None,None,None,None,-73.9669,40.7889,6,None,VRB,30,-1.2,10.00,29.95,30.10,OVC:08 44,48,2,None,0.00,None,17,-8.3,35,1.7,30.12,39.6,2016-01-02 09:51,None,None,None,2140,1220,None,None,None,None,None,None,None,None,None,None,None,None,None,None,None,None
.50,2016-01-02 09:18:56,2016-01-02 09:20:37,5.16,0,0.86,N,2022-04-16 02:00:00 | None,2016-01-01 00:00:00 | 2016-01-01 00:00:00,New York | New York,None | 10028,-73.957893371582031,40.780517578125,1,1,0.5,-73.9651814 | -73.9634699,40.7745779 | 40.7792134,0.3,3.5,0,-73.963485717773438,40.777301788330078,New York | New York,1 | 2,2,NY CITY CENTRAL PARK NY US,WBAN:94728,1,FM-15,None,None,None,None,None,None,None,None,None,None,None,None,-9999,-9999,None,None,None,-9999,-9999,None,None,None,None,None,None,None,None,None,None,None,None,None,None,None,None,None,None,None,None,None,None,None,None,-73.9669,40.7889,6,None,VRB,30,-1.2,10.00,29.95,30.10,OVC:08 44,48,2,None,0.00,None,17,-8.3,35,1.7,30.12,39.6,2016-01-02 09:51,None,None,None,2140,1220,None,None,None,None,None,None,None,None,None,None,None,None,None,None,None,None
3.87,2016-01-02 09:18:56,2016-01-02 09:41:07,18.3,0,0,N,None | None | None,2016-01-01 00:00:00 | 2016-01-01 00:00:00 | 2016-01-01 02:00:00,New York | New York | New York,None | None | 10038,-73.990531921386719,40.756221771240234,2,1,0.5,-74.0064 | -74.0064 | -74.0081571,40.7142 | 40.7142 | 40.7090990,0.3,17.5,0,-74.01129150390625,40.715240478515625,New York | New York | New York,1 | 1 | 0,2,NY CITY CENTRAL PARK NY US,WBAN:94728,1,FM-15,None,None,None,None,None,None,None,None,None,None,None,None,-9999,-9999,None,None,None,-9999,-9999,None,None,None,None,None,None,None,None,None,None,None,None,None,None,None,None,None,None,None,None,None,None,None,None,-73.9669,40.7889,6,None,VRB,30,-1.2,10.00,29.95,30.10,OVC:08 44,48,2,None,0.00,None,17,-8.3,35,1.7,30.12,39.6,2016-01-02 09:51,None,None,None,2140,1220,None,None,None,None,None,None,None,None,None,None,None,None,None,None,None,None
1.00,2016-01-02 09:18:56,2016-01-02 09:27:11,7.3,0,0,N,None,None,None,None,-74.004753112792969,40.717178344726562,2,1,0.5,None,None,0.3,6.5,0,-74.007072448730469,40.729351043701172,None,None,2,NY CITY CENTRAL PARK NY US,WBAN:94728,1,FM-15,None,None,None,None,None,None,None,None,None,None,None,None,-9999,-9999,None,None,None,-9999,-9999,None,None,None,None,None,None,None,None,None,None,None,None,None,None,None,None,None,None,None,None,None,None,None,None,-73.9669,40.7889,6,None,VRB,30,-1.2,10.00,29.95,30.10,OVC:08 44,48,2,None,0.00,None,17,-8.3,35,1.7,30.12,39.6,2016-01-02 09:51,None,None,None,2140,1220,None,None,None,None,None,None,None,None,None,None,None,None,None,None,None,None
.90,2016-01-02 09:18:57,2016-01-02 09:29:23,8.8,0,0,N,2016-12-31 00:00:00,2016-01-01 00:00:00,New York,10022,-73.965232849121094,40.775123596191406,2,1,0.5,-73.968,40.759,0.3,8,0,-73.966201782226563,40.765018463134766,New York,2,1,NY CITY CENTRAL PARK NY US,WBAN:94728,1,FM-15,None,None,None,None,None,None,None,None,None,None,None,None,-9999,-9999,None,None,None,-9999,-9999,None,None,None,None,None,None,None,None,None,None,None,None,None,None,None,None,None,None,None,None,None,None,None,None,-73.9669,40.7889,6,None,VRB,30,-1.2,10.00,29.95,30.10,OVC:08 44,48,2,None,0.00,None,17,-8.3,35,1.7,30.12,39.6,2016-01-02 09:51,None,None,None,2140,1220,None,None,None,None,None,None,None,None,None,None,None,None,None,None,None,None
1.10,2016-01-02 09:18:57,2016-01-02 09:23:46,8.5,0,1.7,N,None,None,None,None,-73.978240966796875,40.773113250732422,1,1,0.5,None,None,0.3,6,0,-73.971488952636719,40.786403656005859,None,None,1,NY CITY CENTRAL PARK NY US,WBAN:94728,1,FM-15,None,None,None,None,None,None,None,None,None,None,None,None,-9999,-9999,None,None,None,-9999,-9999,None,None,None,None,None,None,None,None,None,None,None,None,None,None,None,None,None,None,None,None,None,None,None,None,-73.9669,40.7889,6,None,VRB,30,-1.2,10.00,29.95,30.10,OVC:08 44,48,2,None,0.00,None,17,-8.3,35,1.7,30.12,39.6,2016-01-02 09:51,None,None,None,2140,1220,None,None,None,None,None,None,None,None,None,None,None,None,None,None,None,None
1.10,2016-01-02 09:18:57,2016-01-02 09:31:48,12.85,0,2.55,N,None,None,None,None,-73.961441040039063,40.759956359863281,1,1,0.5,None,None,0.3,9.5,0,-73.971435546875,40.751991271972656,None,None,1,NY CITY CENTRAL PARK NY US,WBAN:94728,1,FM-15,None,None,None,None,None,None,None,None,None,None,None,None,-9999,-9999,None,None,None,-9999,-9999,None,None,None,None,None,None,None,None,None,None,None,None,None,None,None,None,None,None,None,None,None,None,None,None,-73.9669,40.7889,6,None,VRB,30,-1.2,10.00,29.95,30.10,OVC:08 44,48,2,None,0.00,None,17,-8.3,35,1.7,30.12,39.6,2016-01-02 09:51,None,None,None,2140,1220,None,None,None,None,None,None,None,None,None,None,None,None,None,None,None,None
1.20,2016-01-02 09:18:57,2016-01-02 09:30:24,9.8,0,0,N,None | 2016-07-03 00:00:00,2016-01-01 00:00:00 | 2015-10-08 00:00:00,New York | New York,10019 | 10019,-73.982315063476563,40.747539520263672,2,1,0.5,-73.9803996 | -73.9844951,40.7656668 | 40.7632328,0.3,9,0,-73.979393005371094,40.761451721191406,New York | New York,1 | 2,1,NY CITY CENTRAL PARK NY US,WBAN:94728,1,FM-15,None,None,None,None,None,None,None,None,None,None,None,None,-9999,-9999,None,None,None,-9999,-9999,None,None,None,None,None,None,None,None,None,None,None,None,None,None,None,None,None,None,None,None,None,None,None,None,-73.9669,40.7889,6,None,VRB,30,-1.2,10.00,29.95,30.10,OVC:08 44,48,2,None,0.00,None,17,-8.3,35,1.7,30.12,39.6,2016-01-02 09:51,None,None,None,2140,1220,None,None,None,None,None,None,None,None,None,None,None,None,None,None,None,None
1.52,2016-01-02 09:18:57,2016-01-02 09:32:22,10.8,0,0,N,None,None,None,None,-73.960563659667969,40.766029357910156,2,1,0.5,None,None,0.3,10,0,-73.974372863769531,40.746711730957031,None,None,2,NY CITY CENTRAL PARK NY US,WBAN:94728,1,FM-15,None,None,None,None,None,None,None,None,None,None,None,None,-9999,-9999,None,None,None,-9999,-9999,None,None,None,None,None,None,None,None,None,None,None,None,None,None,None,None,None,None,None,None,None,None,None,None,-73.9669,40.7889,6,None,VRB,30,-1.2,10.00,29.95,30.10,OVC:08 44,48,2,None,0.00,None,17,-8.3,35,1.7,30.12,39.6,2016-01-02 09:51,None,None,None,2140,1220,None,None,None,None,None,None,None,None,None,None,None,None,None,None,None,None
1.33,2016-01-02 09:18:57,2016-01-02 09:24:45,7.3,0,0,N,None,2016-01-01 09:00:00,New York,10003,-73.990127563476563,40.719329833984375,2,1,0.5,-73.9870210,40.7308580,0.3,6.5,0,-73.980987548828125,40.733951568603516,New York,0,2,NY CITY CENTRAL PARK NY US,WBAN:94728,1,FM-15,None,None,None,None,None,None,None,None,None,None,None,None,-9999,-9999,None,None,None,-9999,-9999,None,None,None,None,None,None,None,None,None,None,None,None,None,None,None,None,None,None,None,None,None,None,None,None,-73.9669,40.7889,6,None,VRB,30,-1.2,10.00,29.95,30.10,OVC:08 44,48,2,None,0.00,None,17,-8.3,35,1.7,30.12,39.6,2016-01-02 09:51,None,None,None,2140,1220,None,None,None,None,None,None,None,None,None,None,None,None,None,None,None,None
2.80,2016-01-02 09:18:57,2016-01-02 09:41:34,19.56,0,3.26,N,None,None,None,None,-73.970626831054687,40.788330078125,1,6,0.5,None,None,0.3,15.5,0,-73.977447509765625,40.756729125976563,None,None,2,NY CITY CENTRAL PARK NY US,WBAN:94728,1,FM-15,None,None,None,None,None,None,None,None,None,None,None,None,-9999,-9999,None,None,None,-9999,-9999,None,None,None,None,None,None,None,None,None,None,None,None,None,None,None,None,None,None,None,None,None,None,None,None,-73.9669,40.7889,6,None,VRB,30,-1.2,10.00,29.95,30.10,OVC:08 44,48,2,None,0.00,None,17,-8.3,35,1.7,30.12,39.6,2016-01-02 09:51,None,None,None,2140,1220,None,None,None,None,None,None,None,None,None,None,None,None,None,None,None,None
1.46,2016-01-02 09:18:57,2016-01-02 09:36:37,13.8,0,1,N,2016-12-31 00:00:00,2016-01-01 00:00:00,New York,10022,-73.975837707519531,40.740680694580078,1,1,0.5,-73.968,40.759,0.3,12,0,-73.969192504882813,40.7576904296875,New York,2,2,NY CITY CENTRAL PARK NY US,WBAN:94728,1,FM-15,None,None,None,None,None,None,None,None,None,None,None,None,-9999,-9999,None,None,None,-9999,-9999,None,None,None,None,None,None,None,None,None,None,None,None,None,None,None,None,None,None,None,None,None,None,None,None,-73.9669,40.7889,6,None,VRB,30,-1.2,10.00,29.95,30.10,OVC:08 44,48,2,None,0.00,None,17,-8.3,35,1.7,30.12,39.6,2016-01-02 09:51,None,None,None,2140,1220,None,None,None,None,None,None,None,None,None,None,None,None,None,None,None,None
.70,2016-01-02 09:18:58,2016-01-02 09:30:45,11.15,0,1.85,N,None,None,None,None,-73.975028991699219,40.741847991943359,1,1,0.5,None,None,0.3,8.5,0,-73.973541259765625,40.750091552734375,None,None,1,NY CITY CENTRAL PARK NY US,WBAN:94728,1,FM-15,None,None,None,None,None,None,None,None,None,None,None,None,-9999,-9999,None,None,None,-9999,-9999,None,None,None,None,None,None,None,None,None,None,None,None,None,None,None,None,None,None,None,None,None,None,None,None,-73.9669,40.7889,6,None,VRB,30,-1.2,10.00,29.95,30.10,OVC:08 44,48,2,None,0.00,None,17,-8.3,35,1.7,30.12,39.6,2016-01-02 09:51,None,None,None,2140,1220,None,None,None,None,None,None,None,None,None,None,None,None,None,None,None,None
2.00,2016-01-02 09:18:58,2016-01-02 09:37:22,16.56,0,2.76,N,None | None | None,2016-01-01 00:00:00 | 2016-01-01 00:00:00 | 2016-01-01 02:00:00,New York | New York | New York,None | None | 10038,-73.990875244140625,40.734626770019531,1,1,0.5,-74.0064 | -74.0064 | -74.0081571,40.7142 | 40.7142 | 40.7090990,0.3,13,0,-74.011634826660156,40.714996337890625,New York | New York | New York,1 | 1 | 0,2,NY CITY CENTRAL PARK NY US,WBAN:94728,1,FM-15,None,None,None,None,None,None,None,None,None,None,None,None,-9999,-9999,None,None,None,-9999,-9999,None,None,None,None,None,None,None,None,None,None,None,None,None,None,None,None,None,None,None,None,None,None,None,None,-73.9669,40.7889,6,None,VRB,30,-1.2,10.00,29.95,30.10,OVC:08 44,48,2,None,0.00,None,17,-8.3,35,1.7,30.12,39.6,2016-01-02 09:51,None,None,None,2140,1220,None,None,None,None,None,None,None,None,None,None,None,None,None,None,None,None
.89,2016-01-02 09:18:58,2016-01-02 09:32:53,13.39,0,3.09,N,None,None,None,None,-73.98388671875,40.744289398193359,1,1,0.5,None,None,0.3,9.5,0,-73.986618041992188,40.753139495849609,None,None,2,NY CITY CENTRAL PARK NY US,WBAN:94728,1,FM-15,None,None,None,None,None,None,None,None,None,None,None,None,-9999,-9999,None,None,None,-9999,-9999,None,None,None,None,None,None,None,None,None,None,None,None,None,None,None,None,None,None,None,None,None,None,None,None,-73.9669,40.7889,6,None,VRB,30,-1.2,10.00,29.95,30.10,OVC:08 44,48,2,None,0.00,None,17,-8.3,35,1.7,30.12,39.6,2016-01-02 09:51,None,None,None,2140,1220,None,None,None,None,None,None,None,None,None,None,None,None,None,None,None,None
2.75,2016-01-02 09:18:59,2016-01-02 09:45:19,21.36,0,3.56,N,None,None,None,None,-73.980430603027344,40.782371520996094,1,1,0.5,None,None,0.3,17,0,-73.978141784667969,40.753768920898438,None,None,2,NY CITY CENTRAL PARK NY US,WBAN:94728,1,FM-15,None,None,None,None,None,None,None,None,None,None,None,None,-9999,-9999,None,None,None,-9999,-9999,None,None,None,None,None,None,None,None,None,None,None,None,None,None,None,None,None,None,None,None,None,None,None,None,-73.9669,40.7889,6,None,VRB,30,-1.2,10.00,29.95,30.10,OVC:08 44,48,2,None,0.00,None,17,-8.3,35,1.7,30.12,39.6,2016-01-02 09:51,None,None,None,2140,1220,None,None,None,None,None,None,None,None,None,None,None,None,None,None,None,None
.45,2016-01-02 09:18:59,2016-01-02 09:29:55,10.56,0,1.76,N,2016-12-31 00:00:00,2016-01-01 00:00:00,New York,10022,-73.965766906738281,40.754417419433594,1,1,0.5,-73.968,40.759,0.3,8,0,-73.968009948730469,40.758823394775391,New York,2,2,NY CITY CENTRAL PARK NY US,WBAN:94728,1,FM-15,None,None,None,None,None,None,None,None,None,None,None,None,-9999,-9999,None,None,None,-9999,-9999,None,None,None,None,None,None,None,None,None,None,None,None,None,None,None,None,None,None,None,None,None,None,None,None,-73.9669,40.7889,6,None,VRB,30,-1.2,10.00,29.95,30.10,OVC:08 44,48,2,None,0.00,None,17,-8.3,35,1.7,30.12,39.6,2016-01-02 09:51,None,None,None,2140,1220,None,None,None,None,None,None,None,None,None,None,None,None,None,None,None,None
1.10,2016-01-02 09:19:00,2016-01-02 09:27:37,9.35,0,1.55,N,2016-12-31 00:00:00,2016-01-01 00:00:00,New York,10022,-73.95697021484375,40.770603179931641,1,1,0.5,-73.968,40.759,0.3,7,0,-73.969940185546875,40.76275634765625,New York,2,1,NY CITY CENTRAL PARK NY US,WBAN:94728,1,FM-15,None,None,None,None,None,None,None,None,None,None,None,None,-9999,-9999,None,None,None,-9999,-9999,None,None,None,None,None,None,None,None,None,None,None,None,None,None,None,None,None,None,None,None,None,None,None,None,-73.9669,40.7889,6,None,VRB,30,-1.2,10.00,29.95,30.10,OVC:08 44,48,2,None,0.00,None,17,-8.3,35,1.7,30.12,39.6,2016-01-02 09:51,None,None,None,2140,1220,None,None,None,None,None,None,None,None,None,None,None,None,None,None,None,None
2.10,2016-01-02 09:19:00,2016-01-02 09:40:12,17.75,0,2.95,N,None,None,None,None,-73.95928955078125,40.769149780273437,1,1,0.5,None,None,0.3,14,0,-73.979408264160156,40.745418548583984,None,None,1,NY CITY CENTRAL PARK NY US,WBAN:94728,1,FM-15,None,None,None,None,None,None,None,None,None,None,None,None,-9999,-9999,None,None,None,-9999,-9999,None,None,None,None,None,None,None,None,None,None,None,None,None,None,None,None,None,None,None,None,None,None,None,None,-73.9669,40.7889,6,None,VRB,30,-1.2,10.00,29.95,30.10,OVC:08 44,48,2,None,0.00,None,17,-8.3,35,1.7,30.12,39.6,2016-01-02 09:51,None,None,None,2140,1220,None,None,None,None,None,None,None,None,None,None,None,None,None,None,None,None
4.95,2016-01-02 09:19:00,2016-01-02 09:51:54,24.8,0,0,N,None,None,None,None,-73.945724487304687,40.781906127929688,2,6,0.5,None,None,0.3,24,0,-73.990325927734375,40.740230560302734,None,None,2,NY CITY CENTRAL PARK NY US,WBAN:94728,1,FM-15,None,None,None,None,None,None,None,None,None,None,None,None,-9999,-9999,None,None,None,-9999,-9999,None,None,None,None,None,None,None,None,None,None,None,None,None,None,None,None,None,None,None,None,None,None,None,None,-73.9669,40.7889,6,None,VRB,30,-1.2,10.00,29.95,30.10,OVC:08 44,48,2,None,0.00,None,17,-8.3,35,1.7,30.12,39.6,2016-01-02 09:51,None,None,None,2140,1220,None,None,None,None,None,None,None,None,None,None,None,None,None,None,None,None
.37,2016-01-02 09:19:00,2016-01-02 09:22:59,5.8,0,0.5,N,None,None,None,None,-73.999443054199219,40.733737945556641,1,1,0.5,None,None,0.3,4.5,0,-73.998329162597656,40.738037109375,None,None,2,NY CITY CENTRAL PARK NY US,WBAN:94728,1,FM-15,None,None,None,None,None,None,None,None,None,None,None,None,-9999,-9999,None,None,None,-9999,-9999,None,None,None,None,None,None,None,None,None,None,None,None,None,None,None,None,None,None,None,None,None,None,None,None,-73.9669,40.7889,6,None,VRB,30,-1.2,10.00,29.95,30.10,OVC:08 44,48,2,None,0.00,None,17,-8.3,35,1.7,30.12,39.6,2016-01-02 09:51,None,None,None,2140,1220,None,None,None,None,None,None,None,None,None,None,None,None,None,None,None,None
.51,2016-01-02 09:19:00,2016-01-02 09:25:17,7.56,0,1.26,N,None,2016-01-01 09:00:00,New York,10003,-73.985221862792969,40.731868743896484,1,1,0.5,-73.9870210,40.7308580,0.3,5.5,0,-73.993659973144531,40.735126495361328,New York,0,2,NY CITY CENTRAL PARK NY US,WBAN:94728,1,FM-15,None,None,None,None,None,None,None,None,None,None,None,None,-9999,-9999,None,None,None,-9999,-9999,None,None,None,None,None,None,None,None,None,None,None,None,None,None,None,None,None,None,None,None,None,None,None,None,-73.9669,40.7889,6,None,VRB,30,-1.2,10.00,29.95,30.10,OVC:08 44,48,2,None,0.00,None,17,-8.3,35,1.7,30.12,39.6,2016-01-02 09:51,None,None,None,2140,1220,None,None,None,None,None,None,None,None,None,None,None,None,None,None,None,None
.50,2016-01-02 09:19:01,2016-01-02 09:20:41,5.15,0,0.85,N,None,None,None,None,-73.978431701660156,40.772628784179688,1,1,0.5,None,None,0.3,3.5,0,-73.97406005859375,40.778583526611328,None,None,1,NY CITY CENTRAL PARK NY US,WBAN:94728,1,FM-15,None,None,None,None,None,None,None,None,None,None,None,None,-9999,-9999,None,None,None,-9999,-9999,None,None,None,None,None,None,None,None,None,None,None,None,None,None,None,None,None,None,None,None,None,None,None,None,-73.9669,40.7889,6,None,VRB,30,-1.2,10.00,29.95,30.10,OVC:08 44,48,2,None,0.00,None,17,-8.3,35,1.7,30.12,39.6,2016-01-02 09:51,None,None,None,2140,1220,None,None,None,None,None,None,None,None,None,None,None,None,None,None,None,None
2.40,2016-01-02 09:19:01,2016-01-02 09:39:47,16.8,0,2,N,2016-12-31 00:00:00,2016-01-01 00:00:00,New York,10022,-73.950027465820312,40.784507751464844,1,1,0.5,-73.968,40.759,0.3,14,0,-73.973381042480469,40.757556915283203,New York,2,1,NY CITY CENTRAL PARK NY US,WBAN:94728,1,FM-15,None,None,None,None,None,None,None,None,None,None,None,None,-9999,-9999,None,None,None,-9999,-9999,None,None,None,None,None,None,None,None,None,None,None,None,None,None,None,None,None,None,None,None,None,None,None,None,-73.9669,40.7889,6,None,VRB,30,-1.2,10.00,29.95,30.10,OVC:08 44,48,2,None,0.00,None,17,-8.3,35,1.7,30.12,39.6,2016-01-02 09:51,None,None,None,2140,1220,None,None,None,None,None,None,None,None,None,None,None,None,None,None,None,None
1.90,2016-01-02 09:19:01,2016-01-02 09:30:51,11.3,0,1,N,None,None,None,None,-73.981460571289063,40.764274597167969,1,1,0.5,None,None,0.3,9.5,0,-73.980842590332031,40.745086669921875,None,None,1,NY CITY CENTRAL PARK NY US,WBAN:94728,1,FM-15,None,None,None,None,None,None,None,None,None,None,None,None,-9999,-9999,None,None,None,-9999,-9999,None,None,None,None,None,None,None,None,None,None,None,None,None,None,None,None,None,None,None,None,None,None,None,None,-73.9669,40.7889,6,None,VRB,30,-1.2,10.00,29.95,30.10,OVC:08 44,48,2,None,0.00,None,17,-8.3,35,1.7,30.12,39.6,2016-01-02 09:51,None,None,None,2140,1220,None,None,None,None,None,None,None,None,None,None,None,None,None,None,None,None
1.30,2016-01-02 09:19:01,2016-01-02 09:30:59,9.8,0,0,N,None,None,None,None,-73.986137390136719,40.762142181396484,2,2,0.5,None,None,0.3,9,0,-73.974143981933594,40.750617980957031,None,None,1,NY CITY CENTRAL PARK NY US,WBAN:94728,1,FM-15,None,None,None,None,None,None,None,None,None,None,None,None,-9999,-9999,None,None,None,-9999,-9999,None,None,None,None,None,None,None,None,None,None,None,None,None,None,None,None,None,None,None,None,None,None,None,None,-73.9669,40.7889,6,None,VRB,30,-1.2,10.00,29.95,30.10,OVC:08 44,48,2,None,0.00,None,17,-8.3,35,1.7,30.12,39.6,2016-01-02 09:51,None,None,None,2140,1220,None,None,None,None,None,None,None,None,None,None,None,None,None,None,None,None
1.83,2016-01-02 09:19:01,2016-01-02 09:31:34,11.3,0,1,N,None,None,None,None,-73.981002807617187,40.76007080078125,1,5,0.5,None,None,0.3,9.5,0,-73.991912841796875,40.737918853759766,None,None,2,NY CITY CENTRAL PARK NY US,WBAN:94728,1,FM-15,None,None,None,None,None,None,None,None,None,None,None,None,-9999,-9999,None,None,None,-9999,-9999,None,None,None,None,None,None,None,None,None,None,None,None,None,None,None,None,None,None,None,None,None,None,None,None,-73.9669,40.7889,6,None,VRB,30,-1.2,10.00,29.95,30.10,OVC:08 44,48,2,None,0.00,None,17,-8.3,35,1.7,30.12,39.6,2016-01-02 09:51,None,None,None,2140,1220,None,None,None,None,None,None,None,None,None,None,None,None,None,None,None,None
.50,2016-01-02 09:19:02,2016-01-02 09:22:07,5.75,0,0.95,N,None | None | None,2016-01-01 00:00:00 | 2016-01-01 00:00:00 | 2016-01-01 20:00:00,New York | New York | New York,None | None | 10013,-74.016403198242187,40.714752197265625,1,1,0.5,-74.0064 | -74.0064 | -74.0050159,40.7142 | 40.7142 | 40.7208412,0.3,4,0,-74.00958251953125,40.718776702880859,New York | New York | New York,1 | 1 | 0,1,NY CITY CENTRAL PARK NY US,WBAN:94728,1,FM-15,None,None,None,None,None,None,None,None,None,None,None,None,-9999,-9999,None,None,None,-9999,-9999,None,None,None,None,None,None,None,None,None,None,None,None,None,None,None,None,None,None,None,None,None,None,None,None,-73.9669,40.7889,6,None,VRB,30,-1.2,10.00,29.95,30.10,OVC:08 44,48,2,None,0.00,None,17,-8.3,35,1.7,30.12,39.6,2016-01-02 09:51,None,None,None,2140,1220,None,None,None,None,None,None,None,None,None,None,None,None,None,None,None,None
2.30,2016-01-02 09:19:02,2016-01-02 09:47:13,22.85,0,4.55,N,None,None,None,None,-73.963623046875,40.758693695068359,1,1,0.5,None,None,0.3,17.5,0,-73.991561889648438,40.749916076660156,None,None,1,NY CITY CENTRAL PARK NY US,WBAN:94728,1,FM-15,None,None,None,None,None,None,None,None,None,None,None,None,-9999,-9999,None,None,None,-9999,-9999,None,None,None,None,None,None,None,None,None,None,None,None,None,None,None,None,None,None,None,None,None,None,None,None,-73.9669,40.7889,6,None,VRB,30,-1.2,10.00,29.95,30.10,OVC:08 44,48,2,None,0.00,None,17,-8.3,35,1.7,30.12,39.6,2016-01-02 09:51,None,None,None,2140,1220,None,None,None,None,None,None,None,None,None,None,None,None,None,None,None,None
1.70,2016-01-02 09:19:02,2016-01-02 09:32:20,10.8,0,0,N,None,None,None,None,-73.975265502929688,40.751056671142578,2,1,0.5,None,None,0.3,10,0,-73.955780029296875,40.765964508056641,None,None,1,NY CITY CENTRAL PARK NY US,WBAN:94728,1,FM-15,None,None,None,None,None,None,None,None,None,None,None,None,-9999,-9999,None,None,None,-9999,-9999,None,None,None,None,None,None,None,None,None,None,None,None,None,None,None,None,None,None,None,None,None,None,None,None,-73.9669,40.7889,6,None,VRB,30,-1.2,10.00,29.95,30.10,OVC:08 44,48,2,None,0.00,None,17,-8.3,35,1.7,30.12,39.6,2016-01-02 09:51,None,None,None,2140,1220,None,None,None,None,None,None,None,None,None,None,None,None,None,None,None,None
8.60,2016-01-02 09:19:02,2016-01-02 09:50:34,44.2,5.54,7.36,N,None,None,None,None,-73.870933532714844,40.773757934570313,1,1,0.5,None,None,0.3,30.5,0,-73.982757568359375,40.742805480957031,None,None,1,NY CITY CENTRAL PARK NY US,WBAN:94728,1,FM-15,None,None,None,None,None,None,None,None,None,None,None,None,-9999,-9999,None,None,None,-9999,-9999,None,None,None,None,None,None,None,None,None,None,None,None,None,None,None,None,None,None,None,None,None,None,None,None,-73.9669,40.7889,6,None,VRB,30,-1.2,10.00,29.95,30.10,OVC:08 44,48,2,None,0.00,None,17,-8.3,35,1.7,30.12,39.6,2016-01-02 09:51,None,None,None,2140,1220,None,None,None,None,None,None,None,None,None,None,None,None,None,None,None,None
.72,2016-01-02 09:19:02,2016-01-02 09:22:25,5.3,0,0,N,None,2016-01-01 00:00:00,New York,10028,-73.96221923828125,40.767578125,2,2,0.5,-73.9634699,40.7792134,0.3,4.5,0,-73.955558776855469,40.776950836181641,New York,2,2,NY CITY CENTRAL PARK NY US,WBAN:94728,1,FM-15,None,None,None,None,None,None,None,None,None,None,None,None,-9999,-9999,None,None,None,-9999,-9999,None,None,None,None,None,None,None,None,None,None,None,None,None,None,None,None,None,None,None,None,None,None,None,None,-73.9669,40.7889,6,None,VRB,30,-1.2,10.00,29.95,30.10,OVC:08 44,48,2,None,0.00,None,17,-8.3,35,1.7,30.12,39.6,2016-01-02 09:51,None,None,None,2140,1220,None,None,None,None,None,None,None,None,None,None,None,None,None,None,None,None
.86,2016-01-02 09:19:02,2016-01-02 09:26:00,6.8,0,0,N,None | 2016-07-03 00:00:00,2016-01-01 00:00:00 | 2015-10-08 00:00:00,New York | New York,10019 | 10019,-73.972389221191406,40.756881713867188,2,1,0.5,-73.9803996 | -73.9844951,40.7656668 | 40.7632328,0.3,6,0,-73.983619689941406,40.762191772460937,New York | New York,1 | 2,2,NY CITY CENTRAL PARK NY US,WBAN:94728,1,FM-15,None,None,None,None,None,None,None,None,None,None,None,None,-9999,-9999,None,None,None,-9999,-9999,None,None,None,None,None,None,None,None,None,None,None,None,None,None,None,None,None,None,None,None,None,None,None,None,-73.9669,40.7889,6,None,VRB,30,-1.2,10.00,29.95,30.10,OVC:08 44,48,2,None,0.00,None,17,-8.3,35,1.7,30.12,39.6,2016-01-02 09:51,None,None,None,2140,1220,None,None,None,None,None,None,None,None,None,None,None,None,None,None,None,None
.00,2016-01-02 09:19:02,2016-01-02 09:19:06,65.8,0,0,N,None,2016-01-01 02:00:00,New York,10038,-74.005180358886719,40.706001281738281,2,1,0.5,-74.0081571,40.7090990,0.3,65,0,-74.005180358886719,40.705986022949219,New York,0,2,NY CITY CENTRAL PARK NY US,WBAN:94728,5,FM-15,None,None,None,None,None,None,None,None,None,None,None,None,-9999,-9999,None,None,None,-9999,-9999,None,None,None,None,None,None,None,None,None,None,None,None,None,None,None,None,None,None,None,None,None,None,None,None,-73.9669,40.7889,6,None,VRB,30,-1.2,10.00,29.95,30.10,OVC:08 44,48,2,None,0.00,None,17,-8.3,35,1.7,30.12,39.6,2016-01-02 09:51,None,None,None,2140,1220,None,None,None,None,None,None,None,None,None,None,None,None,None,None,None,None
1.72,2016-01-02 09:19:02,2016-01-02 09:36:21,15.36,0,2.56,N,2016-12-31 00:00:00,2016-01-01 00:00:00,New York,10022,-73.945953369140625,40.775455474853516,1,6,0.5,-73.968,40.759,0.3,12,0,-73.966453552246094,40.764575958251953,New York,2,2,NY CITY CENTRAL PARK NY US,WBAN:94728,1,FM-15,None,None,None,None,None,None,None,None,None,None,None,None,-9999,-9999,None,None,None,-9999,-9999,None,None,None,None,None,None,None,None,None,None,None,None,None,None,None,None,None,None,None,None,None,None,None,None,-73.9669,40.7889,6,None,VRB,30,-1.2,10.00,29.95,30.10,OVC:08 44,48,2,None,0.00,None,17,-8.3,35,1.7,30.12,39.6,2016-01-02 09:51,None,None,None,2140,1220,None,None,None,None,None,None,None,None,None,None,None,None,None,None,None,None
2.53,2016-01-02 09:19:02,2016-01-02 09:39:03,14.8,0,0,N,None,None,None,None,-73.99066162109375,40.756080627441406,2,2,0.5,None,None,0.3,14,0,-73.958396911621094,40.764652252197266,None,None,2,NY CITY CENTRAL PARK NY US,WBAN:94728,1,FM-15,None,None,None,None,None,None,None,None,None,None,None,None,-9999,-9999,None,None,None,-9999,-9999,None,None,None,None,None,None,None,None,None,None,None,None,None,None,None,None,None,None,None,None,None,None,None,None,-73.9669,40.7889,6,None,VRB,30,-1.2,10.00,29.95,30.10,OVC:08 44,48,2,None,0.00,None,17,-8.3,35,1.7,30.12,39.6,2016-01-02 09:51,None,None,None,2140,1220,None,None,None,None,None,None,None,None,None,None,None,None,None,None,None,None
.54,2016-01-02 09:19:02,2016-01-02 09:23:48,6.96,0,1.16,N,2016-12-31 00:00:00,2016-01-01 00:00:00,New York,10022,-73.96630859375,40.765422821044922,1,1,0.5,-73.968,40.759,0.3,5,0,-73.970390319824219,40.758312225341797,New York,2,2,NY CITY CENTRAL PARK NY US,WBAN:94728,1,FM-15,None,None,None,None,None,None,None,None,None,None,None,None,-9999,-9999,None,None,None,-9999,-9999,None,None,None,None,None,None,None,None,None,None,None,None,None,None,None,None,None,None,None,None,None,None,None,None,-73.9669,40.7889,6,None,VRB,30,-1.2,10.00,29.95,30.10,OVC:08 44,48,2,None,0.00,None,17,-8.3,35,1.7,30.12,39.6,2016-01-02 09:51,None,None,None,2140,1220,None,None,None,None,None,None,None,None,None,None,None,None,None,None,None,None
2.08,2016-01-02 09:19:02,2016-01-02 09:38:55,17.16,0,2.86,N,None | 2016-07-03 00:00:00,2016-01-01 00:00:00 | 2015-10-08 00:00:00,New York | New York,10019 | 10019,-73.953681945800781,40.766696929931641,1,1,0.5,-73.9803996 | -73.9844951,40.7656668 | 40.7632328,0.3,13.5,0,-73.981796264648437,40.763141632080078,New York | New York,1 | 2,2,NY CITY CENTRAL PARK NY US,WBAN:94728,1,FM-15,None,None,None,None,None,None,None,None,None,None,None,None,-9999,-9999,None,None,None,-9999,-9999,None,None,None,None,None,None,None,None,None,None,None,None,None,None,None,None,None,None,None,None,None,None,None,None,-73.9669,40.7889,6,None,VRB,30,-1.2,10.00,29.95,30.10,OVC:08 44,48,2,None,0.00,None,17,-8.3,35,1.7,30.12,39.6,2016-01-02 09:51,None,None,None,2140,1220,None,None,None,None,None,None,None,None,None,None,None,None,None,None,None,None
.82,2016-01-02 09:19:02,2016-01-02 09:26:20,7.3,0,0,N,None,None,None,None,-73.979034423828125,40.750995635986328,2,1,0.5,None,None,0.3,6.5,0,-73.985771179199219,40.740734100341797,None,None,2,NY CITY CENTRAL PARK NY US,WBAN:94728,1,FM-15,None,None,None,None,None,None,None,None,None,None,None,None,-9999,-9999,None,None,None,-9999,-9999,None,None,None,None,None,None,None,None,None,None,None,None,None,None,None,None,None,None,None,None,None,None,None,None,-73.9669,40.7889,6,None,VRB,30,-1.2,10.00,29.95,30.10,OVC:08 44,48,2,None,0.00,None,17,-8.3,35,1.7,30.12,39.6,2016-01-02 09:51,None,None,None,2140,1220,None,None,None,None,None,None,None,None,None,None,None,None,None,None,None,None
2.17,2016-01-02 09:19:02,2016-01-02 09:37:52,14.3,0,0,N,None | 2016-12-31 00:00:00,2016-01-01 00:00:00 | 2016-01-01 00:00:00,New York | New York,10019 | 10022,-73.9703369140625,40.783821105957031,2,1,0.5,-73.9803996 | -73.968,40.7656668 | 40.759,0.3,13.5,0,-73.975364685058594,40.761039733886719,New York | New York,1 | 2,2,NY CITY CENTRAL PARK NY US,WBAN:94728,1,FM-15,None,None,None,None,None,None,None,None,None,None,None,None,-9999,-9999,None,None,None,-9999,-9999,None,None,None,None,None,None,None,None,None,None,None,None,None,None,None,None,None,None,None,None,None,None,None,None,-73.9669,40.7889,6,None,VRB,30,-1.2,10.00,29.95,30.10,OVC:08 44,48,2,None,0.00,None,17,-8.3,35,1.7,30.12,39.6,2016-01-02 09:51,None,None,None,2140,1220,None,None,None,None,None,None,None,None,None,None,None,None,None,None,None,None
.70,2016-01-02 09:19:03,2016-01-02 09:22:20,5.3,0,0,N,None,None,None,None,-74.008804321289063,40.719463348388672,2,1,0.5,None,None,0.3,4.5,0,-74.007095336914063,40.728633880615234,None,None,1,NY CITY CENTRAL PARK NY US,WBAN:94728,1,FM-15,None,None,None,None,None,None,None,None,None,None,None,None,-9999,-9999,None,None,None,-9999,-9999,None,None,None,None,None,None,None,None,None,None,None,None,None,None,None,None,None,None,None,None,None,None,None,None,-73.9669,40.7889,6,None,VRB,30,-1.2,10.00,29.95,30.10,OVC:08 44,48,2,None,0.00,None,17,-8.3,35,1.7,30.12,39.6,2016-01-02 09:51,None,None,None,2140,1220,None,None,None,None,None,None,None,None,None,None,None,None,None,None,None,None
2.00,2016-01-02 09:19:03,2016-01-02 09:25:55,9.3,0,0,N,None,None,None,None,-73.872802734375,40.773834228515625,2,1,0.5,None,None,0.3,8.5,0,-73.906646728515625,40.770034790039063,None,None,1,NY CITY CENTRAL PARK NY US,WBAN:94728,1,FM-15,None,None,None,None,None,None,None,None,None,None,None,None,-9999,-9999,None,None,None,-9999,-9999,None,None,None,None,None,None,None,None,None,None,None,None,None,None,None,None,None,None,None,None,None,None,None,None,-73.9669,40.7889,6,None,VRB,30,-1.2,10.00,29.95,30.10,OVC:08 44,48,2,None,0.00,None,17,-8.3,35,1.7,30.12,39.6,2016-01-02 09:51,None,None,None,2140,1220,None,None,None,None,None,None,None,None,None,None,None,None,None,None,None,None
1.60,2016-01-02 09:19:03,2016-01-02 09:29:44,11.75,0,1.95,N,None,None,None,None,-73.967666625976562,40.802829742431641,1,1,0.5,None,None,0.3,9,0,-73.981246948242188,40.781215667724609,None,None,1,NY CITY CENTRAL PARK NY US,WBAN:94728,1,FM-15,None,None,None,None,None,None,None,None,None,None,None,None,-9999,-9999,None,None,None,-9999,-9999,None,None,None,None,None,None,None,None,None,None,None,None,None,None,None,None,None,None,None,None,None,None,None,None,-73.9669,40.7889,6,None,VRB,30,-1.2,10.00,29.95,30.10,OVC:08 44,48,2,None,0.00,None,17,-8.3,35,1.7,30.12,39.6,2016-01-02 09:51,None,None,None,2140,1220,None,None,None,None,None,None,None,None,None,None,None,None,None,None,None,None
1.70,2016-01-02 09:19:03,2016-01-02 09:29:34,12.35,0,2.05,N,None,None,None,None,-74.006233215332031,40.748584747314453,1,1,0.5,None,None,0.3,9.5,0,-74.005035400390625,40.728992462158203,None,None,1,NY CITY CENTRAL PARK NY US,WBAN:94728,1,FM-15,None,None,None,None,None,None,None,None,None,None,None,None,-9999,-9999,None,None,None,-9999,-9999,None,None,None,None,None,None,None,None,None,None,None,None,None,None,None,None,None,None,None,None,None,None,None,None,-73.9669,40.7889,6,None,VRB,30,-1.2,10.00,29.95,30.10,OVC:08 44,48,2,None,0.00,None,17,-8.3,35,1.7,30.12,39.6,2016-01-02 09:51,None,None,None,2140,1220,None,None,None,None,None,None,None,None,None,None,None,None,None,None,None,None
4.76,2016-01-02 09:19:03,2016-01-02 09:35:13,17.8,0,0,N,None,2016-01-01 02:00:00,New York,10038,-73.970069885253906,40.752681732177734,2,2,0.5,-74.0081571,40.7090990,0.3,17,0,-74.005950927734375,40.706108093261719,New York,0,2,NY CITY CENTRAL PARK NY US,WBAN:94728,1,FM-15,None,None,None,None,None,None,None,None,None,None,None,None,-9999,-9999,None,None,None,-9999,-9999,None,None,None,None,None,None,None,None,None,None,None,None,None,None,None,None,None,None,None,None,None,None,None,None,-73.9669,40.7889,6,None,VRB,30,-1.2,10.00,29.95,30.10,OVC:08 44,48,2,None,0.00,None,17,-8.3,35,1.7,30.12,39.6,2016-01-02 09:51,None,None,None,2140,1220,None,None,None,None,None,None,None,None,None,None,None,None,None,None,None,None
4.18,2016-01-02 09:19:03,2016-01-02 09:35:13,16.3,0,0,N,None,None,None,None,-73.967460632324219,40.803230285644531,2,4,0.5,None,None,0.3,15.5,0,-74.00396728515625,40.7589111328125,None,None,2,NY CITY CENTRAL PARK NY US,WBAN:94728,1,FM-15,None,None,None,None,None,None,None,None,None,None,None,None,-9999,-9999,None,None,None,-9999,-9999,None,None,None,None,None,None,None,None,None,None,None,None,None,None,None,None,None,None,None,None,None,None,None,None,-73.9669,40.7889,6,None,VRB,30,-1.2,10.00,29.95,30.10,OVC:08 44,48,2,None,0.00,None,17,-8.3,35,1.7,30.12,39.6,2016-01-02 09:51,None,None,None,2140,1220,None,None,None,None,None,None,None,None,None,None,None,None,None,None,None,None
1.10,2016-01-03 00:00:00,2016-01-03 00:00:00,8.8,0,0,N,,,,,-73.990371704101563,40.734695434570313,2,2,0.5,,,0.3,7.5,0.5,-73.981842041015625,40.732406616210937,,,2,NY CITY CENTRAL PARK NY US,WBAN:94728,1,FM-15,None,None,None,None,None,None,None,None,None,None,None,None,-9999,-9999,None,None,None,-9999,-9999,None,None,None,None,None,None,None,None,None,None,None,None,None,None,None,None,None,None,None,None,None,None,None,None,-73.9669,40.7889,0,None,000,30,-1.0,10.00,29.79,29.94,CLR:00,54,8,None,0.00,None,20,-6.7,35,1.7,29.96,39.6,2016-01-03 00:51,None,None,None,2141,1220,None,None,None,None,None,None,None,None,None,None,None,None,None,None,None,None
4.90,2016-01-03 00:00:00,2016-01-03 00:00:00,19.3,0,0,N,None,2016-01-01 09:00:00,New York,10003,-73.980781555175781,40.729911804199219,1,5,0.5,-73.9870210,40.7308580,0.3,18,0.5,-73.944473266601563,40.716678619384766,New York,0,2,NY CITY CENTRAL PARK NY US,WBAN:94728,1,FM-15,None,None,None,None,None,None,None,None,None,None,None,None,-9999,-9999,None,None,None,-9999,-9999,None,None,None,None,None,None,None,None,None,None,None,None,None,None,None,None,None,None,None,None,None,None,None,None,-73.9669,40.7889,0,None,000,30,-1.0,10.00,29.79,29.94,CLR:00,54,8,None,0.00,None,20,-6.7,35,1.7,29.96,39.6,2016-01-03 00:51,None,None,None,2141,1220,None,None,None,None,None,None,None,None,None,None,None,None,None,None,None,None
10.54,2016-01-03 00:00:00,2016-01-03 00:00:00,34.3,0,0,N,None,None,None,None,-73.984550476074219,40.6795654296875,1,1,0.5,None,None,0.3,33,0.5,-73.950271606445313,40.788925170898438,None,None,2,NY CITY CENTRAL PARK NY US,WBAN:94728,1,FM-15,None,None,None,None,None,None,None,None,None,None,None,None,-9999,-9999,None,None,None,-9999,-9999,None,None,None,None,None,None,None,None,None,None,None,None,None,None,None,None,None,None,None,None,None,None,None,None,-73.9669,40.7889,0,None,000,30,-1.0,10.00,29.79,29.94,CLR:00,54,8,None,0.00,None,20,-6.7,35,1.7,29.96,39.6,2016-01-03 00:51,None,None,None,2141,1220,None,None,None,None,None,None,None,None,None,None,None,None,None,None,None,None
4.75,2016-01-03 00:00:00,2016-01-03 00:00:00,17.3,0,0,N,None,2016-01-01 12:00:00,New York,10029,-73.99346923828125,40.718990325927734,2,1,0.5,-73.9519050,40.7924950,0.3,16.5,0,-73.962242126464844,40.657333374023437,New York,0,2,NY CITY CENTRAL PARK NY US,WBAN:94728,1,FM-15,None,None,None,None,None,None,None,None,None,None,None,None,-9999,-9999,None,None,None,-9999,-9999,None,None,None,None,None,None,None,None,None,None,None,None,None,None,None,None,None,None,None,None,None,None,None,None,-73.9669,40.7889,0,None,000,30,-1.0,10.00,29.79,29.94,CLR:00,54,8,None,0.00,None,20,-6.7,35,1.7,29.96,39.6,2016-01-03 00:51,None,None,None,2141,1220,None,None,None,None,None,None,None,None,None,None,None,None,None,None,None,None
1.76,2016-01-03 00:00:00,2016-01-03 00:00:00,8.8,0,0,N,None,None,None,None,-73.960624694824219,40.781330108642578,2,3,0.5,None,None,0.3,8,0,-73.977264404296875,40.758514404296875,None,None,2,NY CITY CENTRAL PARK NY US,WBAN:94728,1,FM-15,None,None,None,None,None,None,None,None,None,None,None,None,-9999,-9999,None,None,None,-9999,-9999,None,None,None,None,None,None,None,None,None,None,None,None,None,None,None,None,None,None,None,None,None,None,None,None,-73.9669,40.7889,0,None,000,30,-1.0,10.00,29.79,29.94,CLR:00,54,8,None,0.00,None,20,-6.7,35,1.7,29.96,39.6,2016-01-03 00:51,None,None,None,2141,1220,None,None,None,None,None,None,None,None,None,None,None,None,None,None,None,None
5.52,2016-01-03 00:00:00,2016-01-03 00:18:30,20.3,0,0,N,2016-12-31 00:00:00 | 2016-07-03 00:00:00,2016-01-01 00:00:00 | 2015-10-08 00:00:00,New York | New York,10022 | 10019,-73.980117797851563,40.743049621582031,2,2,0.5,-73.968 | -73.9844951,40.759 | 40.7632328,0.3,19,0.5,-73.913490295410156,40.763141632080078,New York | New York,2 | 2,2,NY CITY CENTRAL PARK NY US,WBAN:94728,1,FM-15,None,None,None,None,None,None,None,None,None,None,None,None,-9999,-9999,None,None,None,-9999,-9999,None,None,None,None,None,None,None,None,None,None,None,None,None,None,None,None,None,None,None,None,None,None,None,None,-73.9669,40.7889,0,None,000,30,-1.0,10.00,29.79,29.94,CLR:00,54,8,None,0.00,None,20,-6.7,35,1.7,29.96,39.6,2016-01-03 00:51,None,None,None,2141,1220,None,None,None,None,None,None,None,None,None,None,None,None,None,None,None,None
7.45,2016-01-03 00:00:00,2016-01-03 00:26:45,27.3,0,0,N,None,None,None,None,-73.994056701660156,40.719989776611328,2,2,0.5,None,None,0.3,26,0.5,-73.966361999511719,40.789871215820313,None,None,2,NY CITY CENTRAL PARK NY US,WBAN:94728,1,FM-15,None,None,None,None,None,None,None,None,None,None,None,None,-9999,-9999,None,None,None,-9999,-9999,None,None,None,None,None,None,None,None,None,None,None,None,None,None,None,None,None,None,None,None,None,None,None,None,-73.9669,40.7889,0,None,000,30,-1.0,10.00,29.79,29.94,CLR:00,54,8,None,0.00,None,20,-6.7,35,1.7,29.96,39.6,2016-01-03 00:51,None,None,None,2141,1220,None,None,None,None,None,None,None,None,None,None,None,None,None,None,None,None
1.20,2016-01-03 00:00:01,2016-01-03 00:11:55,10.3,0,0,N,None,None,None,None,-73.979423522949219,40.744613647460938,2,1,0.5,None,None,0.3,9,0.5,-73.992034912109375,40.753944396972656,None,None,1,NY CITY CENTRAL PARK NY US,WBAN:94728,1,FM-15,None,None,None,None,None,None,None,None,None,None,None,None,-9999,-9999,None,None,None,-9999,-9999,None,None,None,None,None,None,None,None,None,None,None,None,None,None,None,None,None,None,None,None,None,None,None,None,-73.9669,40.7889,0,None,000,30,-1.0,10.00,29.79,29.94,CLR:00,54,8,None,0.00,None,20,-6.7,35,1.7,29.96,39.6,2016-01-03 00:51,None,None,None,2141,1220,None,None,None,None,None,None,None,None,None,None,None,None,None,None,None,None
6.00,2016-01-03 00:00:02,2016-01-03 00:11:14,19.3,0,0,N,None,None,None,None,-73.947151184082031,40.791046142578125,2,1,0.5,None,None,0.3,18,0.5,-73.920768737792969,40.865577697753906,None,None,1,NY CITY CENTRAL PARK NY US,WBAN:94728,1,FM-15,None,None,None,None,None,None,None,None,None,None,None,None,-9999,-9999,None,None,None,-9999,-9999,None,None,None,None,None,None,None,None,None,None,None,None,None,None,None,None,None,None,None,None,None,None,None,None,-73.9669,40.7889,0,None,000,30,-1.0,10.00,29.79,29.94,CLR:00,54,8,None,0.00,None,20,-6.7,35,1.7,29.96,39.6,2016-01-03 00:51,None,None,None,2141,1220,None,None,None,None,None,None,None,None,None,None,None,None,None,None,None,None
3.21,2016-01-03 00:00:02,2016-01-03 00:11:08,12.8,0,0,N,None,None,None,None,-73.998344421386719,40.723896026611328,2,1,0.5,None,None,0.3,11.5,0.5,-73.995849609375,40.688400268554688,None,None,2,NY CITY CENTRAL PARK NY US,WBAN:94728,1,FM-15,None,None,None,None,None,None,None,None,None,None,None,None,-9999,-9999,None,None,None,-9999,-9999,None,None,None,None,None,None,None,None,None,None,None,None,None,None,None,None,None,None,None,None,None,None,None,None,-73.9669,40.7889,0,None,000,30,-1.0,10.00,29.79,29.94,CLR:00,54,8,None,0.00,None,20,-6.7,35,1.7,29.96,39.6,2016-01-03 00:51,None,None,None,2141,1220,None,None,None,None,None,None,None,None,None,None,None,None,None,None,None,None
.79,2016-01-03 00:00:03,2016-01-03 00:06:19,7.3,0,0,N,None,None,None,None,-74.006149291992188,40.744918823242188,2,1,0.5,None,None,0.3,6,0.5,-73.993797302246094,40.741439819335938,None,None,2,NY CITY CENTRAL PARK NY US,WBAN:94728,1,FM-15,None,None,None,None,None,None,None,None,None,None,None,None,-9999,-9999,None,None,None,-9999,-9999,None,None,None,None,None,None,None,None,None,None,None,None,None,None,None,None,None,None,None,None,None,None,None,None,-73.9669,40.7889,0,None,000,30,-1.0,10.00,29.79,29.94,CLR:00,54,8,None,0.00,None,20,-6.7,35,1.7,29.96,39.6,2016-01-03 00:51,None,None,None,2141,1220,None,None,None,None,None,None,None,None,None,None,None,None,None,None,None,None
2.43,2016-01-03 00:00:03,2016-01-03 00:15:49,17.29,0,3.99,N,None,None,None,None,-73.969329833984375,40.763538360595703,1,6,0.5,None,None,0.3,12,0.5,-73.995689392089844,40.744251251220703,None,None,2,NY CITY CENTRAL PARK NY US,WBAN:94728,1,FM-15,None,None,None,None,None,None,None,None,None,None,None,None,-9999,-9999,None,None,None,-9999,-9999,None,None,None,None,None,None,None,None,None,None,None,None,None,None,None,None,None,None,None,None,None,None,None,None,-73.9669,40.7889,0,None,000,30,-1.0,10.00,29.79,29.94,CLR:00,54,8,None,0.00,None,20,-6.7,35,1.7,29.96,39.6,2016-01-03 00:51,None,None,None,2141,1220,None,None,None,None,None,None,None,None,None,None,None,None,None,None,None,None
.01,2016-01-03 00:00:03,2016-01-03 00:00:11,3.8,0,0,N,None,None,None,None,-73.989021301269531,40.721538543701172,2,4,0.5,None,None,0.3,2.5,0.5,-73.988960266113281,40.721698760986328,None,None,2,NY CITY CENTRAL PARK NY US,WBAN:94728,1,FM-15,None,None,None,None,None,None,None,None,None,None,None,None,-9999,-9999,None,None,None,-9999,-9999,None,None,None,None,None,None,None,None,None,None,None,None,None,None,None,None,None,None,None,None,None,None,None,None,-73.9669,40.7889,0,None,000,30,-1.0,10.00,29.79,29.94,CLR:00,54,8,None,0.00,None,20,-6.7,35,1.7,29.96,39.6,2016-01-03 00:51,None,None,None,2141,1220,None,None,None,None,None,None,None,None,None,None,None,None,None,None,None,None
3.70,2016-01-03 00:00:04,2016-01-03 00:14:32,18.35,0,3.05,N,None | None,2016-01-01 03:00:00 | 2016-01-01 11:00:00,New York | New York,10002 | 10002,-74.004302978515625,40.742240905761719,1,1,0.5,-73.9847 | -73.9847,40.7182 | 40.7182,0.3,14,0.5,-74.007362365722656,40.706935882568359,New York | New York,0 | 0,1,NY CITY CENTRAL PARK NY US,WBAN:94728,1,FM-15,None,None,None,None,None,None,None,None,None,None,None,None,-9999,-9999,None,None,None,-9999,-9999,None,None,None,None,None,None,None,None,None,None,None,None,None,None,None,None,None,None,None,None,None,None,None,None,-73.9669,40.7889,0,None,000,30,-1.0,10.00,29.79,29.94,CLR:00,54,8,None,0.00,None,20,-6.7,35,1.7,29.96,39.6,2016-01-03 00:51,None,None,None,2141,1220,None,None,None,None,None,None,None,None,None,None,None,None,None,None,None,None
2.20,2016-01-03 00:00:05,2016-01-03 00:14:27,13.8,0,1.5,N,None,2016-01-01 02:00:00,New York,10038,-73.991996765136719,40.718578338623047,1,2,0.5,-74.0081571,40.7090990,0.3,11,0.5,-74.005134582519531,40.739944458007813,New York,0,1,NY CITY CENTRAL PARK NY US,WBAN:94728,1,FM-15,None,None,None,None,None,None,None,None,None,None,None,None,-9999,-9999,None,None,None,-9999,-9999,None,None,None,None,None,None,None,None,None,None,None,None,None,None,None,None,None,None,None,None,None,None,None,None,-73.9669,40.7889,0,None,000,30,-1.0,10.00,29.79,29.94,CLR:00,54,8,None,0.00,None,20,-6.7,35,1.7,29.96,39.6,2016-01-03 00:51,None,None,None,2141,1220,None,None,None,None,None,None,None,None,None,None,None,None,None,None,None,None
.54,2016-01-03 00:00:05,2016-01-03 00:07:17,7.3,0,0,N,None,None,None,None,-73.985160827636719,40.768951416015625,2,1,0.5,None,None,0.3,6,0.5,-73.990226745605469,40.761730194091797,None,None,2,NY CITY CENTRAL PARK NY US,WBAN:94728,1,FM-15,None,None,None,None,None,None,None,None,None,None,None,None,-9999,-9999,None,None,None,-9999,-9999,None,None,None,None,None,None,None,None,None,None,None,None,None,None,None,None,None,None,None,None,None,None,None,None,-73.9669,40.7889,0,None,000,30,-1.0,10.00,29.79,29.94,CLR:00,54,8,None,0.00,None,20,-6.7,35,1.7,29.96,39.6,2016-01-03 00:51,None,None,None,2141,1220,None,None,None,None,None,None,None,None,None,None,None,None,None,None,None,None
1.92,2016-01-03 00:00:05,2016-01-03 00:07:14,8.8,0,0,N,2016-07-03 00:00:00,2015-10-08 00:00:00,New York,10019,-73.973091125488281,40.795360565185547,2,1,0.5,-73.9844951,40.7632328,0.3,7.5,0.5,-73.978370666503906,40.773151397705078,New York,2,2,NY CITY CENTRAL PARK NY US,WBAN:94728,1,FM-15,None,None,None,None,None,None,None,None,None,None,None,None,-9999,-9999,None,None,None,-9999,-9999,None,None,None,None,None,None,None,None,None,None,None,None,None,None,None,None,None,None,None,None,None,None,None,None,-73.9669,40.7889,0,None,000,30,-1.0,10.00,29.79,29.94,CLR:00,54,8,None,0.00,None,20,-6.7,35,1.7,29.96,39.6,2016-01-03 00:51,None,None,None,2141,1220,None,None,None,None,None,None,None,None,None,None,None,None,None,None,None,None
1.70,2016-01-03 00:00:06,2016-01-03 00:04:44,9.95,0,1.65,Y,None,None,None,None,-73.982101440429688,40.774696350097656,1,1,0.5,None,None,0.3,7,0.5,-73.970939636230469,40.796707153320313,None,None,1,NY CITY CENTRAL PARK NY US,WBAN:94728,1,FM-15,None,None,None,None,None,None,None,None,None,None,None,None,-9999,-9999,None,None,None,-9999,-9999,None,None,None,None,None,None,None,None,None,None,None,None,None,None,None,None,None,None,None,None,None,None,None,None,-73.9669,40.7889,0,None,000,30,-1.0,10.00,29.79,29.94,CLR:00,54,8,None,0.00,None,20,-6.7,35,1.7,29.96,39.6,2016-01-03 00:51,None,None,None,2141,1220,None,None,None,None,None,None,None,None,None,None,None,None,None,None,None,None
1.38,2016-01-03 00:00:06,2016-01-03 00:07:14,9.96,0,1.66,N,None,None,None,None,-73.994842529296875,40.718498229980469,1,1,0.5,None,None,0.3,7,0.5,-73.98980712890625,40.734230041503906,None,None,2,NY CITY CENTRAL PARK NY US,WBAN:94728,1,FM-15,None,None,None,None,None,None,None,None,None,None,None,None,-9999,-9999,None,None,None,-9999,-9999,None,None,None,None,None,None,None,None,None,None,None,None,None,None,None,None,None,None,None,None,None,None,None,None,-73.9669,40.7889,0,None,000,30,-1.0,10.00,29.79,29.94,CLR:00,54,8,None,0.00,None,20,-6.7,35,1.7,29.96,39.6,2016-01-03 00:51,None,None,None,2141,1220,None,None,None,None,None,None,None,None,None,None,None,None,None,None,None,None
4.90,2016-01-03 00:00:07,2016-01-03 00:20:35,24.36,0,4.06,N,None,2016-01-01 09:00:00,New York,10003,-73.953033447265625,40.672115325927734,1,2,0.5,-73.9870210,40.7308580,0.3,19,0.5,-73.986572265625,40.710594177246094,New York,0,1,NY CITY CENTRAL PARK NY US,WBAN:94728,1,FM-15,None,None,None,None,None,None,None,None,None,None,None,None,-9999,-9999,None,None,None,-9999,-9999,None,None,None,None,None,None,None,None,None,None,None,None,None,None,None,None,None,None,None,None,None,None,None,None,-73.9669,40.7889,0,None,000,30,-1.0,10.00,29.79,29.94,CLR:00,54,8,None,0.00,None,20,-6.7,35,1.7,29.96,39.6,2016-01-03 00:51,None,None,None,2141,1220,None,None,None,None,None,None,None,None,None,None,None,None,None,None,None,None
1.80,2016-01-03 00:00:07,2016-01-03 00:09:49,10.3,0,0,N,None,None,None,None,-73.989166259765625,40.726589202880859,2,1,0.5,None,None,0.3,9,0.5,-74.009483337402344,40.715072631835938,None,None,1,NY CITY CENTRAL PARK NY US,WBAN:94728,1,FM-15,None,None,None,None,None,None,None,None,None,None,None,None,-9999,-9999,None,None,None,-9999,-9999,None,None,None,None,None,None,None,None,None,None,None,None,None,None,None,None,None,None,None,None,None,None,None,None,-73.9669,40.7889,0,None,000,30,-1.0,10.00,29.79,29.94,CLR:00,54,8,None,0.00,None,20,-6.7,35,1.7,29.96,39.6,2016-01-03 00:51,None,None,None,2141,1220,None,None,None,None,None,None,None,None,None,None,None,None,None,None,None,None
3.09,2016-01-03 00:00:08,2016-01-03 00:18:51,15.8,0,0,N,None | None | None | None,2016-01-01 00:00:00 | 2016-01-01 00:00:00 | 2016-01-01 20:00:00 | 2016-01-01 02:00:00,New York | New York | New York | New York,None | None | 10013 | 10038,-73.999069213867188,40.720172882080078,2,1,0.5,-74.0064 | -74.0064 | -74.0050159 | -74.0081571,40.7142 | 40.7142 | 40.7208412 | 40.7090990,0.3,14.5,0.5,-73.973388671875,40.756561279296875,New York | New York | New York | New York,1 | 1 | 0 | 0,2,NY CITY CENTRAL PARK NY US,WBAN:94728,1,FM-15,None,None,None,None,None,None,None,None,None,None,None,None,-9999,-9999,None,None,None,-9999,-9999,None,None,None,None,None,None,None,None,None,None,None,None,None,None,None,None,None,None,None,None,None,None,None,None,-73.9669,40.7889,0,None,000,30,-1.0,10.00,29.79,29.94,CLR:00,54,8,None,0.00,None,20,-6.7,35,1.7,29.96,39.6,2016-01-03 00:51,None,None,None,2141,1220,None,None,None,None,None,None,None,None,None,None,None,None,None,None,None,None
.72,2016-01-03 00:00:08,2016-01-03 00:04:37,6.3,0,0,N,2016-12-31 00:00:00,2016-01-01 00:00:00,New York,10022,-73.997138977050781,40.747219085693359,2,1,0.5,-73.968,40.759,0.3,5,0.5,-74.004486083984375,40.751796722412109,New York,2,2,NY CITY CENTRAL PARK NY US,WBAN:94728,1,FM-15,None,None,None,None,None,None,None,None,None,None,None,None,-9999,-9999,None,None,None,-9999,-9999,None,None,None,None,None,None,None,None,None,None,None,None,None,None,None,None,None,None,None,None,None,None,None,None,-73.9669,40.7889,0,None,000,30,-1.0,10.00,29.79,29.94,CLR:00,54,8,None,0.00,None,20,-6.7,35,1.7,29.96,39.6,2016-01-03 00:51,None,None,None,2141,1220,None,None,None,None,None,None,None,None,None,None,None,None,None,None,None,None
.69,2016-01-03 00:00:08,2016-01-03 00:03:24,5.8,0,0,N,None,None,None,None,-73.997413635253906,40.736675262451172,2,1,0.5,None,None,0.3,4.5,0.5,-73.985664367675781,40.732681274414063,None,None,2,NY CITY CENTRAL PARK NY US,WBAN:94728,1,FM-15,None,None,None,None,None,None,None,None,None,None,None,None,-9999,-9999,None,None,None,-9999,-9999,None,None,None,None,None,None,None,None,None,None,None,None,None,None,None,None,None,None,None,None,None,None,None,None,-73.9669,40.7889,0,None,000,30,-1.0,10.00,29.79,29.94,CLR:00,54,8,None,0.00,None,20,-6.7,35,1.7,29.96,39.6,2016-01-03 00:51,None,None,None,2141,1220,None,None,None,None,None,None,None,None,None,None,None,None,None,None,None,None
5.30,2016-01-03 00:00:09,2016-01-03 00:19:03,23.15,0,3.85,N,None,2016-01-01 09:00:00,New York,10003,-73.99713134765625,40.736961364746094,1,3,0.5,-73.9870210,40.7308580,0.3,18,0.5,-73.928421020507813,40.755580902099609,New York,0,1,NY CITY CENTRAL PARK NY US,WBAN:94728,1,FM-15,None,None,None,None,None,None,None,None,None,None,None,None,-9999,-9999,None,None,None,-9999,-9999,None,None,None,None,None,None,None,None,None,None,None,None,None,None,None,None,None,None,None,None,None,None,None,None,-73.9669,40.7889,0,None,000,30,-1.0,10.00,29.79,29.94,CLR:00,54,8,None,0.00,None,20,-6.7,35,1.7,29.96,39.6,2016-01-03 00:51,None,None,None,2141,1220,None,None,None,None,None,None,None,None,None,None,None,None,None,None,None,None
1.20,2016-01-03 00:00:09,2016-01-03 00:07:18,8.3,0,0,N,None,None,None,None,-73.963912963867188,40.712173461914062,2,2,0.5,None,None,0.3,7,0.5,-73.951332092285156,40.712200164794922,None,None,1,NY CITY CENTRAL PARK NY US,WBAN:94728,1,FM-15,None,None,None,None,None,None,None,None,None,None,None,None,-9999,-9999,None,None,None,-9999,-9999,None,None,None,None,None,None,None,None,None,None,None,None,None,None,None,None,None,None,None,None,None,None,None,None,-73.9669,40.7889,0,None,000,30,-1.0,10.00,29.79,29.94,CLR:00,54,8,None,0.00,None,20,-6.7,35,1.7,29.96,39.6,2016-01-03 00:51,None,None,None,2141,1220,None,None,None,None,None,None,None,None,None,None,None,None,None,None,None,None
.97,2016-01-03 00:00:10,2016-01-03 00:06:15,7.3,0,0,N,None,None,None,None,-73.999397277832031,40.743900299072266,2,2,0.5,None,None,0.3,6,0.5,-73.988876342773438,40.745319366455078,None,None,2,NY CITY CENTRAL PARK NY US,WBAN:94728,1,FM-15,None,None,None,None,None,None,None,None,None,None,None,None,-9999,-9999,None,None,None,-9999,-9999,None,None,None,None,None,None,None,None,None,None,None,None,None,None,None,None,None,None,None,None,None,None,None,None,-73.9669,40.7889,0,None,000,30,-1.0,10.00,29.79,29.94,CLR:00,54,8,None,0.00,None,20,-6.7,35,1.7,29.96,39.6,2016-01-03 00:51,None,None,None,2141,1220,None,None,None,None,None,None,None,None,None,None,None,None,None,None,None,None
.87,2016-01-03 00:00:10,2016-01-03 00:02:20,5.8,0,0,N,None,None,None,None,-73.95440673828125,40.778068542480469,2,1,0.5,None,None,0.3,4.5,0.5,-73.948928833007813,40.788581848144531,None,None,2,NY CITY CENTRAL PARK NY US,WBAN:94728,1,FM-15,None,None,None,None,None,None,None,None,None,None,None,None,-9999,-9999,None,None,None,-9999,-9999,None,None,None,None,None,None,None,None,None,None,None,None,None,None,None,None,None,None,None,None,None,None,None,None,-73.9669,40.7889,0,None,000,30,-1.0,10.00,29.79,29.94,CLR:00,54,8,None,0.00,None,20,-6.7,35,1.7,29.96,39.6,2016-01-03 00:51,None,None,None,2141,1220,None,None,None,None,None,None,None,None,None,None,None,None,None,None,None,None
.13,2016-01-03 00:00:12,2016-01-03 00:01:17,4.3,0,0,N,None,2016-01-01 12:00:00,New York,10029,-73.991653442382813,40.754558563232422,2,1,0.5,-73.9519050,40.7924950,0.3,3,0.5,-73.9906005859375,40.756118774414063,New York,0,2,NY CITY CENTRAL PARK NY US,WBAN:94728,1,FM-15,None,None,None,None,None,None,None,None,None,None,None,None,-9999,-9999,None,None,None,-9999,-9999,None,None,None,None,None,None,None,None,None,None,None,None,None,None,None,None,None,None,None,None,None,None,None,None,-73.9669,40.7889,0,None,000,30,-1.0,10.00,29.79,29.94,CLR:00,54,8,None,0.00,None,20,-6.7,35,1.7,29.96,39.6,2016-01-03 00:51,None,None,None,2141,1220,None,None,None,None,None,None,None,None,None,None,None,None,None,None,None,None
2.40,2016-01-03 00:00:14,2016-01-03 00:13:02,15.35,0,3.05,N,None,None,None,None,-73.995597839355469,40.744239807128906,1,1,0.5,None,None,0.3,11,0.5,-73.985458374023438,40.768711090087891,None,None,1,NY CITY CENTRAL PARK NY US,WBAN:94728,1,FM-15,None,None,None,None,None,None,None,None,None,None,None,None,-9999,-9999,None,None,None,-9999,-9999,None,None,None,None,None,None,None,None,None,None,None,None,None,None,None,None,None,None,None,None,None,None,None,None,-73.9669,40.7889,0,None,000,30,-1.0,10.00,29.79,29.94,CLR:00,54,8,None,0.00,None,20,-6.7,35,1.7,29.96,39.6,2016-01-03 00:51,None,None,None,2141,1220,None,None,None,None,None,None,None,None,None,None,None,None,None,None,None,None
.44,2016-01-03 00:00:14,2016-01-03 00:02:38,6.36,0,1.06,N,None | 2016-07-03 00:00:00,2016-01-01 00:00:00 | 2015-10-08 00:00:00,New York | New York,10019 | 10019,-73.990272521972656,40.772010803222656,1,2,0.5,-73.9803996 | -73.9844951,40.7656668 | 40.7632328,0.3,4,0.5,-73.995040893554687,40.769771575927734,New York | New York,1 | 2,2,NY CITY CENTRAL PARK NY US,WBAN:94728,1,FM-15,None,None,None,None,None,None,None,None,None,None,None,None,-9999,-9999,None,None,None,-9999,-9999,None,None,None,None,None,None,None,None,None,None,None,None,None,None,None,None,None,None,None,None,None,None,None,None,-73.9669,40.7889,0,None,000,30,-1.0,10.00,29.79,29.94,CLR:00,54,8,None,0.00,None,20,-6.7,35,1.7,29.96,39.6,2016-01-03 00:51,None,None,None,2141,1220,None,None,None,None,None,None,None,None,None,None,None,None,None,None,None,None
1.56,2016-01-03 00:00:15,2016-01-03 00:06:31,8.8,0,0,N,None,None,None,None,-73.940109252929687,40.751152038574219,2,1,0.5,None,None,0.3,7.5,0.5,-73.930023193359375,40.767051696777344,None,None,2,NY CITY CENTRAL PARK NY US,WBAN:94728,1,FM-15,None,None,None,None,None,None,None,None,None,None,None,None,-9999,-9999,None,None,None,-9999,-9999,None,None,None,None,None,None,None,None,None,None,None,None,None,None,None,None,None,None,None,None,None,None,None,None,-73.9669,40.7889,0,None,000,30,-1.0,10.00,29.79,29.94,CLR:00,54,8,None,0.00,None,20,-6.7,35,1.7,29.96,39.6,2016-01-03 00:51,None,None,None,2141,1220,None,None,None,None,None,None,None,None,None,None,None,None,None,None,None,None
2.90,2016-01-03 00:00:16,2016-01-03 00:33:00,21.8,0,0,N,None,None,None,None,-73.982154846191406,40.774879455566406,2,2,0.5,None,None,0.3,20.5,0.5,-73.981361389160156,40.744113922119141,None,None,1,NY CITY CENTRAL PARK NY US,WBAN:94728,1,FM-15,None,None,None,None,None,None,None,None,None,None,None,None,-9999,-9999,None,None,None,-9999,-9999,None,None,None,None,None,None,None,None,None,None,None,None,None,None,None,None,None,None,None,None,None,None,None,None,-73.9669,40.7889,0,None,000,30,-1.0,10.00,29.79,29.94,CLR:00,54,8,None,0.00,None,20,-6.7,35,1.7,29.96,39.6,2016-01-03 00:51,None,None,None,2141,1220,None,None,None,None,None,None,None,None,None,None,None,None,None,None,None,None
1.20,2016-01-03 00:00:17,2016-01-03 00:19:14,13.8,0,0,N,None,None,None,None,-74.008064270019531,40.742069244384766,3,1,0.5,None,None,0.3,12.5,0.5,-74.002288818359375,40.742164611816406,None,None,1,NY CITY CENTRAL PARK NY US,WBAN:94728,1,FM-15,None,None,None,None,None,None,None,None,None,None,None,None,-9999,-9999,None,None,None,-9999,-9999,None,None,None,None,None,None,None,None,None,None,None,None,None,None,None,None,None,None,None,None,None,None,None,None,-73.9669,40.7889,0,None,000,30,-1.0,10.00,29.79,29.94,CLR:00,54,8,None,0.00,None,20,-6.7,35,1.7,29.96,39.6,2016-01-03 00:51,None,None,None,2141,1220,None,None,None,None,None,None,None,None,None,None,None,None,None,None,None,None
1.50,2016-01-03 00:00:17,2016-01-03 00:13:59,14.65,0,3.35,N,None,None,None,None,-74.002677917480469,40.730636596679688,1,1,0.5,None,None,0.3,10,0.5,-73.980422973632813,40.726211547851563,None,None,1,NY CITY CENTRAL PARK NY US,WBAN:94728,1,FM-15,None,None,None,None,None,None,None,None,None,None,None,None,-9999,-9999,None,None,None,-9999,-9999,None,None,None,None,None,None,None,None,None,None,None,None,None,None,None,None,None,None,None,None,None,None,None,None,-73.9669,40.7889,0,None,000,30,-1.0,10.00,29.79,29.94,CLR:00,54,8,None,0.00,None,20,-6.7,35,1.7,29.96,39.6,2016-01-03 00:51,None,None,None,2141,1220,None,None,None,None,None,None,None,None,None,None,None,None,None,None,None,None
2.32,2016-01-03 00:00:17,2016-01-03 00:42:23,20.3,0,0,N,None,2016-01-01 09:00:00,New York,10003,-73.981658935546875,40.773738861083984,2,1,0.5,-73.9870210,40.7308580,0.3,19,0.5,-73.995964050292969,40.753837585449219,New York,0,2,NY CITY CENTRAL PARK NY US,WBAN:94728,1,FM-15,None,None,None,None,None,None,None,None,None,None,None,None,-9999,-9999,None,None,None,-9999,-9999,None,None,None,None,None,None,None,None,None,None,None,None,None,None,None,None,None,None,None,None,None,None,None,None,-73.9669,40.7889,0,None,000,30,-1.0,10.00,29.79,29.94,CLR:00,54,8,None,0.00,None,20,-6.7,35,1.7,29.96,39.6,2016-01-03 00:51,None,None,None,2141,1220,None,None,None,None,None,None,None,None,None,None,None,None,None,None,None,None
9.63,2016-01-03 00:00:17,2016-01-03 00:14:26,36.79,0,8.49,N,None,None,None,None,-73.981742858886719,40.719158172607422,1,5,0.5,None,None,0.3,27,0.5,-73.938827514648438,40.829181671142578,None,None,2,NY CITY CENTRAL PARK NY US,WBAN:94728,1,FM-15,None,None,None,None,None,None,None,None,None,None,None,None,-9999,-9999,None,None,None,-9999,-9999,None,None,None,None,None,None,None,None,None,None,None,None,None,None,None,None,None,None,None,None,None,None,None,None,-73.9669,40.7889,0,None,000,30,-1.0,10.00,29.79,29.94,CLR:00,54,8,None,0.00,None,20,-6.7,35,1.7,29.96,39.6,2016-01-03 00:51,None,None,None,2141,1220,None,None,None,None,None,None,None,None,None,None,None,None,None,None,None,None
1.17,2016-01-03 00:00:18,2016-01-03 00:05:44,7.3,0,0,N,None,None,None,None,-73.963058471679688,40.775016784667969,2,5,0.5,None,None,0.3,6,0.5,-73.951744079589844,40.778800964355469,None,None,2,NY CITY CENTRAL PARK NY US,WBAN:94728,1,FM-15,None,None,None,None,None,None,None,None,None,None,None,None,-9999,-9999,None,None,None,-9999,-9999,None,None,None,None,None,None,None,None,None,None,None,None,None,None,None,None,None,None,None,None,None,None,None,None,-73.9669,40.7889,0,None,000,30,-1.0,10.00,29.79,29.94,CLR:00,54,8,None,0.00,None,20,-6.7,35,1.7,29.96,39.6,2016-01-03 00:51,None,None,None,2141,1220,None,None,None,None,None,None,None,None,None,None,None,None,None,None,None,None
3.40,2016-01-03 00:00:19,2016-01-03 00:19:33,15.8,0,0,N,None,None,None,None,0,0,2,1,0.5,None,None,0.3,14.5,0.5,0,0,None,None,1,NY CITY CENTRAL PARK NY US,WBAN:94728,1,FM-15,None,None,None,None,None,None,None,None,None,None,None,None,-9999,-9999,None,None,None,-9999,-9999,None,None,None,None,None,None,None,None,None,None,None,None,None,None,None,None,None,None,None,None,None,None,None,None,-73.9669,40.7889,0,None,000,30,-1.0,10.00,29.79,29.94,CLR:00,54,8,None,0.00,None,20,-6.7,35,1.7,29.96,39.6,2016-01-03 00:51,None,None,None,2141,1220,None,None,None,None,None,None,None,None,None,None,None,None,None,None,None,None
1.32,2016-01-03 00:00:19,2016-01-03 00:06:31,7.8,0,0,N,None,None,None,None,-73.961257934570313,40.796199798583984,2,3,0.5,None,None,0.3,6.5,0.5,-73.950050354003906,40.787311553955078,None,None,2,NY CITY CENTRAL PARK NY US,WBAN:94728,1,FM-15,None,None,None,None,None,None,None,None,None,None,None,None,-9999,-9999,None,None,None,-9999,-9999,None,None,None,None,None,None,None,None,None,None,None,None,None,None,None,None,None,None,None,None,None,None,None,None,-73.9669,40.7889,0,None,000,30,-1.0,10.00,29.79,29.94,CLR:00,54,8,None,0.00,None,20,-6.7,35,1.7,29.96,39.6,2016-01-03 00:51,None,None,None,2141,1220,None,None,None,None,None,None,None,None,None,None,None,None,None,None,None,None
13.00,2016-01-03 00:00:20,2016-01-03 00:29:05,37.8,0,0,N,None,2016-01-01 12:00:00,New York,10029,-73.98223876953125,40.757701873779297,2,1,0.5,-73.9519050,40.7924950,0.3,36.5,0.5,-73.909309387207031,40.862049102783203,New York,0,1,NY CITY CENTRAL PARK NY US,WBAN:94728,1,FM-15,None,None,None,None,None,None,None,None,None,None,None,None,-9999,-9999,None,None,None,-9999,-9999,None,None,None,None,None,None,None,None,None,None,None,None,None,None,None,None,None,None,None,None,None,None,None,None,-73.9669,40.7889,0,None,000,30,-1.0,10.00,29.79,29.94,CLR:00,54,8,None,0.00,None,20,-6.7,35,1.7,29.96,39.6,2016-01-03 00:51,None,None,None,2141,1220,None,None,None,None,None,None,None,None,None,None,None,None,None,None,None,None
.70,2016-01-03 00:00:21,2016-01-03 00:17:30,12.3,0,0,Y,None,None,None,None,-73.894126892089844,40.636573791503906,2,1,0.5,None,None,0.3,11,0.5,-73.892501831054687,40.634834289550781,None,None,1,NY CITY CENTRAL PARK NY US,WBAN:94728,1,FM-15,None,None,None,None,None,None,None,None,None,None,None,None,-9999,-9999,None,None,None,-9999,-9999,None,None,None,None,None,None,None,None,None,None,None,None,None,None,None,None,None,None,None,None,None,None,None,None,-73.9669,40.7889,0,None,000,30,-1.0,10.00,29.79,29.94,CLR:00,54,8,None,0.00,None,20,-6.7,35,1.7,29.96,39.6,2016-01-03 00:51,None,None,None,2141,1220,None,None,None,None,None,None,None,None,None,None,None,None,None,None,None,None
5.40,2016-01-03 00:00:21,2016-01-03 00:32:09,25.8,0,0,N,None,None,None,None,-73.946418762207031,40.789138793945313,2,1,0.5,None,None,0.3,24.5,0.5,-73.915901184082031,40.851547241210937,None,None,1,NY CITY CENTRAL PARK NY US,WBAN:94728,1,FM-15,None,None,None,None,None,None,None,None,None,None,None,None,-9999,-9999,None,None,None,-9999,-9999,None,None,None,None,None,None,None,None,None,None,None,None,None,None,None,None,None,None,None,None,None,None,None,None,-73.9669,40.7889,0,None,000,30,-1.0,10.00,29.79,29.94,CLR:00,54,8,None,0.00,None,20,-6.7,35,1.7,29.96,39.6,2016-01-03 00:51,None,None,None,2141,1220,None,None,None,None,None,None,None,None,None,None,None,None,None,None,None,None
3.30,2016-01-03 00:00:22,2016-01-03 00:12:12,15.96,0,2.66,N,None,None,None,None,-73.975677490234375,40.749099731445313,1,1,0.5,None,None,0.3,12,0.5,-73.973648071289063,40.78369140625,None,None,2,NY CITY CENTRAL PARK NY US,WBAN:94728,1,FM-15,None,None,None,None,None,None,None,None,None,None,None,None,-9999,-9999,None,None,None,-9999,-9999,None,None,None,None,None,None,None,None,None,None,None,None,None,None,None,None,None,None,None,None,None,None,None,None,-73.9669,40.7889,0,None,000,30,-1.0,10.00,29.79,29.94,CLR:00,54,8,None,0.00,None,20,-6.7,35,1.7,29.96,39.6,2016-01-03 00:51,None,None,None,2141,1220,None,None,None,None,None,None,None,None,None,None,None,None,None,None,None,None
2.94,2016-01-03 00:00:22,2016-01-03 00:13:37,13.3,0,0,N,None,None,None,None,-73.949691772460938,40.784618377685547,2,6,0.5,None,None,0.3,12,0.5,-73.971031188964844,40.751018524169922,None,None,2,NY CITY CENTRAL PARK NY US,WBAN:94728,1,FM-15,None,None,None,None,None,None,None,None,None,None,None,None,-9999,-9999,None,None,None,-9999,-9999,None,None,None,None,None,None,None,None,None,None,None,None,None,None,None,None,None,None,None,None,None,None,None,None,-73.9669,40.7889,0,None,000,30,-1.0,10.00,29.79,29.94,CLR:00,54,8,None,0.00,None,20,-6.7,35,1.7,29.96,39.6,2016-01-03 00:51,None,None,None,2141,1220,None,None,None,None,None,None,None,None,None,None,None,None,None,None,None,None
5.23,2016-01-03 00:00:22,2016-01-03 00:13:58,18.8,0,0,N,None,None,None,None,-73.981849670410156,40.716880798339844,2,2,0.5,None,None,0.3,17.5,0.5,-73.969329833984375,40.769378662109375,None,None,2,NY CITY CENTRAL PARK NY US,WBAN:94728,1,FM-15,None,None,None,None,None,None,None,None,None,None,None,None,-9999,-9999,None,None,None,-9999,-9999,None,None,None,None,None,None,None,None,None,None,None,None,None,None,None,None,None,None,None,None,None,None,None,None,-73.9669,40.7889,0,None,000,30,-1.0,10.00,29.79,29.94,CLR:00,54,8,None,0.00,None,20,-6.7,35,1.7,29.96,39.6,2016-01-03 00:51,None,None,None,2141,1220,None,None,None,None,None,None,None,None,None,None,None,None,None,None,None,None
1.30,2016-01-03 00:00:26,2016-01-03 00:07:41,10.55,0,1.75,N,2022-04-16 02:00:00,2016-01-01 00:00:00,New York,None,-73.96588134765625,40.688564300537109,1,1,0.5,-73.9651814,40.7745779,0.3,7.5,0.5,-73.962692260742187,40.671928405761719,New York,1,1,NY CITY CENTRAL PARK NY US,WBAN:94728,1,FM-15,None,None,None,None,None,None,None,None,None,None,None,None,-9999,-9999,None,None,None,-9999,-9999,None,None,None,None,None,None,None,None,None,None,None,None,None,None,None,None,None,None,None,None,None,None,None,None,-73.9669,40.7889,0,None,000,30,-1.0,10.00,29.79,29.94,CLR:00,54,8,None,0.00,None,20,-6.7,35,1.7,29.96,39.6,2016-01-03 00:51,None,None,None,2141,1220,None,None,None,None,None,None,None,None,None,None,None,None,None,None,None,None
4.70,2016-01-03 00:00:27,2016-01-03 00:17:41,20.3,0,2,N,None,None,None,None,-73.995864868164063,40.767772674560547,1,1,0.5,None,None,0.3,17,0.5,-74.009605407714844,40.709926605224609,None,None,1,NY CITY CENTRAL PARK NY US,WBAN:94728,1,FM-15,None,None,None,None,None,None,None,None,None,None,None,None,-9999,-9999,None,None,None,-9999,-9999,None,None,None,None,None,None,None,None,None,None,None,None,None,None,None,None,None,None,None,None,None,None,None,None,-73.9669,40.7889,0,None,000,30,-1.0,10.00,29.79,29.94,CLR:00,54,8,None,0.00,None,20,-6.7,35,1.7,29.96,39.6,2016-01-03 00:51,None,None,None,2141,1220,None,None,None,None,None,None,None,None,None,None,None,None,None,None,None,None
.83,2016-01-03 00:00:27,2016-01-03 00:08:40,8.3,0,0,N,None | None | None,2016-01-01 00:00:00 | 2016-01-01 00:00:00 | 2016-01-01 02:00:00,New York | New York | New York,None | None | 10038,-73.978767395019531,40.745105743408203,2,1,0.5,-74.0064 | -74.0064 | -74.0081571,40.7142 | 40.7142 | 40.7090990,0.3,7,0.5,-73.992210388183594,40.749309539794922,New York | New York | New York,1 | 1 | 0,2,NY CITY CENTRAL PARK NY US,WBAN:94728,1,FM-15,None,None,None,None,None,None,None,None,None,None,None,None,-9999,-9999,None,None,None,-9999,-9999,None,None,None,None,None,None,None,None,None,None,None,None,None,None,None,None,None,None,None,None,None,None,None,None,-73.9669,40.7889,0,None,000,30,-1.0,10.00,29.79,29.94,CLR:00,54,8,None,0.00,None,20,-6.7,35,1.7,29.96,39.6,2016-01-03 00:51,None,None,None,2141,1220,None,None,None,None,None,None,None,None,None,None,None,None,None,None,None,None
15.40,2016-01-03 00:00:28,2016-01-03 00:22:51,51.35,0,8.55,N,None,None,None,None,-73.97650146484375,40.733562469482422,1,1,0.5,None,None,0.3,41.5,0.5,-73.854263305664062,40.891788482666016,None,None,1,NY CITY CENTRAL PARK NY US,WBAN:94728,1,FM-15,None,None,None,None,None,None,None,None,None,None,None,None,-9999,-9999,None,None,None,-9999,-9999,None,None,None,None,None,None,None,None,None,None,None,None,None,None,None,None,None,None,None,None,None,None,None,None,-73.9669,40.7889,0,None,000,30,-1.0,10.00,29.79,29.94,CLR:00,54,8,None,0.00,None,20,-6.7,35,1.7,29.96,39.6,2016-01-03 00:51,None,None,None,2141,1220,None,None,None,None,None,None,None,None,None,None,None,None,None,None,None,None
1.64,2016-01-03 00:00:29,2016-01-03 00:08:45,9.8,0,0,N,None,None,None,None,-73.969375610351562,40.785236358642578,1,3,0.5,None,None,0.3,8.5,0.5,-73.945564270019531,40.777980804443359,None,None,2,NY CITY CENTRAL PARK NY US,WBAN:94728,1,FM-15,None,None,None,None,None,None,None,None,None,None,None,None,-9999,-9999,None,None,None,-9999,-9999,None,None,None,None,None,None,None,None,None,None,None,None,None,None,None,None,None,None,None,None,None,None,None,None,-73.9669,40.7889,0,None,000,30,-1.0,10.00,29.79,29.94,CLR:00,54,8,None,0.00,None,20,-6.7,35,1.7,29.96,39.6,2016-01-03 00:51,None,None,None,2141,1220,None,None,None,None,None,None,None,None,None,None,None,None,None,None,None,None
5.10,2016-01-03 00:00:30,2016-01-03 00:15:47,21.62,0,2.82,N,None,None,None,None,-73.990585327148438,40.745880126953125,1,1,0.5,None,None,0.3,17.5,0.5,-73.969886779785156,40.801265716552734,None,None,1,NY CITY CENTRAL PARK NY US,WBAN:94728,1,FM-15,None,None,None,None,None,None,None,None,None,None,None,None,-9999,-9999,None,None,None,-9999,-9999,None,None,None,None,None,None,None,None,None,None,None,None,None,None,None,None,None,None,None,None,None,None,None,None,-73.9669,40.7889,0,None,000,30,-1.0,10.00,29.79,29.94,CLR:00,54,8,None,0.00,None,20,-6.7,35,1.7,29.96,39.6,2016-01-03 00:51,None,None,None,2141,1220,None,None,None,None,None,None,None,None,None,None,None,None,None,None,None,None
1.10,2016-01-03 00:00:30,2016-01-03 00:18:25,12.8,0,0,N,None,None,None,None,-73.974342346191406,40.756660461425781,2,1,0.5,None,None,0.3,11.5,0.5,-73.981483459472656,40.753715515136719,None,None,2,NY CITY CENTRAL PARK NY US,WBAN:94728,1,FM-15,None,None,None,None,None,None,None,None,None,None,None,None,-9999,-9999,None,None,None,-9999,-9999,None,None,None,None,None,None,None,None,None,None,None,None,None,None,None,None,None,None,None,None,None,None,None,None,-73.9669,40.7889,0,None,000,30,-1.0,10.00,29.79,29.94,CLR:00,54,8,None,0.00,None,20,-6.7,35,1.7,29.96,39.6,2016-01-03 00:51,None,None,None,2141,1220,None,None,None,None,None,None,None,None,None,None,None,None,None,None,None,None
.35,2016-01-03 00:00:30,2016-01-03 00:03:06,6.89,0,1.59,N,None,None,None,None,-73.992347717285156,40.743438720703125,1,1,0.5,None,None,0.3,4,0.5,-73.996421813964844,40.746063232421875,None,None,2,NY CITY CENTRAL PARK NY US,WBAN:94728,1,FM-15,None,None,None,None,None,None,None,None,None,None,None,None,-9999,-9999,None,None,None,-9999,-9999,None,None,None,None,None,None,None,None,None,None,None,None,None,None,None,None,None,None,None,None,None,None,None,None,-73.9669,40.7889,0,None,000,30,-1.0,10.00,29.79,29.94,CLR:00,54,8,None,0.00,None,20,-6.7,35,1.7,29.96,39.6,2016-01-03 00:51,None,None,None,2141,1220,None,None,None,None,None,None,None,None,None,None,None,None,None,None,None,None
1.30,2016-01-03 00:00:31,2016-01-03 00:03:57,6.8,0,0,N,None,None,None,None,-73.933525085449219,40.802928924560547,2,1,0.5,None,None,0.3,5.5,0.5,-73.945671081542969,40.785984039306641,None,None,1,NY CITY CENTRAL PARK NY US,WBAN:94728,1,FM-15,None,None,None,None,None,None,None,None,None,None,None,None,-9999,-9999,None,None,None,-9999,-9999,None,None,None,None,None,None,None,None,None,None,None,None,None,None,None,None,None,None,None,None,None,None,None,None,-73.9669,40.7889,0,None,000,30,-1.0,10.00,29.79,29.94,CLR:00,54,8,None,0.00,None,20,-6.7,35,1.7,29.96,39.6,2016-01-03 00:51,None,None,None,2141,1220,None,None,None,None,None,None,None,None,None,None,None,None,None,None,None,None
7.25,2016-01-03 00:00:32,2016-01-03 00:27:02,27.3,0,0,N,None,None,None,None,-73.972953796386719,40.755718231201172,2,5,0.5,None,None,0.3,26,0.5,-73.978813171386719,40.684551239013672,None,None,2,NY CITY CENTRAL PARK NY US,WBAN:94728,1,FM-15,None,None,None,None,None,None,None,None,None,None,None,None,-9999,-9999,None,None,None,-9999,-9999,None,None,None,None,None,None,None,None,None,None,None,None,None,None,None,None,None,None,None,None,None,None,None,None,-73.9669,40.7889,0,None,000,30,-1.0,10.00,29.79,29.94,CLR:00,54,8,None,0.00,None,20,-6.7,35,1.7,29.96,39.6,2016-01-03 00:51,None,None,None,2141,1220,None,None,None,None,None,None,None,None,None,None,None,None,None,None,None,None
3.60,2016-01-03 00:00:32,2016-01-03 00:13:20,17.76,0,2.96,N,None,None,None,None,-73.9969482421875,40.720500946044922,1,5,0.5,None,None,0.3,13.5,0.5,-73.958183288574219,40.721790313720703,None,None,2,NY CITY CENTRAL PARK NY US,WBAN:94728,1,FM-15,None,None,None,None,None,None,None,None,None,None,None,None,-9999,-9999,None,None,None,-9999,-9999,None,None,None,None,None,None,None,None,None,None,None,None,None,None,None,None,None,None,None,None,None,None,None,None,-73.9669,40.7889,0,None,000,30,-1.0,10.00,29.79,29.94,CLR:00,54,8,None,0.00,None,20,-6.7,35,1.7,29.96,39.6,2016-01-03 00:51,None,None,None,2141,1220,None,None,None,None,None,None,None,None,None,None,None,None,None,None,None,None
.32,2016-01-03 00:00:32,2016-01-03 00:09:37,8.3,0,0,N,None,None,None,None,-73.993759155273438,40.751621246337891,1,6,0.5,None,None,0.3,7,0.5,-73.990867614746094,40.756088256835937,None,None,2,NY CITY CENTRAL PARK NY US,WBAN:94728,1,FM-15,None,None,None,None,None,None,None,None,None,None,None,None,-9999,-9999,None,None,None,-9999,-9999,None,None,None,None,None,None,None,None,None,None,None,None,None,None,None,None,None,None,None,None,None,None,None,None,-73.9669,40.7889,0,None,000,30,-1.0,10.00,29.79,29.94,CLR:00,54,8,None,0.00,None,20,-6.7,35,1.7,29.96,39.6,2016-01-03 00:51,None,None,None,2141,1220,None,None,None,None,None,None,None,None,None,None,None,None,None,None,None,None
3.70,2016-01-03 00:00:34,2016-01-03 00:10:36,20,0,5.7,N,None,None,None,None,-73.978317260742188,40.763179779052734,1,1,0.5,None,None,0.3,13,0.5,-73.921607971191406,40.741374969482422,None,None,1,NY CITY CENTRAL PARK NY US,WBAN:94728,1,FM-15,None,None,None,None,None,None,None,None,None,None,None,None,-9999,-9999,None,None,None,-9999,-9999,None,None,None,None,None,None,None,None,None,None,None,None,None,None,None,None,None,None,None,None,None,None,None,None,-73.9669,40.7889,0,None,000,30,-1.0,10.00,29.79,29.94,CLR:00,54,8,None,0.00,None,20,-6.7,35,1.7,29.96,39.6,2016-01-03 00:51,None,None,None,2141,1220,None,None,None,None,None,None,None,None,None,None,None,None,None,None,None,None
1.61,2016-01-03 00:00:36,2016-01-03 00:10:02,9.8,0,0,N,None,None,None,None,-73.963752746582031,40.771160125732422,2,1,0.5,None,None,0.3,8.5,0.5,-73.975601196289063,40.752738952636719,None,None,2,NY CITY CENTRAL PARK NY US,WBAN:94728,1,FM-15,None,None,None,None,None,None,None,None,None,None,None,None,-9999,-9999,None,None,None,-9999,-9999,None,None,None,None,None,None,None,None,None,None,None,None,None,None,None,None,None,None,None,None,None,None,None,None,-73.9669,40.7889,0,None,000,30,-1.0,10.00,29.79,29.94,CLR:00,54,8,None,0.00,None,20,-6.7,35,1.7,29.96,39.6,2016-01-03 00:51,None,None,None,2141,1220,None,None,None,None,None,None,None,None,None,None,None,None,None,None,None,None
1.20,2016-01-03 00:00:37,2016-01-03 00:06:01,10.1,0,2.3,N,None,None,None,None,-73.976020812988281,40.744560241699219,1,1,0.5,None,None,0.3,6.5,0.5,-73.96649169921875,40.753662109375,None,None,1,NY CITY CENTRAL PARK NY US,WBAN:94728,1,FM-15,None,None,None,None,None,None,None,None,None,None,None,None,-9999,-9999,None,None,None,-9999,-9999,None,None,None,None,None,None,None,None,None,None,None,None,None,None,None,None,None,None,None,None,None,None,None,None,-73.9669,40.7889,0,None,000,30,-1.0,10.00,29.79,29.94,CLR:00,54,8,None,0.00,None,20,-6.7,35,1.7,29.96,39.6,2016-01-03 00:51,None,None,None,2141,1220,None,None,None,None,None,None,None,None,None,None,None,None,None,None,None,None
8.80,2016-01-03 00:00:38,2016-01-03 00:17:25,32.75,0,5.45,N,2016-12-31 00:00:00,2016-01-01 00:00:00,New York,10022,-73.976791381835938,40.733699798583984,1,1,0.5,-73.968,40.759,0.3,26,0.5,-73.892143249511719,40.750724792480469,New York,2,1,NY CITY CENTRAL PARK NY US,WBAN:94728,1,FM-15,None,None,None,None,None,None,None,None,None,None,None,None,-9999,-9999,None,None,None,-9999,-9999,None,None,None,None,None,None,None,None,None,None,None,None,None,None,None,None,None,None,None,None,None,None,None,None,-73.9669,40.7889,0,None,000,30,-1.0,10.00,29.79,29.94,CLR:00,54,8,None,0.00,None,20,-6.7,35,1.7,29.96,39.6,2016-01-03 00:51,None,None,None,2141,1220,None,None,None,None,None,None,None,None,None,None,None,None,None,None,None,None
14.04,2016-01-03 00:00:38,2016-01-03 00:34:04,43.3,0,0,N,None,None,None,None,-73.984283447265625,40.748058319091797,2,1,0.5,None,None,0.3,42,0.5,-73.992088317871094,40.609176635742187,None,None,2,NY CITY CENTRAL PARK NY US,WBAN:94728,1,FM-15,None,None,None,None,None,None,None,None,None,None,None,None,-9999,-9999,None,None,None,-9999,-9999,None,None,None,None,None,None,None,None,None,None,None,None,None,None,None,None,None,None,None,None,None,None,None,None,-73.9669,40.7889,0,None,000,30,-1.0,10.00,29.79,29.94,CLR:00,54,8,None,0.00,None,20,-6.7,35,1.7,29.96,39.6,2016-01-03 00:51,None,None,None,2141,1220,None,None,None,None,None,None,None,None,None,None,None,None,None,None,None,None
2.20,2016-01-03 00:00:39,2016-01-03 00:08:41,10.3,0,0,N,None,None,None,None,-73.969871520996094,40.768508911132813,2,1,0.5,None,None,0.3,9,0.5,-73.949348449707031,40.787765502929688,None,None,1,NY CITY CENTRAL PARK NY US,WBAN:94728,1,FM-15,None,None,None,None,None,None,None,None,None,None,None,None,-9999,-9999,None,None,None,-9999,-9999,None,None,None,None,None,None,None,None,None,None,None,None,None,None,None,None,None,None,None,None,None,None,None,None,-73.9669,40.7889,0,None,000,30,-1.0,10.00,29.79,29.94,CLR:00,54,8,None,0.00,None,20,-6.7,35,1.7,29.96,39.6,2016-01-03 00:51,None,None,None,2141,1220,None,None,None,None,None,None,None,None,None,None,None,None,None,None,None,None
4.30,2016-01-03 00:00:40,2016-01-03 00:14:03,16.8,0,0,N,None,2016-01-01 12:00:00,New York,10029,-73.966178894042969,40.762222290039063,2,1,0.5,-73.9519050,40.7924950,0.3,15.5,0.5,-73.897758483886719,40.743141174316406,New York,0,1,NY CITY CENTRAL PARK NY US,WBAN:94728,1,FM-15,None,None,None,None,None,None,None,None,None,None,None,None,-9999,-9999,None,None,None,-9999,-9999,None,None,None,None,None,None,None,None,None,None,None,None,None,None,None,None,None,None,None,None,None,None,None,None,-73.9669,40.7889,0,None,000,30,-1.0,10.00,29.79,29.94,CLR:00,54,8,None,0.00,None,20,-6.7,35,1.7,29.96,39.6,2016-01-03 00:51,None,None,None,2141,1220,None,None,None,None,None,None,None,None,None,None,None,None,None,None,None,None
1.30,2016-01-03 00:00:40,2016-01-03 00:11:05,10.8,0,1,N,None,None,None,None,-74.004379272460937,40.742252349853516,1,2,0.5,None,None,0.3,8.5,0.5,-73.984222412109375,40.738197326660156,None,None,1,NY CITY CENTRAL PARK NY US,WBAN:94728,1,FM-15,None,None,None,None,None,None,None,None,None,None,None,None,-9999,-9999,None,None,None,-9999,-9999,None,None,None,None,None,None,None,None,None,None,None,None,None,None,None,None,None,None,None,None,None,None,None,None,-73.9669,40.7889,0,None,000,30,-1.0,10.00,29.79,29.94,CLR:00,54,8,None,0.00,None,20,-6.7,35,1.7,29.96,39.6,2016-01-03 00:51,None,None,None,2141,1220,None,None,None,None,None,None,None,None,None,None,None,None,None,None,None,None
1.03,2016-01-03 00:00:40,2016-01-03 00:07:33,7.8,0,0,N,None,None,None,None,-73.9913330078125,40.723892211914063,2,1,0.5,None,None,0.3,6.5,0.5,-73.983688354492187,40.721515655517578,None,None,2,NY CITY CENTRAL PARK NY US,WBAN:94728,1,FM-15,None,None,None,None,None,None,None,None,None,None,None,None,-9999,-9999,None,None,None,-9999,-9999,None,None,None,None,None,None,None,None,None,None,None,None,None,None,None,None,None,None,None,None,None,None,None,None,-73.9669,40.7889,0,None,000,30,-1.0,10.00,29.79,29.94,CLR:00,54,8,None,0.00,None,20,-6.7,35,1.7,29.96,39.6,2016-01-03 00:51,None,None,None,2141,1220,None,None,None,None,None,None,None,None,None,None,None,None,None,None,None,None
.00,2016-01-03 00:00:41,2016-01-03 00:00:46,20.8,0,0,N,None | None,2016-01-01 03:00:00 | 2016-01-01 11:00:00,New York | New York,10002 | 10002,0,0,2,5,0,-73.9847 | -73.9847,40.7182 | 40.7182,0.3,20,0.5,0,0,New York | New York,0 | 0,2,NY CITY CENTRAL PARK NY US,WBAN:94728,3,FM-15,None,None,None,None,None,None,None,None,None,None,None,None,-9999,-9999,None,None,None,-9999,-9999,None,None,None,None,None,None,None,None,None,None,None,None,None,None,None,None,None,None,None,None,None,None,None,None,-73.9669,40.7889,0,None,000,30,-1.0,10.00,29.79,29.94,CLR:00,54,8,None,0.00,None,20,-6.7,35,1.7,29.96,39.6,2016-01-03 00:51,None,None,None,2141,1220,None,None,None,None,None,None,None,None,None,None,None,None,None,None,None,None
1.10,2016-01-03 00:00:44,2016-01-03 00:05:15,8.3,0,1,N,None,None,None,None,-73.974159240722656,40.795730590820313,1,1,0.5,None,None,0.3,6,0.5,-73.962516784667969,40.804931640625,None,None,2,NY CITY CENTRAL PARK NY US,WBAN:94728,1,FM-15,None,None,None,None,None,None,None,None,None,None,None,None,-9999,-9999,None,None,None,-9999,-9999,None,None,None,None,None,None,None,None,None,None,None,None,None,None,None,None,None,None,None,None,None,None,None,None,-73.9669,40.7889,0,None,000,30,-1.0,10.00,29.79,29.94,CLR:00,54,8,None,0.00,None,20,-6.7,35,1.7,29.96,39.6,2016-01-03 00:51,None,None,None,2141,1220,None,None,None,None,None,None,None,None,None,None,None,None,None,None,None,None
1.85,2016-01-03 00:00:45,2016-01-03 00:09:17,9.8,0,0,N,None,None,None,None,-73.99420166015625,40.726470947265625,2,6,0.5,None,None,0.3,8.5,0.5,-74.014747619628906,40.716201782226563,None,None,2,NY CITY CENTRAL PARK NY US,WBAN:94728,1,FM-15,None,None,None,None,None,None,None,None,None,None,None,None,-9999,-9999,None,None,None,-9999,-9999,None,None,None,None,None,None,None,None,None,None,None,None,None,None,None,None,None,None,None,None,None,None,None,None,-73.9669,40.7889,0,None,000,30,-1.0,10.00,29.79,29.94,CLR:00,54,8,None,0.00,None,20,-6.7,35,1.7,29.96,39.6,2016-01-03 00:51,None,None,None,2141,1220,None,None,None,None,None,None,None,None,None,None,None,None,None,None,None,None
1.43,2016-01-03 00:00:47,2016-01-03 00:12:38,8.8,0,0,N,None | None,2016-01-01 00:00:00 | 2016-01-01 00:00:00,New York | New York,None | None,-73.989639282226563,40.734397888183594,2,1,0.5,-74.0064 | -74.0064,40.7142 | 40.7142,0.3,7.5,0.5,-73.978790283203125,40.724113464355469,New York | New York,1 | 1,2,NY CITY CENTRAL PARK NY US,WBAN:94728,1,FM-15,None,None,None,None,None,None,None,None,None,None,None,None,-9999,-9999,None,None,None,-9999,-9999,None,None,None,None,None,None,None,None,None,None,None,None,None,None,None,None,None,None,None,None,None,None,None,None,-73.9669,40.7889,0,None,000,30,-1.0,10.00,29.79,29.94,CLR:00,54,8,None,0.00,None,20,-6.7,35,1.7,29.96,39.6,2016-01-03 00:51,None,None,None,2141,1220,None,None,None,None,None,None,None,None,None,None,None,None,None,None,None,None
4.93,2016-01-03 00:00:47,2016-01-03 00:18:25,22.56,0,3.76,N,None,None,None,None,-74.001480102539063,40.727439880371094,1,1,0.5,None,None,0.3,17.5,0.5,-73.956451416015625,40.768150329589844,None,None,2,NY CITY CENTRAL PARK NY US,WBAN:94728,1,FM-15,None,None,None,None,None,None,None,None,None,None,None,None,-9999,-9999,None,None,None,-9999,-9999,None,None,None,None,None,None,None,None,None,None,None,None,None,None,None,None,None,None,None,None,None,None,None,None,-73.9669,40.7889,0,None,000,30,-1.0,10.00,29.79,29.94,CLR:00,54,8,None,0.00,None,20,-6.7,35,1.7,29.96,39.6,2016-01-03 00:51,None,None,None,2141,1220,None,None,None,None,None,None,None,None,None,None,None,None,None,None,None,None
.80,2016-01-03 00:00:48,2016-01-03 00:03:38,7.25,0,1.45,N,None,None,None,None,-73.979156494140625,40.740509033203125,1,1,0.5,None,None,0.3,4.5,0.5,-73.988525390625,40.734645843505859,None,None,1,NY CITY CENTRAL PARK NY US,WBAN:94728,1,FM-15,None,None,None,None,None,None,None,None,None,None,None,None,-9999,-9999,None,None,None,-9999,-9999,None,None,None,None,None,None,None,None,None,None,None,None,None,None,None,None,None,None,None,None,None,None,None,None,-73.9669,40.7889,0,None,000,30,-1.0,10.00,29.79,29.94,CLR:00,54,8,None,0.00,None,20,-6.7,35,1.7,29.96,39.6,2016-01-03 00:51,None,None,None,2141,1220,None,None,None,None,None,None,None,None,None,None,None,None,None,None,None,None
8.70,2016-01-03 00:00:49,2016-01-03 00:13:15,26.3,0,0,N,None,2016-01-01 09:00:00,New York,10003,-73.953926086425781,40.766944885253906,1,2,0.5,-73.9870210,40.7308580,0.3,25,0.5,-73.924461364746094,40.861392974853516,New York,0,1,NY CITY CENTRAL PARK NY US,WBAN:94728,1,FM-15,None,None,None,None,None,None,None,None,None,None,None,None,-9999,-9999,None,None,None,-9999,-9999,None,None,None,None,None,None,None,None,None,None,None,None,None,None,None,None,None,None,None,None,None,None,None,None,-73.9669,40.7889,0,None,000,30,-1.0,10.00,29.79,29.94,CLR:00,54,8,None,0.00,None,20,-6.7,35,1.7,29.96,39.6,2016-01-03 00:51,None,None,None,2141,1220,None,None,None,None,None,None,None,None,None,None,None,None,None,None,None,None
1.22,2016-01-03 00:00:49,2016-01-03 00:09:01,8.8,0,0,N,None,None,None,None,-73.982139587402344,40.771686553955078,2,1,0.5,None,None,0.3,7.5,0.5,-73.974456787109375,40.762485504150391,None,None,2,NY CITY CENTRAL PARK NY US,WBAN:94728,1,FM-15,None,None,None,None,None,None,None,None,None,None,None,None,-9999,-9999,None,None,None,-9999,-9999,None,None,None,None,None,None,None,None,None,None,None,None,None,None,None,None,None,None,None,None,None,None,None,None,-73.9669,40.7889,0,None,000,30,-1.0,10.00,29.79,29.94,CLR:00,54,8,None,0.00,None,20,-6.7,35,1.7,29.96,39.6,2016-01-03 00:51,None,None,None,2141,1220,None,None,None,None,None,None,None,None,None,None,None,None,None,None,None,None
11.87,2016-01-03 00:00:50,2016-01-03 00:19:47,42.88,0,8.58,N,None | 2016-12-31 00:00:00,2016-01-01 00:00:00 | 2016-01-01 00:00:00,New York | New York,10019 | 10022,-73.78082275390625,40.645183563232422,1,2,0.5,-73.9803996 | -73.968,40.7656668 | 40.759,0.3,33,0.5,-73.890846252441406,40.743007659912109,New York | New York,1 | 2,2,NY CITY CENTRAL PARK NY US,WBAN:94728,1,FM-15,None,None,None,None,None,None,None,None,None,None,None,None,-9999,-9999,None,None,None,-9999,-9999,None,None,None,None,None,None,None,None,None,None,None,None,None,None,None,None,None,None,None,None,None,None,None,None,-73.9669,40.7889,0,None,000,30,-1.0,10.00,29.79,29.94,CLR:00,54,8,None,0.00,None,20,-6.7,35,1.7,29.96,39.6,2016-01-03 00:51,None,None,None,2141,1220,None,None,None,None,None,None,None,None,None,None,None,None,None,None,None,None
.72,2016-01-03 00:00:50,2016-01-03 00:06:29,8.16,0,1.36,N,None,None,None,None,-73.997398376464844,40.720748901367188,1,6,0.5,None,None,0.3,5.5,0.5,-73.999183654785156,40.7279052734375,None,None,2,NY CITY CENTRAL PARK NY US,WBAN:94728,1,FM-15,None,None,None,None,None,None,None,None,None,None,None,None,-9999,-9999,None,None,None,-9999,-9999,None,None,None,None,None,None,None,None,None,None,None,None,None,None,None,None,None,None,None,None,None,None,None,None,-73.9669,40.7889,0,None,000,30,-1.0,10.00,29.79,29.94,CLR:00,54,8,None,0.00,None,20,-6.7,35,1.7,29.96,39.6,2016-01-03 00:51,None,None,None,2141,1220,None,None,None,None,None,None,None,None,None,None,None,None,None,None,None,None
3.10,2016-01-03 00:00:52,2016-01-03 00:29:50,24.95,0,4.15,N,None,None,None,None,-73.984046936035156,40.755279541015625,1,2,0.5,None,None,0.3,19.5,0.5,-73.995147705078125,40.720634460449219,None,None,1,NY CITY CENTRAL PARK NY US,WBAN:94728,1,FM-15,None,None,None,None,None,None,None,None,None,None,None,None,-9999,-9999,None,None,None,-9999,-9999,None,None,None,None,None,None,None,None,None,None,None,None,None,None,None,None,None,None,None,None,None,None,None,None,-73.9669,40.7889,0,None,000,30,-1.0,10.00,29.79,29.94,CLR:00,54,8,None,0.00,None,20,-6.7,35,1.7,29.96,39.6,2016-01-03 00:51,None,None,None,2141,1220,None,None,None,None,None,None,None,None,None,None,None,None,None,None,None,None
1.80,2016-01-03 00:00:52,2016-01-03 00:08:00,9.3,0,0,N,None,None,None,None,-73.983871459960937,40.742408752441406,2,3,0.5,None,None,0.3,8,0.5,-74.002365112304687,40.726348876953125,None,None,1,NY CITY CENTRAL PARK NY US,WBAN:94728,1,FM-15,None,None,None,None,None,None,None,None,None,None,None,None,-9999,-9999,None,None,None,-9999,-9999,None,None,None,None,None,None,None,None,None,None,None,None,None,None,None,None,None,None,None,None,None,None,None,None,-73.9669,40.7889,0,None,000,30,-1.0,10.00,29.79,29.94,CLR:00,54,8,None,0.00,None,20,-6.7,35,1.7,29.96,39.6,2016-01-03 00:51,None,None,None,2141,1220,None,None,None,None,None,None,None,None,None,None,None,None,None,None,None,None
2.50,2016-01-03 00:00:52,2016-01-03 00:11:18,11.8,0,0,N,None,2016-01-01 20:00:00,New York,10013,-73.995750427246094,40.744091033935547,2,1,0.5,-74.0050159,40.7208412,0.3,10.5,0.5,-74.009750366210937,40.712760925292969,New York,0,2,NY CITY CENTRAL PARK NY US,WBAN:94728,1,FM-15,None,None,None,None,None,None,None,None,None,None,None,None,-9999,-9999,None,None,None,-9999,-9999,None,None,None,None,None,None,None,None,None,None,None,None,None,None,None,None,None,None,None,None,None,None,None,None,-73.9669,40.7889,0,None,000,30,-1.0,10.00,29.79,29.94,CLR:00,54,8,None,0.00,None,20,-6.7,35,1.7,29.96,39.6,2016-01-03 00:51,None,None,None,2141,1220,None,None,None,None,None,None,None,None,None,None,None,None,None,None,None,None
4.90,2016-01-03 00:00:53,2016-01-03 00:22:27,22,0,1.7,N,None | None | None,2016-01-01 00:00:00 | 2016-01-01 00:00:00 | 2016-01-01 02:00:00,New York | New York | New York,None | None | 10038,-73.985084533691406,40.747165679931641,1,1,0.5,-74.0064 | -74.0064 | -74.0081571,40.7142 | 40.7142 | 40.7090990,0.3,19,0.5,-73.958038330078125,40.717491149902344,New York | New York | New York,1 | 1 | 0,1,NY CITY CENTRAL PARK NY US,WBAN:94728,1,FM-15,None,None,None,None,None,None,None,None,None,None,None,None,-9999,-9999,None,None,None,-9999,-9999,None,None,None,None,None,None,None,None,None,None,None,None,None,None,None,None,None,None,None,None,None,None,None,None,-73.9669,40.7889,0,None,000,30,-1.0,10.00,29.79,29.94,CLR:00,54,8,None,0.00,None,20,-6.7,35,1.7,29.96,39.6,2016-01-03 00:51,None,None,None,2141,1220,None,None,None,None,None,None,None,None,None,None,None,None,None,None,None,None
1.53,2016-01-03 00:00:54,2016-01-03 00:08:43,11.16,0,1.86,N,None,None,None,None,-73.971000671386719,40.797641754150391,1,1,0.5,None,None,0.3,8,0.5,-73.953697204589844,40.785129547119141,None,None,2,NY CITY CENTRAL PARK NY US,WBAN:94728,1,FM-15,None,None,None,None,None,None,None,None,None,None,None,None,-9999,-9999,None,None,None,-9999,-9999,None,None,None,None,None,None,None,None,None,None,None,None,None,None,None,None,None,None,None,None,None,None,None,None,-73.9669,40.7889,0,None,000,30,-1.0,10.00,29.79,29.94,CLR:00,54,8,None,0.00,None,20,-6.7,35,1.7,29.96,39.6,2016-01-03 00:51,None,None,None,2141,1220,None,None,None,None,None,None,None,None,None,None,None,None,None,None,None,None
1.10,2016-01-03 00:00:55,2016-01-03 00:17:14,12.3,0,0,N,None,None,None,None,-73.984153747558594,40.764858245849609,2,1,0.5,None,None,0.3,11,0.5,-73.97802734375,40.762935638427734,None,None,1,NY CITY CENTRAL PARK NY US,WBAN:94728,1,FM-15,None,None,None,None,None,None,None,None,None,None,None,None,-9999,-9999,None,None,None,-9999,-9999,None,None,None,None,None,None,None,None,None,None,None,None,None,None,None,None,None,None,None,None,None,None,None,None,-73.9669,40.7889,0,None,000,30,-1.0,10.00,29.79,29.94,CLR:00,54,8,None,0.00,None,20,-6.7,35,1.7,29.96,39.6,2016-01-03 00:51,None,None,None,2141,1220,None,None,None,None,None,None,None,None,None,None,None,None,None,None,None,None
15.64,2016-01-03 00:00:55,2016-01-03 00:28:34,45.3,0,0,N,None | 2016-07-03 00:00:00,2016-01-01 00:00:00 | 2015-10-08 00:00:00,New York | New York,10019 | 10019,-73.787139892578125,40.644050598144531,2,4,0.5,-73.9803996 | -73.9844951,40.7656668 | 40.7632328,0.3,44,0.5,-73.94842529296875,40.730735778808594,New York | New York,1 | 2,2,NY CITY CENTRAL PARK NY US,WBAN:94728,1,FM-15,None,None,None,None,None,None,None,None,None,None,None,None,-9999,-9999,None,None,None,-9999,-9999,None,None,None,None,None,None,None,None,None,None,None,None,None,None,None,None,None,None,None,None,None,None,None,None,-73.9669,40.7889,0,None,000,30,-1.0,10.00,29.79,29.94,CLR:00,54,8,None,0.00,None,20,-6.7,35,1.7,29.96,39.6,2016-01-03 00:51,None,None,None,2141,1220,None,None,None,None,None,None,None,None,None,None,None,None,None,None,None,None
5.70,2016-01-03 00:00:56,2016-01-03 00:17:24,37.8,10.5,8,N,None,None,None,None,-73.987724304199219,40.750568389892578,1,1,0.5,None,None,0.3,18,0.5,-74.035568237304688,40.713573455810547,None,None,1,NY CITY CENTRAL PARK NY US,WBAN:94728,1,FM-15,None,None,None,None,None,None,None,None,None,None,None,None,-9999,-9999,None,None,None,-9999,-9999,None,None,None,None,None,None,None,None,None,None,None,None,None,None,None,None,None,None,None,None,None,None,None,None,-73.9669,40.7889,0,None,000,30,-1.0,10.00,29.79,29.94,CLR:00,54,8,None,0.00,None,20,-6.7,35,1.7,29.96,39.6,2016-01-03 00:51,None,None,None,2141,1220,None,None,None,None,None,None,None,None,None,None,None,None,None,None,None,None
2.56,2016-01-03 00:00:57,2016-01-03 00:10:48,14.16,0,2.36,N,None,None,None,None,-73.979652404785156,40.776119232177734,1,6,0.5,None,None,0.3,10.5,0.5,-73.964683532714844,40.806755065917969,None,None,2,NY CITY CENTRAL PARK NY US,WBAN:94728,1,FM-15,None,None,None,None,None,None,None,None,None,None,None,None,-9999,-9999,None,None,None,-9999,-9999,None,None,None,None,None,None,None,None,None,None,None,None,None,None,None,None,None,None,None,None,None,None,None,None,-73.9669,40.7889,0,None,000,30,-1.0,10.00,29.79,29.94,CLR:00,54,8,None,0.00,None,20,-6.7,35,1.7,29.96,39.6,2016-01-03 00:51,None,None,None,2141,1220,None,None,None,None,None,None,None,None,None,None,None,None,None,None,None,None
15.25,2016-01-03 00:01:00,2016-01-03 00:18:06,41.8,0,0,N,None,None,None,None,-73.781806945800781,40.644863128662109,1,3,0.5,None,None,0.3,40.5,0.5,-73.937973022460938,40.726325988769531,None,None,2,NY CITY CENTRAL PARK NY US,WBAN:94728,1,FM-15,None,None,None,None,None,None,None,None,None,None,None,None,-9999,-9999,None,None,None,-9999,-9999,None,None,None,None,None,None,None,None,None,None,None,None,None,None,None,None,None,None,None,None,None,None,None,None,-73.9669,40.7889,0,None,000,30,-1.0,10.00,29.79,29.94,CLR:00,54,8,None,0.00,None,20,-6.7,35,1.7,29.96,39.6,2016-01-03 00:51,None,None,None,2141,1220,None,None,None,None,None,None,None,None,None,None,None,None,None,None,None,None
1.65,2016-01-03 00:01:01,2016-01-03 00:07:49,8.8,0,0,N,None,None,None,None,-73.965278625488281,40.801040649414063,2,5,0.5,None,None,0.3,7.5,0.5,-73.947479248046875,40.815170288085937,None,None,2,NY CITY CENTRAL PARK NY US,WBAN:94728,1,FM-15,None,None,None,None,None,None,None,None,None,None,None,None,-9999,-9999,None,None,None,-9999,-9999,None,None,None,None,None,None,None,None,None,None,None,None,None,None,None,None,None,None,None,None,None,None,None,None,-73.9669,40.7889,0,None,000,30,-1.0,10.00,29.79,29.94,CLR:00,54,8,None,0.00,None,20,-6.7,35,1.7,29.96,39.6,2016-01-03 00:51,None,None,None,2141,1220,None,None,None,None,None,None,None,None,None,None,None,None,None,None,None,None
7.85,2016-01-03 00:01:01,2016-01-03 00:13:08,35.21,5.54,5.87,N,None,None,None,None,-73.979629516601563,40.743255615234375,1,6,0.5,None,None,0.3,22.5,0.5,-73.911872863769531,40.764629364013672,None,None,2,NY CITY CENTRAL PARK NY US,WBAN:94728,1,FM-15,None,None,None,None,None,None,None,None,None,None,None,None,-9999,-9999,None,None,None,-9999,-9999,None,None,None,None,None,None,None,None,None,None,None,None,None,None,None,None,None,None,None,None,None,None,None,None,-73.9669,40.7889,0,None,000,30,-1.0,10.00,29.79,29.94,CLR:00,54,8,None,0.00,None,20,-6.7,35,1.7,29.96,39.6,2016-01-03 00:51,None,None,None,2141,1220,None,None,None,None,None,None,None,None,None,None,None,None,None,None,None,None
1.28,2016-01-03 00:01:03,2016-01-03 00:20:29,12.8,0,0,N,None,None,None,None,-73.984420776367188,40.767238616943359,2,2,0.5,None,None,0.3,11.5,0.5,-73.978599548339844,40.754261016845703,None,None,2,NY CITY CENTRAL PARK NY US,WBAN:94728,1,FM-15,None,None,None,None,None,None,None,None,None,None,None,None,-9999,-9999,None,None,None,-9999,-9999,None,None,None,None,None,None,None,None,None,None,None,None,None,None,None,None,None,None,None,None,None,None,None,None,-73.9669,40.7889,0,None,000,30,-1.0,10.00,29.79,29.94,CLR:00,54,8,None,0.00,None,20,-6.7,35,1.7,29.96,39.6,2016-01-03 00:51,None,None,None,2141,1220,None,None,None,None,None,None,None,None,None,None,None,None,None,None,None,None
3.18,2016-01-03 00:01:06,2016-01-03 00:26:34,18.3,0,0,N,None,None,None,None,-74.010993957519531,40.708873748779297,2,1,0.5,None,None,0.3,17,0.5,-73.988052368164063,40.749320983886719,None,None,2,NY CITY CENTRAL PARK NY US,WBAN:94728,1,FM-15,None,None,None,None,None,None,None,None,None,None,None,None,-9999,-9999,None,None,None,-9999,-9999,None,None,None,None,None,None,None,None,None,None,None,None,None,None,None,None,None,None,None,None,None,None,None,None,-73.9669,40.7889,0,None,000,30,-1.0,10.00,29.79,29.94,CLR:00,54,8,None,0.00,None,20,-6.7,35,1.7,29.96,39.6,2016-01-03 00:51,None,None,None,2141,1220,None,None,None,None,None,None,None,None,None,None,None,None,None,None,None,None
.56,2016-01-03 00:01:06,2016-01-03 00:04:38,5.8,0,0,N,None,None,None,None,-73.980743408203125,40.746910095214844,2,1,0.5,None,None,0.3,4.5,0.5,-73.990867614746094,40.75115966796875,None,None,2,NY CITY CENTRAL PARK NY US,WBAN:94728,1,FM-15,None,None,None,None,None,None,None,None,None,None,None,None,-9999,-9999,None,None,None,-9999,-9999,None,None,None,None,None,None,None,None,None,None,None,None,None,None,None,None,None,None,None,None,None,None,None,None,-73.9669,40.7889,0,None,000,30,-1.0,10.00,29.79,29.94,CLR:00,54,8,None,0.00,None,20,-6.7,35,1.7,29.96,39.6,2016-01-03 00:51,None,None,None,2141,1220,None,None,None,None,None,None,None,None,None,None,None,None,None,None,None,None
.94,2016-01-03 00:01:07,2016-01-03 00:05:04,6.3,0,0,N,None,None,None,None,-73.991973876953125,40.726478576660156,2,2,0.5,None,None,0.3,5,0.5,-74.003082275390625,40.722049713134766,None,None,2,NY CITY CENTRAL PARK NY US,WBAN:94728,1,FM-15,None,None,None,None,None,None,None,None,None,None,None,None,-9999,-9999,None,None,None,-9999,-9999,None,None,None,None,None,None,None,None,None,None,None,None,None,None,None,None,None,None,None,None,None,None,None,None,-73.9669,40.7889,0,None,000,30,-1.0,10.00,29.79,29.94,CLR:00,54,8,None,0.00,None,20,-6.7,35,1.7,29.96,39.6,2016-01-03 00:51,None,None,None,2141,1220,None,None,None,None,None,None,None,None,None,None,None,None,None,None,None,None
3.20,2016-01-03 00:01:08,2016-01-03 00:19:36,18.95,0,3.15,N,None,2016-01-01 20:00:00,New York,10013,-74.00213623046875,40.760639190673828,1,1,0.5,-74.0050159,40.7208412,0.3,14.5,0.5,-73.972892761230469,40.743450164794922,New York,0,1,NY CITY CENTRAL PARK NY US,WBAN:94728,1,FM-15,None,None,None,None,None,None,None,None,None,None,None,None,-9999,-9999,None,None,None,-9999,-9999,None,None,None,None,None,None,None,None,None,None,None,None,None,None,None,None,None,None,None,None,None,None,None,None,-73.9669,40.7889,0,None,000,30,-1.0,10.00,29.79,29.94,CLR:00,54,8,None,0.00,None,20,-6.7,35,1.7,29.96,39.6,2016-01-03 00:51,None,None,None,2141,1220,None,None,None,None,None,None,None,None,None,None,None,None,None,None,None,None
2.70,2016-01-03 00:01:08,2016-01-03 00:17:13,18.55,0,4.25,N,None,None,None,None,-73.994972229003906,40.760234832763672,1,1,0.5,None,None,0.3,13,0.5,-74.00152587890625,40.735855102539063,None,None,1,NY CITY CENTRAL PARK NY US,WBAN:94728,1,FM-15,None,None,None,None,None,None,None,None,None,None,None,None,-9999,-9999,None,None,None,-9999,-9999,None,None,None,None,None,None,None,None,None,None,None,None,None,None,None,None,None,None,None,None,None,None,None,None,-73.9669,40.7889,0,None,000,30,-1.0,10.00,29.79,29.94,CLR:00,54,8,None,0.00,None,20,-6.7,35,1.7,29.96,39.6,2016-01-03 00:51,None,None,None,2141,1220,None,None,None,None,None,None,None,None,None,None,None,None,None,None,None,None
5.00,2016-01-03 00:01:08,2016-01-03 00:23:22,25.3,0,4.5,N,None,None,None,None,-74.002265930175781,40.730369567871094,1,1,0.5,None,None,0.3,19.5,0.5,-73.951683044433594,40.77349853515625,None,None,1,NY CITY CENTRAL PARK NY US,WBAN:94728,1,FM-15,None,None,None,None,None,None,None,None,None,None,None,None,-9999,-9999,None,None,None,-9999,-9999,None,None,None,None,None,None,None,None,None,None,None,None,None,None,None,None,None,None,None,None,None,None,None,None,-73.9669,40.7889,0,None,000,30,-1.0,10.00,29.79,29.94,CLR:00,54,8,None,0.00,None,20,-6.7,35,1.7,29.96,39.6,2016-01-03 00:51,None,None,None,2141,1220,None,None,None,None,None,None,None,None,None,None,None,None,None,None,None,None
1.60,2016-01-03 00:01:09,2016-01-03 00:06:37,9.35,0,1.55,N,None,None,None,None,-73.980827331542969,40.779640197753906,1,2,0.5,None,None,0.3,6.5,0.5,-73.971412658691406,40.798587799072266,None,None,1,NY CITY CENTRAL PARK NY US,WBAN:94728,1,FM-15,None,None,None,None,None,None,None,None,None,None,None,None,-9999,-9999,None,None,None,-9999,-9999,None,None,None,None,None,None,None,None,None,None,None,None,None,None,None,None,None,None,None,None,None,None,None,None,-73.9669,40.7889,0,None,000,30,-1.0,10.00,29.79,29.94,CLR:00,54,8,None,0.00,None,20,-6.7,35,1.7,29.96,39.6,2016-01-03 00:51,None,None,None,2141,1220,None,None,None,None,None,None,None,None,None,None,None,None,None,None,None,None
.58,2016-01-03 00:01:09,2016-01-03 00:05:23,7.56,0,1.26,N,None,None,None,None,-73.998077392578125,40.737968444824219,1,1,0.5,None,None,0.3,5,0.5,-74.004127502441406,40.742790222167969,None,None,2,NY CITY CENTRAL PARK NY US,WBAN:94728,1,FM-15,None,None,None,None,None,None,None,None,None,None,None,None,-9999,-9999,None,None,None,-9999,-9999,None,None,None,None,None,None,None,None,None,None,None,None,None,None,None,None,None,None,None,None,None,None,None,None,-73.9669,40.7889,0,None,000,30,-1.0,10.00,29.79,29.94,CLR:00,54,8,None,0.00,None,20,-6.7,35,1.7,29.96,39.6,2016-01-03 00:51,None,None,None,2141,1220,None,None,None,None,None,None,None,None,None,None,None,None,None,None,None,None
6.00,2016-01-03 00:01:10,2016-01-03 00:36:55,32.16,0,5.36,N,None,None,None,None,-73.999443054199219,40.729835510253906,1,2,0.5,None,None,0.3,25.5,0.5,-73.964179992675781,40.803153991699219,None,None,1,NY CITY CENTRAL PARK NY US,WBAN:94728,1,FM-15,None,None,None,None,None,None,None,None,None,None,None,None,-9999,-9999,None,None,None,-9999,-9999,None,None,None,None,None,None,None,None,None,None,None,None,None,None,None,None,None,None,None,None,None,None,None,None,-73.9669,40.7889,0,None,000,30,-1.0,10.00,29.79,29.94,CLR:00,54,8,None,0.00,None,20,-6.7,35,1.7,29.96,39.6,2016-01-03 00:51,None,None,None,2141,1220,None,None,None,None,None,None,None,None,None,None,None,None,None,None,None,None
2.51,2016-01-03 00:01:10,2016-01-03 00:08:00,10.8,0,0,N,None,None,None,None,-73.932708740234375,40.752861022949219,2,5,0.5,None,None,0.3,9.5,0.5,-73.963615417480469,40.757640838623047,None,None,2,NY CITY CENTRAL PARK NY US,WBAN:94728,1,FM-15,None,None,None,None,None,None,None,None,None,None,None,None,-9999,-9999,None,None,None,-9999,-9999,None,None,None,None,None,None,None,None,None,None,None,None,None,None,None,None,None,None,None,None,None,None,None,None,-73.9669,40.7889,0,None,000,30,-1.0,10.00,29.79,29.94,CLR:00,54,8,None,0.00,None,20,-6.7,35,1.7,29.96,39.6,2016-01-03 00:51,None,None,None,2141,1220,None,None,None,None,None,None,None,None,None,None,None,None,None,None,None,None
1.24,2016-01-03 00:01:10,2016-01-03 00:24:39,15.8,0,0,N,2016-12-31 00:00:00,2016-01-01 00:00:00,New York,10022,-73.981689453125,40.768390655517578,2,4,0.5,-73.968,40.759,0.3,14.5,0.5,-73.979751586914063,40.755538940429688,New York,2,2,NY CITY CENTRAL PARK NY US,WBAN:94728,1,FM-15,None,None,None,None,None,None,None,None,None,None,None,None,-9999,-9999,None,None,None,-9999,-9999,None,None,None,None,None,None,None,None,None,None,None,None,None,None,None,None,None,None,None,None,None,None,None,None,-73.9669,40.7889,0,None,000,30,-1.0,10.00,29.79,29.94,CLR:00,54,8,None,0.00,None,20,-6.7,35,1.7,29.96,39.6,2016-01-03 00:51,None,None,None,2141,1220,None,None,None,None,None,None,None,None,None,None,None,None,None,None,None,None
1.50,2016-01-03 00:01:11,2016-01-03 00:08:06,11,0,2.2,N,None,None,None,None,-74.003486633300781,40.741569519042969,1,1,0.5,None,None,0.3,7.5,0.5,-74.002357482910156,40.726341247558594,None,None,1,NY CITY CENTRAL PARK NY US,WBAN:94728,1,FM-15,None,None,None,None,None,None,None,None,None,None,None,None,-9999,-9999,None,None,None,-9999,-9999,None,None,None,None,None,None,None,None,None,None,None,None,None,None,None,None,None,None,None,None,None,None,None,None,-73.9669,40.7889,0,None,000,30,-1.0,10.00,29.79,29.94,CLR:00,54,8,None,0.00,None,20,-6.7,35,1.7,29.96,39.6,2016-01-03 00:51,None,None,None,2141,1220,None,None,None,None,None,None,None,None,None,None,None,None,None,None,None,None
1.40,2016-01-03 00:01:11,2016-01-03 00:07:04,10.75,0,2.45,N,None,2016-01-01 20:00:00,New York,10013,-73.977943420410156,40.783676147460938,1,2,0.5,-74.0050159,40.7208412,0.3,7,0.5,-73.955589294433594,40.773441314697266,New York,0,1,NY CITY CENTRAL PARK NY US,WBAN:94728,1,FM-15,None,None,None,None,None,None,None,None,None,None,None,None,-9999,-9999,None,None,None,-9999,-9999,None,None,None,None,None,None,None,None,None,None,None,None,None,None,None,None,None,None,None,None,None,None,None,None,-73.9669,40.7889,0,None,000,30,-1.0,10.00,29.79,29.94,CLR:00,54,8,None,0.00,None,20,-6.7,35,1.7,29.96,39.6,2016-01-03 00:51,None,None,None,2141,1220,None,None,None,None,None,None,None,None,None,None,None,None,None,None,None,None
1.89,2016-01-03 00:01:11,2016-01-03 00:11:15,10.3,0,0,N,None,None,None,None,-73.992568969726563,40.739616394042969,2,1,0.5,None,None,0.3,9,0.5,-73.995315551757812,40.721817016601563,None,None,2,NY CITY CENTRAL PARK NY US,WBAN:94728,1,FM-15,None,None,None,None,None,None,None,None,None,None,None,None,-9999,-9999,None,None,None,-9999,-9999,None,None,None,None,None,None,None,None,None,None,None,None,None,None,None,None,None,None,None,None,None,None,None,None,-73.9669,40.7889,0,None,000,30,-1.0,10.00,29.79,29.94,CLR:00,54,8,None,0.00,None,20,-6.7,35,1.7,29.96,39.6,2016-01-03 00:51,None,None,None,2141,1220,None,None,None,None,None,None,None,None,None,None,None,None,None,None,None,None
2.15,2016-01-03 00:01:12,2016-01-03 00:18:49,17.16,0,2.86,N,None,None,None,None,-73.977760314941406,40.752281188964844,1,1,0.5,None,None,0.3,13,0.5,-73.956825256347656,40.768070220947266,None,None,2,NY CITY CENTRAL PARK NY US,WBAN:94728,1,FM-15,None,None,None,None,None,None,None,None,None,None,None,None,-9999,-9999,None,None,None,-9999,-9999,None,None,None,None,None,None,None,None,None,None,None,None,None,None,None,None,None,None,None,None,None,None,None,None,-73.9669,40.7889,0,None,000,30,-1.0,10.00,29.79,29.94,CLR:00,54,8,None,0.00,None,20,-6.7,35,1.7,29.96,39.6,2016-01-03 00:51,None,None,None,2141,1220,None,None,None,None,None,None,None,None,None,None,None,None,None,None,None,None
2.50,2016-01-03 00:01:13,2016-01-03 00:22:09,15.8,0,0,N,None,None,None,None,-73.994255065917969,40.73199462890625,2,1,0.5,None,None,0.3,14.5,0.5,-73.9786376953125,40.751388549804688,None,None,1,NY CITY CENTRAL PARK NY US,WBAN:94728,1,FM-15,None,None,None,None,None,None,None,None,None,None,None,None,-9999,-9999,None,None,None,-9999,-9999,None,None,None,None,None,None,None,None,None,None,None,None,None,None,None,None,None,None,None,None,None,None,None,None,-73.9669,40.7889,0,None,000,30,-1.0,10.00,29.79,29.94,CLR:00,54,8,None,0.00,None,20,-6.7,35,1.7,29.96,39.6,2016-01-03 00:51,None,None,None,2141,1220,None,None,None,None,None,None,None,None,None,None,None,None,None,None,None,None
1.89,2016-01-03 00:01:13,2016-01-03 00:09:57,10.8,0,1,N,None,None,None,None,-73.985160827636719,40.744529724121094,1,5,0.5,None,None,0.3,8.5,0.5,-73.965461730957031,40.762851715087891,None,None,2,NY CITY CENTRAL PARK NY US,WBAN:94728,1,FM-15,None,None,None,None,None,None,None,None,None,None,None,None,-9999,-9999,None,None,None,-9999,-9999,None,None,None,None,None,None,None,None,None,None,None,None,None,None,None,None,None,None,None,None,None,None,None,None,-73.9669,40.7889,0,None,000,30,-1.0,10.00,29.79,29.94,CLR:00,54,8,None,0.00,None,20,-6.7,35,1.7,29.96,39.6,2016-01-03 00:51,None,None,None,2141,1220,None,None,None,None,None,None,None,None,None,None,None,None,None,None,None,None
.60,2016-01-03 00:01:14,2016-01-03 00:05:54,6.3,0,0,N,2016-12-31 00:00:00,2016-01-01 00:00:00,New York,10022,-73.982292175292969,40.751331329345703,1,1,0.5,-73.968,40.759,0.3,5,0.5,-73.991340637207031,40.750339508056641,New York,2,1,NY CITY CENTRAL PARK NY US,WBAN:94728,1,FM-15,None,None,None,None,None,None,None,None,None,None,None,None,-9999,-9999,None,None,None,-9999,-9999,None,None,None,None,None,None,None,None,None,None,None,None,None,None,None,None,None,None,None,None,None,None,None,None,-73.9669,40.7889,0,None,000,30,-1.0,10.00,29.79,29.94,CLR:00,54,8,None,0.00,None,20,-6.7,35,1.7,29.96,39.6,2016-01-03 00:51,None,None,None,2141,1220,None,None,None,None,None,None,None,None,None,None,None,None,None,None,None,None
24.00,2016-01-03 00:01:14,2016-01-03 00:38:19,185.75,14.5,30.95,N,None,None,None,None,-73.992301940917969,40.749290466308594,1,1,0,None,None,0.3,140,0,-74.320327758789063,40.720523834228516,None,None,1,NY CITY CENTRAL PARK NY US,WBAN:94728,5,FM-15,None,None,None,None,None,None,None,None,None,None,None,None,-9999,-9999,None,None,None,-9999,-9999,None,None,None,None,None,None,None,None,None,None,None,None,None,None,None,None,None,None,None,None,None,None,None,None,-73.9669,40.7889,0,None,000,30,-1.0,10.00,29.79,29.94,CLR:00,54,8,None,0.00,None,20,-6.7,35,1.7,29.96,39.6,2016-01-03 00:51,None,None,None,2141,1220,None,None,None,None,None,None,None,None,None,None,None,None,None,None,None,None
2.34,2016-01-03 00:01:14,2016-01-03 00:09:01,10.8,0,0,N,None,None,None,None,-73.934318542480469,40.751483917236328,2,1,0.5,None,None,0.3,9.5,0.5,-73.972511291503906,40.764915466308594,None,None,2,NY CITY CENTRAL PARK NY US,WBAN:94728,1,FM-15,None,None,None,None,None,None,None,None,None,None,None,None,-9999,-9999,None,None,None,-9999,-9999,None,None,None,None,None,None,None,None,None,None,None,None,None,None,None,None,None,None,None,None,None,None,None,None,-73.9669,40.7889,0,None,000,30,-1.0,10.00,29.79,29.94,CLR:00,54,8,None,0.00,None,20,-6.7,35,1.7,29.96,39.6,2016-01-03 00:51,None,None,None,2141,1220,None,None,None,None,None,None,None,None,None,None,None,None,None,None,None,None
13.64,2016-01-03 00:01:14,2016-01-03 00:31:34,40.3,0,0,N,None | 2016-12-31 00:00:00,2016-01-01 00:00:00 | 2016-01-01 00:00:00,New York | New York,10019 | 10022,-73.78192138671875,40.644760131835938,2,1,0.5,-73.9803996 | -73.968,40.7656668 | 40.759,0.3,39,0.5,-73.979248046875,40.661869049072266,New York | New York,1 | 2,2,NY CITY CENTRAL PARK NY US,WBAN:94728,1,FM-15,None,None,None,None,None,None,None,None,None,None,None,None,-9999,-9999,None,None,None,-9999,-9999,None,None,None,None,None,None,None,None,None,None,None,None,None,None,None,None,None,None,None,None,None,None,None,None,-73.9669,40.7889,0,None,000,30,-1.0,10.00,29.79,29.94,CLR:00,54,8,None,0.00,None,20,-6.7,35,1.7,29.96,39.6,2016-01-03 00:51,None,None,None,2141,1220,None,None,None,None,None,None,None,None,None,None,None,None,None,None,None,None
3.44,2016-01-03 00:01:15,2016-01-03 00:34:37,22.8,0,0,N,None,None,None,None,-73.95953369140625,40.782745361328125,2,5,0.5,None,None,0.3,21.5,0.5,-73.993759155273438,40.745582580566406,None,None,2,NY CITY CENTRAL PARK NY US,WBAN:94728,1,FM-15,None,None,None,None,None,None,None,None,None,None,None,None,-9999,-9999,None,None,None,-9999,-9999,None,None,None,None,None,None,None,None,None,None,None,None,None,None,None,None,None,None,None,None,None,None,None,None,-73.9669,40.7889,0,None,000,30,-1.0,10.00,29.79,29.94,CLR:00,54,8,None,0.00,None,20,-6.7,35,1.7,29.96,39.6,2016-01-03 00:51,None,None,None,2141,1220,None,None,None,None,None,None,None,None,None,None,None,None,None,None,None,None
7.04,2016-01-03 00:01:15,2016-01-03 00:13:15,27.25,0,5.45,N,None,None,None,None,-73.952644348144531,40.776496887207031,1,1,0.5,None,None,0.3,20.5,0.5,-74.005638122558594,40.709121704101563,None,None,2,NY CITY CENTRAL PARK NY US,WBAN:94728,1,FM-15,None,None,None,None,None,None,None,None,None,None,None,None,-9999,-9999,None,None,None,-9999,-9999,None,None,None,None,None,None,None,None,None,None,None,None,None,None,None,None,None,None,None,None,None,None,None,None,-73.9669,40.7889,0,None,000,30,-1.0,10.00,29.79,29.94,CLR:00,54,8,None,0.00,None,20,-6.7,35,1.7,29.96,39.6,2016-01-03 00:51,None,None,None,2141,1220,None,None,None,None,None,None,None,None,None,None,None,None,None,None,None,None
.20,2016-01-03 00:01:16,2016-01-03 00:03:52,4.8,0,0,N,None | None | None,2016-01-01 00:00:00 | 2016-01-01 00:00:00 | 2016-01-01 02:00:00,New York | New York | New York,None | None | 10038,-73.995613098144531,40.764671325683594,2,1,0.5,-74.0064 | -74.0064 | -74.0081571,40.7142 | 40.7142 | 40.7090990,0.3,3.5,0.5,-73.992149353027344,40.764148712158203,New York | New York | New York,1 | 1 | 0,1,NY CITY CENTRAL PARK NY US,WBAN:94728,1,FM-15,None,None,None,None,None,None,None,None,None,None,None,None,-9999,-9999,None,None,None,-9999,-9999,None,None,None,None,None,None,None,None,None,None,None,None,None,None,None,None,None,None,None,None,None,None,None,None,-73.9669,40.7889,0,None,000,30,-1.0,10.00,29.79,29.94,CLR:00,54,8,None,0.00,None,20,-6.7,35,1.7,29.96,39.6,2016-01-03 00:51,None,None,None,2141,1220,None,None,None,None,None,None,None,None,None,None,None,None,None,None,None,None
.90,2016-01-03 00:01:16,2016-01-03 00:13:16,9.8,0,0,N,2016-07-03 00:00:00,2015-10-08 00:00:00,New York,10019,-73.977432250976563,40.758316040039063,2,1,0.5,-73.9844951,40.7632328,0.3,8.5,0.5,-73.983444213867188,40.766860961914062,New York,2,1,NY CITY CENTRAL PARK NY US,WBAN:94728,1,FM-15,None,None,None,None,None,None,None,None,None,None,None,None,-9999,-9999,None,None,None,-9999,-9999,None,None,None,None,None,None,None,None,None,None,None,None,None,None,None,None,None,None,None,None,None,None,None,None,-73.9669,40.7889,0,None,000,30,-1.0,10.00,29.79,29.94,CLR:00,54,8,None,0.00,None,20,-6.7,35,1.7,29.96,39.6,2016-01-03 00:51,None,None,None,2141,1220,None,None,None,None,None,None,None,None,None,None,None,None,None,None,None,None
2.00,2016-01-03 00:01:17,2016-01-03 00:11:08,13.5,0,2.7,N,None | 2016-07-03 00:00:00,2016-01-01 00:00:00 | 2015-10-08 00:00:00,New York | New York,10019 | 10019,-73.927742004394531,40.697872161865234,1,1,0.5,-73.9803996 | -73.9844951,40.7656668 | 40.7632328,0.3,9.5,0.5,-73.961212158203125,40.698276519775391,New York | New York,1 | 2,1,NY CITY CENTRAL PARK NY US,WBAN:94728,1,FM-15,None,None,None,None,None,None,None,None,None,None,None,None,-9999,-9999,None,None,None,-9999,-9999,None,None,None,None,None,None,None,None,None,None,None,None,None,None,None,None,None,None,None,None,None,None,None,None,-73.9669,40.7889,0,None,000,30,-1.0,10.00,29.79,29.94,CLR:00,54,8,None,0.00,None,20,-6.7,35,1.7,29.96,39.6,2016-01-03 00:51,None,None,None,2141,1220,None,None,None,None,None,None,None,None,None,None,None,None,None,None,None,None
.30,2016-01-03 00:01:19,2016-01-03 00:03:00,6,0,1.2,N,None,None,None,None,-73.966590881347656,40.757587432861328,1,1,0.5,None,None,0.3,3.5,0.5,-73.965774536132813,40.754348754882813,None,None,1,NY CITY CENTRAL PARK NY US,WBAN:94728,1,FM-15,None,None,None,None,None,None,None,None,None,None,None,None,-9999,-9999,None,None,None,-9999,-9999,None,None,None,None,None,None,None,None,None,None,None,None,None,None,None,None,None,None,None,None,None,None,None,None,-73.9669,40.7889,0,None,000,30,-1.0,10.00,29.79,29.94,CLR:00,54,8,None,0.00,None,20,-6.7,35,1.7,29.96,39.6,2016-01-03 00:51,None,None,None,2141,1220,None,None,None,None,None,None,None,None,None,None,None,None,None,None,None,None
1.80,2016-01-03 00:01:19,2016-01-03 00:15:00,11.8,0,0,N,2016-12-31 00:00:00,2016-01-01 00:00:00,New York,10022,-73.954742431640625,40.765506744384766,1,1,0.5,-73.968,40.759,0.3,10.5,0.5,-73.981918334960938,40.766231536865234,New York,2,1,NY CITY CENTRAL PARK NY US,WBAN:94728,1,FM-15,None,None,None,None,None,None,None,None,None,None,None,None,-9999,-9999,None,None,None,-9999,-9999,None,None,None,None,None,None,None,None,None,None,None,None,None,None,None,None,None,None,None,None,None,None,None,None,-73.9669,40.7889,0,None,000,30,-1.0,10.00,29.79,29.94,CLR:00,54,8,None,0.00,None,20,-6.7,35,1.7,29.96,39.6,2016-01-03 00:51,None,None,None,2141,1220,None,None,None,None,None,None,None,None,None,None,None,None,None,None,None,None
.37,2016-01-03 00:01:19,2016-01-03 00:03:12,4.8,0,0,N,None | 2016-07-03 00:00:00,2016-01-01 00:00:00 | 2015-10-08 00:00:00,New York | New York,10019 | 10019,-73.997695922851562,40.737659454345703,2,2,0.5,-73.9803996 | -73.9844951,40.7656668 | 40.7632328,0.3,3.5,0.5,-73.991241455078125,40.734981536865234,New York | New York,1 | 2,2,NY CITY CENTRAL PARK NY US,WBAN:94728,1,FM-15,None,None,None,None,None,None,None,None,None,None,None,None,-9999,-9999,None,None,None,-9999,-9999,None,None,None,None,None,None,None,None,None,None,None,None,None,None,None,None,None,None,None,None,None,None,None,None,-73.9669,40.7889,0,None,000,30,-1.0,10.00,29.79,29.94,CLR:00,54,8,None,0.00,None,20,-6.7,35,1.7,29.96,39.6,2016-01-03 00:51,None,None,None,2141,1220,None,None,None,None,None,None,None,None,None,None,None,None,None,None,None,None
1.00,2016-01-03 00:01:20,2016-01-03 00:07:24,8.75,0,1.45,N,None,2016-01-01 09:00:00,New York,10003,-73.967552185058594,40.756858825683594,1,2,0.5,-73.9870210,40.7308580,0.3,6,0.5,-73.978309631347656,40.748611450195313,New York,0,1,NY CITY CENTRAL PARK NY US,WBAN:94728,1,FM-15,None,None,None,None,None,None,None,None,None,None,None,None,-9999,-9999,None,None,None,-9999,-9999,None,None,None,None,None,None,None,None,None,None,None,None,None,None,None,None,None,None,None,None,None,None,None,None,-73.9669,40.7889,0,None,000,30,-1.0,10.00,29.79,29.94,CLR:00,54,8,None,0.00,None,20,-6.7,35,1.7,29.96,39.6,2016-01-03 00:51,None,None,None,2141,1220,None,None,None,None,None,None,None,None,None,None,None,None,None,None,None,None
5.10,2016-01-03 00:01:20,2016-01-03 00:14:39,18.3,0,0,N,None,None,None,None,-73.964698791503906,40.796798706054688,2,1,0.5,None,None,0.3,17,0.5,-74.002204895019531,40.749237060546875,None,None,1,NY CITY CENTRAL PARK NY US,WBAN:94728,1,FM-15,None,None,None,None,None,None,None,None,None,None,None,None,-9999,-9999,None,None,None,-9999,-9999,None,None,None,None,None,None,None,None,None,None,None,None,None,None,None,None,None,None,None,None,None,None,None,None,-73.9669,40.7889,0,None,000,30,-1.0,10.00,29.79,29.94,CLR:00,54,8,None,0.00,None,20,-6.7,35,1.7,29.96,39.6,2016-01-03 00:51,None,None,None,2141,1220,None,None,None,None,None,None,None,None,None,None,None,None,None,None,None,None
1.80,2016-01-03 00:01:20,2016-01-03 00:13:36,12.8,0,2,N,None,None,None,None,-73.970108032226563,40.759799957275391,1,1,0.5,None,None,0.3,9.5,0.5,-73.989356994628906,40.742988586425781,None,None,1,NY CITY CENTRAL PARK NY US,WBAN:94728,1,FM-15,None,None,None,None,None,None,None,None,None,None,None,None,-9999,-9999,None,None,None,-9999,-9999,None,None,None,None,None,None,None,None,None,None,None,None,None,None,None,None,None,None,None,None,None,None,None,None,-73.9669,40.7889,0,None,000,30,-1.0,10.00,29.79,29.94,CLR:00,54,8,None,0.00,None,20,-6.7,35,1.7,29.96,39.6,2016-01-03 00:51,None,None,None,2141,1220,None,None,None,None,None,None,None,None,None,None,None,None,None,None,None,None
2.25,2016-01-03 00:01:21,2016-01-03 00:12:57,14.16,0,2.36,N,None,None,None,None,-74.001899719238281,40.739406585693359,1,1,0.5,None,None,0.3,10.5,0.5,-73.974868774414063,40.744388580322266,None,None,2,NY CITY CENTRAL PARK NY US,WBAN:94728,1,FM-15,None,None,None,None,None,None,None,None,None,None,None,None,-9999,-9999,None,None,None,-9999,-9999,None,None,None,None,None,None,None,None,None,None,None,None,None,None,None,None,None,None,None,None,None,None,None,None,-73.9669,40.7889,0,None,000,30,-1.0,10.00,29.79,29.94,CLR:00,54,8,None,0.00,None,20,-6.7,35,1.7,29.96,39.6,2016-01-03 00:51,None,None,None,2141,1220,None,None,None,None,None,None,None,None,None,None,None,None,None,None,None,None
.87,2016-01-03 00:01:21,2016-01-03 00:06:40,6.8,0,0,N,None,None,None,None,-73.955223083496094,40.804378509521484,2,1,0.5,None,None,0.3,5.5,0.5,-73.963699340820313,40.798000335693359,None,None,2,NY CITY CENTRAL PARK NY US,WBAN:94728,1,FM-15,None,None,None,None,None,None,None,None,None,None,None,None,-9999,-9999,None,None,None,-9999,-9999,None,None,None,None,None,None,None,None,None,None,None,None,None,None,None,None,None,None,None,None,None,None,None,None,-73.9669,40.7889,0,None,000,30,-1.0,10.00,29.79,29.94,CLR:00,54,8,None,0.00,None,20,-6.7,35,1.7,29.96,39.6,2016-01-03 00:51,None,None,None,2141,1220,None,None,None,None,None,None,None,None,None,None,None,None,None,None,None,None
8.78,2016-01-03 00:01:21,2016-01-03 00:27:41,28.3,0,0,N,None,None,None,None,-73.996627807617188,40.724601745605469,2,6,0.5,None,None,0.3,27,0.5,-73.869979858398438,40.755290985107422,None,None,2,NY CITY CENTRAL PARK NY US,WBAN:94728,1,FM-15,None,None,None,None,None,None,None,None,None,None,None,None,-9999,-9999,None,None,None,-9999,-9999,None,None,None,None,None,None,None,None,None,None,None,None,None,None,None,None,None,None,None,None,None,None,None,None,-73.9669,40.7889,0,None,000,30,-1.0,10.00,29.79,29.94,CLR:00,54,8,None,0.00,None,20,-6.7,35,1.7,29.96,39.6,2016-01-03 00:51,None,None,None,2141,1220,None,None,None,None,None,None,None,None,None,None,None,None,None,None,None,None
1.60,2016-01-03 00:01:22,2016-01-03 00:10:04,9.3,0,0,N,None,None,None,None,-74.004669189453125,40.715957641601563,2,1,0.5,None,None,0.3,8,0.5,-73.989860534667969,40.734043121337891,None,None,1,NY CITY CENTRAL PARK NY US,WBAN:94728,1,FM-15,None,None,None,None,None,None,None,None,None,None,None,None,-9999,-9999,None,None,None,-9999,-9999,None,None,None,None,None,None,None,None,None,None,None,None,None,None,None,None,None,None,None,None,None,None,None,None,-73.9669,40.7889,0,None,000,30,-1.0,10.00,29.79,29.94,CLR:00,54,8,None,0.00,None,20,-6.7,35,1.7,29.96,39.6,2016-01-03 00:51,None,None,None,2141,1220,None,None,None,None,None,None,None,None,None,None,None,None,None,None,None,None
1.67,2016-01-03 00:01:22,2016-01-03 00:09:25,11.16,0,1.86,N,None,2016-01-01 09:00:00,New York,10003,-73.948280334472656,40.782630920410156,1,1,0.5,-73.9870210,40.7308580,0.3,8,0.5,-73.938461303710938,40.792289733886719,New York,0,2,NY CITY CENTRAL PARK NY US,WBAN:94728,1,FM-15,None,None,None,None,None,None,None,None,None,None,None,None,-9999,-9999,None,None,None,-9999,-9999,None,None,None,None,None,None,None,None,None,None,None,None,None,None,None,None,None,None,None,None,None,None,None,None,-73.9669,40.7889,0,None,000,30,-1.0,10.00,29.79,29.94,CLR:00,54,8,None,0.00,None,20,-6.7,35,1.7,29.96,39.6,2016-01-03 00:51,None,None,None,2141,1220,None,None,None,None,None,None,None,None,None,None,None,None,None,None,None,None
1.11,2016-01-03 00:01:23,2016-01-03 00:09:22,9.96,0,1.66,N,None,None,None,None,-73.998611450195313,40.738170623779297,1,1,0.5,None,None,0.3,7,0.5,-73.994590759277344,40.75054931640625,None,None,2,NY CITY CENTRAL PARK NY US,WBAN:94728,1,FM-15,None,None,None,None,None,None,None,None,None,None,None,None,-9999,-9999,None,None,None,-9999,-9999,None,None,None,None,None,None,None,None,None,None,None,None,None,None,None,None,None,None,None,None,None,None,None,None,-73.9669,40.7889,0,None,000,30,-1.0,10.00,29.79,29.94,CLR:00,54,8,None,0.00,None,20,-6.7,35,1.7,29.96,39.6,2016-01-03 00:51,None,None,None,2141,1220,None,None,None,None,None,None,None,None,None,None,None,None,None,None,None,None
6.50,2016-01-03 00:01:24,2016-01-03 00:23:19,23.8,0,0,N,None,None,None,None,-73.972267150878906,40.759864807128906,2,2,0.5,None,None,0.3,22.5,0.5,-73.876602172851562,40.748664855957031,None,None,1,NY CITY CENTRAL PARK NY US,WBAN:94728,1,FM-15,None,None,None,None,None,None,None,None,None,None,None,None,-9999,-9999,None,None,None,-9999,-9999,None,None,None,None,None,None,None,None,None,None,None,None,None,None,None,None,None,None,None,None,None,None,None,None,-73.9669,40.7889,0,None,000,30,-1.0,10.00,29.79,29.94,CLR:00,54,8,None,0.00,None,20,-6.7,35,1.7,29.96,39.6,2016-01-03 00:51,None,None,None,2141,1220,None,None,None,None,None,None,None,None,None,None,None,None,None,None,None,None
1.90,2016-01-03 00:01:24,2016-01-03 00:09:52,10.3,0,0,N,None,None,None,None,-73.959747314453125,40.801292419433594,2,1,0.5,None,None,0.3,9,0.5,-73.950645446777344,40.822933197021484,None,None,1,NY CITY CENTRAL PARK NY US,WBAN:94728,1,FM-15,None,None,None,None,None,None,None,None,None,None,None,None,-9999,-9999,None,None,None,-9999,-9999,None,None,None,None,None,None,None,None,None,None,None,None,None,None,None,None,None,None,None,None,None,None,None,None,-73.9669,40.7889,0,None,000,30,-1.0,10.00,29.79,29.94,CLR:00,54,8,None,0.00,None,20,-6.7,35,1.7,29.96,39.6,2016-01-03 00:51,None,None,None,2141,1220,None,None,None,None,None,None,None,None,None,None,None,None,None,None,None,None
2.94,2016-01-03 00:01:24,2016-01-03 00:21:59,16.3,0,0,N,None,None,None,None,-73.979400634765625,40.739768981933594,1,1,0.5,None,None,0.3,15,0.5,-73.999549865722656,40.742519378662109,None,None,2,NY CITY CENTRAL PARK NY US,WBAN:94728,1,FM-15,None,None,None,None,None,None,None,None,None,None,None,None,-9999,-9999,None,None,None,-9999,-9999,None,None,None,None,None,None,None,None,None,None,None,None,None,None,None,None,None,None,None,None,None,None,None,None,-73.9669,40.7889,0,None,000,30,-1.0,10.00,29.79,29.94,CLR:00,54,8,None,0.00,None,20,-6.7,35,1.7,29.96,39.6,2016-01-03 00:51,None,None,None,2141,1220,None,None,None,None,None,None,None,None,None,None,None,None,None,None,None,None
1.89,2016-01-03 00:01:24,2016-01-03 00:05:58,9.8,0,1,N,None,None,None,None,-73.972930908203125,40.752601623535156,1,3,0.5,None,None,0.3,7.5,0.5,-73.955856323242188,40.776050567626953,None,None,2,NY CITY CENTRAL PARK NY US,WBAN:94728,1,FM-15,None,None,None,None,None,None,None,None,None,None,None,None,-9999,-9999,None,None,None,-9999,-9999,None,None,None,None,None,None,None,None,None,None,None,None,None,None,None,None,None,None,None,None,None,None,None,None,-73.9669,40.7889,0,None,000,30,-1.0,10.00,29.79,29.94,CLR:00,54,8,None,0.00,None,20,-6.7,35,1.7,29.96,39.6,2016-01-03 00:51,None,None,None,2141,1220,None,None,None,None,None,None,None,None,None,None,None,None,None,None,None,None
.80,2016-01-03 00:01:26,2016-01-03 00:10:01,8.3,0,0,N,2022-04-16 02:00:00 | None,2016-01-01 00:00:00 | 2016-01-01 00:00:00,New York | New York,None | 10028,-73.979644775390625,40.760196685791016,2,2,0.5,-73.9651814 | -73.9634699,40.7745779 | 40.7792134,0.3,7,0.5,-73.974853515625,40.753742218017578,New York | New York,1 | 2,1,NY CITY CENTRAL PARK NY US,WBAN:94728,1,FM-15,None,None,None,None,None,None,None,None,None,None,None,None,-9999,-9999,None,None,None,-9999,-9999,None,None,None,None,None,None,None,None,None,None,None,None,None,None,None,None,None,None,None,None,None,None,None,None,-73.9669,40.7889,0,None,000,30,-1.0,10.00,29.79,29.94,CLR:00,54,8,None,0.00,None,20,-6.7,35,1.7,29.96,39.6,2016-01-03 00:51,None,None,None,2141,1220,None,None,None,None,None,None,None,None,None,None,None,None,None,None,None,None
5.00,2016-01-03 00:01:26,2016-01-03 00:19:52,18.8,0,0,N,None,None,None,None,-73.995040893554687,40.760448455810547,2,1,0.5,None,None,0.3,17.5,0.5,-73.938812255859375,40.799385070800781,None,None,1,NY CITY CENTRAL PARK NY US,WBAN:94728,1,FM-15,None,None,None,None,None,None,None,None,None,None,None,None,-9999,-9999,None,None,None,-9999,-9999,None,None,None,None,None,None,None,None,None,None,None,None,None,None,None,None,None,None,None,None,None,None,None,None,-73.9669,40.7889,0,None,000,30,-1.0,10.00,29.79,29.94,CLR:00,54,8,None,0.00,None,20,-6.7,35,1.7,29.96,39.6,2016-01-03 00:51,None,None,None,2141,1220,None,None,None,None,None,None,None,None,None,None,None,None,None,None,None,None
3.86,2016-01-03 00:01:26,2016-01-03 00:13:41,17.16,0,2.86,N,None,None,None,None,-73.976837158203125,40.764591217041016,1,1,0.5,None,None,0.3,13,0.5,-73.9541015625,40.804759979248047,None,None,2,NY CITY CENTRAL PARK NY US,WBAN:94728,1,FM-15,None,None,None,None,None,None,None,None,None,None,None,None,-9999,-9999,None,None,None,-9999,-9999,None,None,None,None,None,None,None,None,None,None,None,None,None,None,None,None,None,None,None,None,None,None,None,None,-73.9669,40.7889,0,None,000,30,-1.0,10.00,29.79,29.94,CLR:00,54,8,None,0.00,None,20,-6.7,35,1.7,29.96,39.6,2016-01-03 00:51,None,None,None,2141,1220,None,None,None,None,None,None,None,None,None,None,None,None,None,None,None,None
2.70,2016-01-03 00:01:26,2016-01-03 00:12:40,12.3,0,0,N,None,None,None,None,-74.000953674316406,40.730838775634766,2,1,0.5,None,None,0.3,11,0.5,-74.017234802246094,40.704917907714844,None,None,2,NY CITY CENTRAL PARK NY US,WBAN:94728,1,FM-15,None,None,None,None,None,None,None,None,None,None,None,None,-9999,-9999,None,None,None,-9999,-9999,None,None,None,None,None,None,None,None,None,None,None,None,None,None,None,None,None,None,None,None,None,None,None,None,-73.9669,40.7889,0,None,000,30,-1.0,10.00,29.79,29.94,CLR:00,54,8,None,0.00,None,20,-6.7,35,1.7,29.96,39.6,2016-01-03 00:51,None,None,None,2141,1220,None,None,None,None,None,None,None,None,None,None,None,None,None,None,None,None
3.10,2016-01-03 00:01:27,2016-01-03 00:35:02,26.75,0,4.45,N,None,None,None,None,-73.974395751953125,40.763877868652344,1,1,0.5,None,None,0.3,21,0.5,-73.999267578125,40.728160858154297,None,None,1,NY CITY CENTRAL PARK NY US,WBAN:94728,1,FM-15,None,None,None,None,None,None,None,None,None,None,None,None,-9999,-9999,None,None,None,-9999,-9999,None,None,None,None,None,None,None,None,None,None,None,None,None,None,None,None,None,None,None,None,None,None,None,None,-73.9669,40.7889,0,None,000,30,-1.0,10.00,29.79,29.94,CLR:00,54,8,None,0.00,None,20,-6.7,35,1.7,29.96,39.6,2016-01-03 00:51,None,None,None,2141,1220,None,None,None,None,None,None,None,None,None,None,None,None,None,None,None,None
.10,2016-01-03 00:01:27,2016-01-03 00:02:33,4.3,0,0,N,None,None,None,None,-73.955177307128906,40.773174285888672,3,1,0.5,None,None,0.3,3,0.5,-73.956230163574219,40.772037506103516,None,None,1,NY CITY CENTRAL PARK NY US,WBAN:94728,1,FM-15,None,None,None,None,None,None,None,None,None,None,None,None,-9999,-9999,None,None,None,-9999,-9999,None,None,None,None,None,None,None,None,None,None,None,None,None,None,None,None,None,None,None,None,None,None,None,None,-73.9669,40.7889,0,None,000,30,-1.0,10.00,29.79,29.94,CLR:00,54,8,None,0.00,None,20,-6.7,35,1.7,29.96,39.6,2016-01-03 00:51,None,None,None,2141,1220,None,None,None,None,None,None,None,None,None,None,None,None,None,None,None,None
1.40,2016-01-03 00:01:27,2016-01-03 00:14:34,13.39,0,3.09,N,None,None,None,None,-73.9898681640625,40.7293701171875,1,1,0.5,None,None,0.3,9,0.5,-73.983924865722656,40.745647430419922,None,None,2,NY CITY CENTRAL PARK NY US,WBAN:94728,1,FM-15,None,None,None,None,None,None,None,None,None,None,None,None,-9999,-9999,None,None,None,-9999,-9999,None,None,None,None,None,None,None,None,None,None,None,None,None,None,None,None,None,None,None,None,None,None,None,None,-73.9669,40.7889,0,None,000,30,-1.0,10.00,29.79,29.94,CLR:00,54,8,None,0.00,None,20,-6.7,35,1.7,29.96,39.6,2016-01-03 00:51,None,None,None,2141,1220,None,None,None,None,None,None,None,None,None,None,None,None,None,None,None,None
11.20,2016-01-03 00:01:29,2016-01-03 00:25:53,33.8,0,0,N,None,None,None,None,-73.969612121582031,40.757713317871094,1,1,0.5,None,None,0.3,32.5,0.5,-73.902236938476562,40.702812194824219,None,None,1,NY CITY CENTRAL PARK NY US,WBAN:94728,1,FM-15,None,None,None,None,None,None,None,None,None,None,None,None,-9999,-9999,None,None,None,-9999,-9999,None,None,None,None,None,None,None,None,None,None,None,None,None,None,None,None,None,None,None,None,None,None,None,None,-73.9669,40.7889,0,None,000,30,-1.0,10.00,29.79,29.94,CLR:00,54,8,None,0.00,None,20,-6.7,35,1.7,29.96,39.6,2016-01-03 00:51,None,None,None,2141,1220,None,None,None,None,None,None,None,None,None,None,None,None,None,None,None,None
5.60,2016-01-03 00:01:29,2016-01-03 00:29:40,28.55,0,4.75,N,None,None,None,None,-74.002418518066406,40.733234405517578,1,1,0.5,None,None,0.3,22.5,0.5,-73.924583435058594,40.691917419433594,None,None,1,NY CITY CENTRAL PARK NY US,WBAN:94728,1,FM-15,None,None,None,None,None,None,None,None,None,None,None,None,-9999,-9999,None,None,None,-9999,-9999,None,None,None,None,None,None,None,None,None,None,None,None,None,None,None,None,None,None,None,None,None,None,None,None,-73.9669,40.7889,0,None,000,30,-1.0,10.00,29.79,29.94,CLR:00,54,8,None,0.00,None,20,-6.7,35,1.7,29.96,39.6,2016-01-03 00:51,None,None,None,2141,1220,None,None,None,None,None,None,None,None,None,None,None,None,None,None,None,None
1.52,2016-01-03 00:01:29,2016-01-03 00:10:45,12.09,0,2.79,N,None,None,None,None,-73.971771240234375,40.759838104248047,1,1,0.5,None,None,0.3,8,0.5,-73.987518310546875,40.748722076416016,None,None,2,NY CITY CENTRAL PARK NY US,WBAN:94728,1,FM-15,None,None,None,None,None,None,None,None,None,None,None,None,-9999,-9999,None,None,None,-9999,-9999,None,None,None,None,None,None,None,None,None,None,None,None,None,None,None,None,None,None,None,None,None,None,None,None,-73.9669,40.7889,0,None,000,30,-1.0,10.00,29.79,29.94,CLR:00,54,8,None,0.00,None,20,-6.7,35,1.7,29.96,39.6,2016-01-03 00:51,None,None,None,2141,1220,None,None,None,None,None,None,None,None,None,None,None,None,None,None,None,None
.76,2016-01-03 00:01:29,2016-01-03 00:05:08,5.8,0,0,N,None,None,None,None,-73.941848754882813,40.829483032226563,2,1,0.5,None,None,0.3,4.5,0.5,-73.938644409179688,40.839866638183594,None,None,2,NY CITY CENTRAL PARK NY US,WBAN:94728,1,FM-15,None,None,None,None,None,None,None,None,None,None,None,None,-9999,-9999,None,None,None,-9999,-9999,None,None,None,None,None,None,None,None,None,None,None,None,None,None,None,None,None,None,None,None,None,None,None,None,-73.9669,40.7889,0,None,000,30,-1.0,10.00,29.79,29.94,CLR:00,54,8,None,0.00,None,20,-6.7,35,1.7,29.96,39.6,2016-01-03 00:51,None,None,None,2141,1220,None,None,None,None,None,None,None,None,None,None,None,None,None,None,None,None
2.68,2016-01-03 00:01:29,2016-01-03 00:12:56,13.3,0,2,N,None,None,None,None,-74.010520935058594,40.718410491943359,1,5,0.5,None,None,0.3,10,0.5,-73.991348266601563,40.745208740234375,None,None,2,NY CITY CENTRAL PARK NY US,WBAN:94728,1,FM-15,None,None,None,None,None,None,None,None,None,None,None,None,-9999,-9999,None,None,None,-9999,-9999,None,None,None,None,None,None,None,None,None,None,None,None,None,None,None,None,None,None,None,None,None,None,None,None,-73.9669,40.7889,0,None,000,30,-1.0,10.00,29.79,29.94,CLR:00,54,8,None,0.00,None,20,-6.7,35,1.7,29.96,39.6,2016-01-03 00:51,None,None,None,2141,1220,None,None,None,None,None,None,None,None,None,None,None,None,None,None,None,None
2.70,2016-01-03 00:01:32,2016-01-03 00:25:32,18.8,0,1.5,N,None,None,None,None,-74.007087707519531,40.719131469726562,1,1,0.5,None,None,0.3,16,0.5,-73.987579345703125,40.749889373779297,None,None,2,NY CITY CENTRAL PARK NY US,WBAN:94728,1,FM-15,None,None,None,None,None,None,None,None,None,None,None,None,-9999,-9999,None,None,None,-9999,-9999,None,None,None,None,None,None,None,None,None,None,None,None,None,None,None,None,None,None,None,None,None,None,None,None,-73.9669,40.7889,0,None,000,30,-1.0,10.00,29.79,29.94,CLR:00,54,8,None,0.00,None,20,-6.7,35,1.7,29.96,39.6,2016-01-03 00:51,None,None,None,2141,1220,None,None,None,None,None,None,None,None,None,None,None,None,None,None,None,None
4.30,2016-01-03 00:01:33,2016-01-03 00:14:43,19.55,0,3.25,N,None,None,None,None,-73.994468688964844,40.718978881835938,1,1,0.5,None,None,0.3,15,0.5,-73.956626892089844,40.674392700195313,None,None,1,NY CITY CENTRAL PARK NY US,WBAN:94728,1,FM-15,None,None,None,None,None,None,None,None,None,None,None,None,-9999,-9999,None,None,None,-9999,-9999,None,None,None,None,None,None,None,None,None,None,None,None,None,None,None,None,None,None,None,None,None,None,None,None,-73.9669,40.7889,0,None,000,30,-1.0,10.00,29.79,29.94,CLR:00,54,8,None,0.00,None,20,-6.7,35,1.7,29.96,39.6,2016-01-03 00:51,None,None,None,2141,1220,None,None,None,None,None,None,None,None,None,None,None,None,None,None,None,None
6.29,2016-01-03 00:01:33,2016-01-03 00:13:25,20.8,0,0,N,None,None,None,None,-73.984992980957031,40.773891448974609,2,1,0.5,None,None,0.3,19.5,0.5,-73.936492919921875,40.847770690917969,None,None,2,NY CITY CENTRAL PARK NY US,WBAN:94728,1,FM-15,None,None,None,None,None,None,None,None,None,None,None,None,-9999,-9999,None,None,None,-9999,-9999,None,None,None,None,None,None,None,None,None,None,None,None,None,None,None,None,None,None,None,None,None,None,None,None,-73.9669,40.7889,0,None,000,30,-1.0,10.00,29.79,29.94,CLR:00,54,8,None,0.00,None,20,-6.7,35,1.7,29.96,39.6,2016-01-03 00:51,None,None,None,2141,1220,None,None,None,None,None,None,None,None,None,None,None,None,None,None,None,None
1.22,2016-01-03 00:01:33,2016-01-03 00:05:39,7.3,0,0,N,None,None,None,None,-73.862693786621094,40.768730163574219,1,1,0.5,None,None,0.3,6,0.5,-73.875297546386719,40.770359039306641,None,None,2,NY CITY CENTRAL PARK NY US,WBAN:94728,1,FM-15,None,None,None,None,None,None,None,None,None,None,None,None,-9999,-9999,None,None,None,-9999,-9999,None,None,None,None,None,None,None,None,None,None,None,None,None,None,None,None,None,None,None,None,None,None,None,None,-73.9669,40.7889,0,None,000,30,-1.0,10.00,29.79,29.94,CLR:00,54,8,None,0.00,None,20,-6.7,35,1.7,29.96,39.6,2016-01-03 00:51,None,None,None,2141,1220,None,None,None,None,None,None,None,None,None,None,None,None,None,None,None,None
1.49,2016-01-03 00:01:33,2016-01-03 00:15:16,13.56,0,2.26,N,None,None,None,None,-73.998031616210938,40.719669342041016,1,5,0.5,None,None,0.3,10,0.5,-73.983909606933594,40.731800079345703,None,None,2,NY CITY CENTRAL PARK NY US,WBAN:94728,1,FM-15,None,None,None,None,None,None,None,None,None,None,None,None,-9999,-9999,None,None,None,-9999,-9999,None,None,None,None,None,None,None,None,None,None,None,None,None,None,None,None,None,None,None,None,None,None,None,None,-73.9669,40.7889,0,None,000,30,-1.0,10.00,29.79,29.94,CLR:00,54,8,None,0.00,None,20,-6.7,35,1.7,29.96,39.6,2016-01-03 00:51,None,None,None,2141,1220,None,None,None,None,None,None,None,None,None,None,None,None,None,None,None,None
11.55,2016-01-03 00:01:33,2016-01-03 00:37:20,37.8,0,0,N,None,2016-01-01 09:00:00,New York,10003,-73.794479370117187,40.657150268554687,2,5,0.5,-73.9870210,40.7308580,0.3,36.5,0.5,-73.887382507324219,40.654159545898438,New York,0,2,NY CITY CENTRAL PARK NY US,WBAN:94728,1,FM-15,None,None,None,None,None,None,None,None,None,None,None,None,-9999,-9999,None,None,None,-9999,-9999,None,None,None,None,None,None,None,None,None,None,None,None,None,None,None,None,None,None,None,None,None,None,None,None,-73.9669,40.7889,0,None,000,30,-1.0,10.00,29.79,29.94,CLR:00,54,8,None,0.00,None,20,-6.7,35,1.7,29.96,39.6,2016-01-03 00:51,None,None,None,2141,1220,None,None,None,None,None,None,None,None,None,None,None,None,None,None,None,None
2.90,2016-01-03 00:01:34,2016-01-03 00:15:38,13.3,0,0,N,None,None,None,None,0,0,2,1,0.5,None,None,0.3,12,0.5,0,0,None,None,1,NY CITY CENTRAL PARK NY US,WBAN:94728,1,FM-15,None,None,None,None,None,None,None,None,None,None,None,None,-9999,-9999,None,None,None,-9999,-9999,None,None,None,None,None,None,None,None,None,None,None,None,None,None,None,None,None,None,None,None,None,None,None,None,-73.9669,40.7889,0,None,000,30,-1.0,10.00,29.79,29.94,CLR:00,54,8,None,0.00,None,20,-6.7,35,1.7,29.96,39.6,2016-01-03 00:51,None,None,None,2141,1220,None,None,None,None,None,None,None,None,None,None,None,None,None,None,None,None
2.67,2016-01-03 00:01:34,2016-01-03 00:18:12,14.9,0,1.1,N,None,None,None,None,-74.002845764160156,40.731151580810547,1,1,0.5,None,None,0.3,12.5,0.5,-73.973526000976563,40.748710632324219,None,None,2,NY CITY CENTRAL PARK NY US,WBAN:94728,1,FM-15,None,None,None,None,None,None,None,None,None,None,None,None,-9999,-9999,None,None,None,-9999,-9999,None,None,None,None,None,None,None,None,None,None,None,None,None,None,None,None,None,None,None,None,None,None,None,None,-73.9669,40.7889,0,None,000,30,-1.0,10.00,29.79,29.94,CLR:00,54,8,None,0.00,None,20,-6.7,35,1.7,29.96,39.6,2016-01-03 00:51,None,None,None,2141,1220,None,None,None,None,None,None,None,None,None,None,None,None,None,None,None,None
4.26,2016-01-03 00:01:34,2016-01-03 00:19:14,21.96,0,3.66,N,None,None,None,None,-73.978584289550781,40.762580871582031,1,1,0.5,None,None,0.3,17,0.5,-73.963310241699219,40.798713684082031,None,None,2,NY CITY CENTRAL PARK NY US,WBAN:94728,1,FM-15,None,None,None,None,None,None,None,None,None,None,None,None,-9999,-9999,None,None,None,-9999,-9999,None,None,None,None,None,None,None,None,None,None,None,None,None,None,None,None,None,None,None,None,None,None,None,None,-73.9669,40.7889,0,None,000,30,-1.0,10.00,29.79,29.94,CLR:00,54,8,None,0.00,None,20,-6.7,35,1.7,29.96,39.6,2016-01-03 00:51,None,None,None,2141,1220,None,None,None,None,None,None,None,None,None,None,None,None,None,None,None,None
1.30,2016-01-03 00:01:35,2016-01-03 00:09:13,8.8,0,0,N,None,None,None,None,-73.995773315429688,40.759323120117188,2,1,0.5,None,None,0.3,7.5,0.5,-73.994873046875,40.750301361083984,None,None,1,NY CITY CENTRAL PARK NY US,WBAN:94728,1,FM-15,None,None,None,None,None,None,None,None,None,None,None,None,-9999,-9999,None,None,None,-9999,-9999,None,None,None,None,None,None,None,None,None,None,None,None,None,None,None,None,None,None,None,None,None,None,None,None,-73.9669,40.7889,0,None,000,30,-1.0,10.00,29.79,29.94,CLR:00,54,8,None,0.00,None,20,-6.7,35,1.7,29.96,39.6,2016-01-03 00:51,None,None,None,2141,1220,None,None,None,None,None,None,None,None,None,None,None,None,None,None,None,None
1.30,2016-01-03 00:01:35,2016-01-03 00:08:48,8.3,0,0,N,None,None,None,None,-74.005050659179687,40.739955902099609,2,1,0.5,None,None,0.3,7,0.5,-73.989837646484375,40.729434967041016,None,None,1,NY CITY CENTRAL PARK NY US,WBAN:94728,1,FM-15,None,None,None,None,None,None,None,None,None,None,None,None,-9999,-9999,None,None,None,-9999,-9999,None,None,None,None,None,None,None,None,None,None,None,None,None,None,None,None,None,None,None,None,None,None,None,None,-73.9669,40.7889,0,None,000,30,-1.0,10.00,29.79,29.94,CLR:00,54,8,None,0.00,None,20,-6.7,35,1.7,29.96,39.6,2016-01-03 00:51,None,None,None,2141,1220,None,None,None,None,None,None,None,None,None,None,None,None,None,None,None,None
1.18,2016-01-03 00:01:35,2016-01-03 00:08:11,7.8,0,0,N,None,2016-01-01 09:00:00,New York,10003,-73.998970031738281,40.734600067138672,2,3,0.5,-73.9870210,40.7308580,0.3,6.5,0.5,-73.983680725097656,40.725776672363281,New York,0,2,NY CITY CENTRAL PARK NY US,WBAN:94728,1,FM-15,None,None,None,None,None,None,None,None,None,None,None,None,-9999,-9999,None,None,None,-9999,-9999,None,None,None,None,None,None,None,None,None,None,None,None,None,None,None,None,None,None,None,None,None,None,None,None,-73.9669,40.7889,0,None,000,30,-1.0,10.00,29.79,29.94,CLR:00,54,8,None,0.00,None,20,-6.7,35,1.7,29.96,39.6,2016-01-03 00:51,None,None,None,2141,1220,None,None,None,None,None,None,None,None,None,None,None,None,None,None,None,None
3.55,2016-01-03 00:01:36,2016-01-03 00:20:36,20.16,0,3.36,N,None,2016-01-01 09:00:00,New York,10003,0,0,1,1,0.5,-73.9870210,40.7308580,0.3,15.5,0.5,0,0,New York,0,2,NY CITY CENTRAL PARK NY US,WBAN:94728,1,FM-15,None,None,None,None,None,None,None,None,None,None,None,None,-9999,-9999,None,None,None,-9999,-9999,None,None,None,None,None,None,None,None,None,None,None,None,None,None,None,None,None,None,None,None,None,None,None,None,-73.9669,40.7889,0,None,000,30,-1.0,10.00,29.79,29.94,CLR:00,54,8,None,0.00,None,20,-6.7,35,1.7,29.96,39.6,2016-01-03 00:51,None,None,None,2141,1220,None,None,None,None,None,None,None,None,None,None,None,None,None,None,None,None
4.59,2016-01-03 00:01:37,2016-01-03 00:26:40,20.3,0,0,N,None,None,None,None,-73.973670959472656,40.784519195556641,2,2,0.5,None,None,0.3,19,0.5,-73.988189697265625,40.731971740722656,None,None,2,NY CITY CENTRAL PARK NY US,WBAN:94728,1,FM-15,None,None,None,None,None,None,None,None,None,None,None,None,-9999,-9999,None,None,None,-9999,-9999,None,None,None,None,None,None,None,None,None,None,None,None,None,None,None,None,None,None,None,None,None,None,None,None,-73.9669,40.7889,0,None,000,30,-1.0,10.00,29.79,29.94,CLR:00,54,8,None,0.00,None,20,-6.7,35,1.7,29.96,39.6,2016-01-03 00:51,None,None,None,2141,1220,None,None,None,None,None,None,None,None,None,None,None,None,None,None,None,None
1.53,2016-01-03 00:01:37,2016-01-03 00:25:25,16.3,0,0,N,None,2016-01-01 09:00:00,New York,10003,0,0,2,2,0.5,-73.9870210,40.7308580,0.3,15,0.5,0,0,New York,0,2,NY CITY CENTRAL PARK NY US,WBAN:94728,1,FM-15,None,None,None,None,None,None,None,None,None,None,None,None,-9999,-9999,None,None,None,-9999,-9999,None,None,None,None,None,None,None,None,None,None,None,None,None,None,None,None,None,None,None,None,None,None,None,None,-73.9669,40.7889,0,None,000,30,-1.0,10.00,29.79,29.94,CLR:00,54,8,None,0.00,None,20,-6.7,35,1.7,29.96,39.6,2016-01-03 00:51,None,None,None,2141,1220,None,None,None,None,None,None,None,None,None,None,None,None,None,None,None,None
.20,2016-01-03 00:01:37,2016-01-03 00:03:31,4.8,0,0,N,None,None,None,None,-73.973335266113281,40.764072418212891,2,1,0.5,None,None,0.3,3.5,0.5,-73.974853515625,40.761734008789063,None,None,2,NY CITY CENTRAL PARK NY US,WBAN:94728,1,FM-15,None,None,None,None,None,None,None,None,None,None,None,None,-9999,-9999,None,None,None,-9999,-9999,None,None,None,None,None,None,None,None,None,None,None,None,None,None,None,None,None,None,None,None,None,None,None,None,-73.9669,40.7889,0,None,000,30,-1.0,10.00,29.79,29.94,CLR:00,54,8,None,0.00,None,20,-6.7,35,1.7,29.96,39.6,2016-01-03 00:51,None,None,None,2141,1220,None,None,None,None,None,None,None,None,None,None,None,None,None,None,None,None
10.10,2016-01-03 00:01:38,2016-01-03 00:35:31,34.3,0,0,N,None | 2016-12-31 00:00:00,2016-01-01 00:00:00 | 2016-01-01 00:00:00,New York | New York,10019 | 10022,-73.978492736816406,40.762176513671875,2,1,0.5,-73.9803996 | -73.968,40.7656668 | 40.759,0.3,33,0.5,-73.961082458496094,40.667453765869141,New York | New York,1 | 2,1,NY CITY CENTRAL PARK NY US,WBAN:94728,1,FM-15,None,None,None,None,None,None,None,None,None,None,None,None,-9999,-9999,None,None,None,-9999,-9999,None,None,None,None,None,None,None,None,None,None,None,None,None,None,None,None,None,None,None,None,None,None,None,None,-73.9669,40.7889,0,None,000,30,-1.0,10.00,29.79,29.94,CLR:00,54,8,None,0.00,None,20,-6.7,35,1.7,29.96,39.6,2016-01-03 00:51,None,None,None,2141,1220,None,None,None,None,None,None,None,None,None,None,None,None,None,None,None,None
.70,2016-01-03 00:01:38,2016-01-03 00:06:22,8,0,1.2,N,None,None,None,None,-73.997833251953125,40.744915008544922,1,1,0.5,None,None,0.3,5.5,0.5,-73.992012023925781,40.738502502441406,None,None,1,NY CITY CENTRAL PARK NY US,WBAN:94728,1,FM-15,None,None,None,None,None,None,None,None,None,None,None,None,-9999,-9999,None,None,None,-9999,-9999,None,None,None,None,None,None,None,None,None,None,None,None,None,None,None,None,None,None,None,None,None,None,None,None,-73.9669,40.7889,0,None,000,30,-1.0,10.00,29.79,29.94,CLR:00,54,8,None,0.00,None,20,-6.7,35,1.7,29.96,39.6,2016-01-03 00:51,None,None,None,2141,1220,None,None,None,None,None,None,None,None,None,None,None,None,None,None,None,None
.90,2016-01-03 00:01:38,2016-01-03 00:08:32,7.8,0,0,N,None,None,None,None,-73.955589294433594,40.764049530029297,2,1,0.5,None,None,0.3,6.5,0.5,-73.967979431152344,40.762413024902344,None,None,1,NY CITY CENTRAL PARK NY US,WBAN:94728,1,FM-15,None,None,None,None,None,None,None,None,None,None,None,None,-9999,-9999,None,None,None,-9999,-9999,None,None,None,None,None,None,None,None,None,None,None,None,None,None,None,None,None,None,None,None,None,None,None,None,-73.9669,40.7889,0,None,000,30,-1.0,10.00,29.79,29.94,CLR:00,54,8,None,0.00,None,20,-6.7,35,1.7,29.96,39.6,2016-01-03 00:51,None,None,None,2141,1220,None,None,None,None,None,None,None,None,None,None,None,None,None,None,None,None
7.80,2016-01-03 00:01:38,2016-01-03 00:45:57,40.56,0,6.76,N,2016-12-31 00:00:00,2016-01-01 00:00:00,New York,10022,-73.988357543945313,40.720142364501953,1,1,0.5,-73.968,40.759,0.3,32.5,0.5,-73.968849182128906,40.790580749511719,New York,2,1,NY CITY CENTRAL PARK NY US,WBAN:94728,1,FM-15,None,None,None,None,None,None,None,None,None,None,None,None,-9999,-9999,None,None,None,-9999,-9999,None,None,None,None,None,None,None,None,None,None,None,None,None,None,None,None,None,None,None,None,None,None,None,None,-73.9669,40.7889,0,None,000,30,-1.0,10.00,29.79,29.94,CLR:00,54,8,None,0.00,None,20,-6.7,35,1.7,29.96,39.6,2016-01-03 00:51,None,None,None,2141,1220,None,None,None,None,None,None,None,None,None,None,None,None,None,None,None,None
1.20,2016-01-03 00:01:38,2016-01-03 00:06:34,8.75,0,1.45,N,None,None,None,None,-73.99267578125,40.720390319824219,1,1,0.5,None,None,0.3,6,0.5,-74.003372192382813,40.708168029785156,None,None,1,NY CITY CENTRAL PARK NY US,WBAN:94728,1,FM-15,None,None,None,None,None,None,None,None,None,None,None,None,-9999,-9999,None,None,None,-9999,-9999,None,None,None,None,None,None,None,None,None,None,None,None,None,None,None,None,None,None,None,None,None,None,None,None,-73.9669,40.7889,0,None,000,30,-1.0,10.00,29.79,29.94,CLR:00,54,8,None,0.00,None,20,-6.7,35,1.7,29.96,39.6,2016-01-03 00:51,None,None,None,2141,1220,None,None,None,None,None,None,None,None,None,None,None,None,None,None,None,None
6.20,2016-01-03 00:01:39,2016-01-03 00:20:55,27.85,0,5.55,N,None | None | None,2016-01-01 00:00:00 | 2016-01-01 00:00:00 | 2016-01-01 02:00:00,New York | New York | New York,None | None | 10038,-74.014839172363281,40.714607238769531,1,2,0.5,-74.0064 | -74.0064 | -74.0081571,40.7142 | 40.7142 | 40.7090990,0.3,21,0.5,-73.987525939941406,40.745502471923828,New York | New York | New York,1 | 1 | 0,1,NY CITY CENTRAL PARK NY US,WBAN:94728,1,FM-15,None,None,None,None,None,None,None,None,None,None,None,None,-9999,-9999,None,None,None,-9999,-9999,None,None,None,None,None,None,None,None,None,None,None,None,None,None,None,None,None,None,None,None,None,None,None,None,-73.9669,40.7889,0,None,000,30,-1.0,10.00,29.79,29.94,CLR:00,54,8,None,0.00,None,20,-6.7,35,1.7,29.96,39.6,2016-01-03 00:51,None,None,None,2141,1220,None,None,None,None,None,None,None,None,None,None,None,None,None,None,None,None
4.00,2016-01-03 00:01:39,2016-01-03 00:17:04,16.8,0,1,N,None,None,None,None,-73.944168090820313,40.788074493408203,1,1,0.5,None,None,0.3,14.5,0.5,-73.985527038574219,40.747257232666016,None,None,1,NY CITY CENTRAL PARK NY US,WBAN:94728,1,FM-15,None,None,None,None,None,None,None,None,None,None,None,None,-9999,-9999,None,None,None,-9999,-9999,None,None,None,None,None,None,None,None,None,None,None,None,None,None,None,None,None,None,None,None,None,None,None,None,-73.9669,40.7889,0,None,000,30,-1.0,10.00,29.79,29.94,CLR:00,54,8,None,0.00,None,20,-6.7,35,1.7,29.96,39.6,2016-01-03 00:51,None,None,None,2141,1220,None,None,None,None,None,None,None,None,None,None,None,None,None,None,None,None
3.30,2016-01-03 00:01:39,2016-01-03 00:12:30,13.8,0,0,N,None,None,None,None,-73.978569030761719,40.729572296142578,2,1,0.5,None,None,0.3,12.5,0.5,-73.9554443359375,40.768348693847656,None,None,1,NY CITY CENTRAL PARK NY US,WBAN:94728,1,FM-15,None,None,None,None,None,None,None,None,None,None,None,None,-9999,-9999,None,None,None,-9999,-9999,None,None,None,None,None,None,None,None,None,None,None,None,None,None,None,None,None,None,None,None,None,None,None,None,-73.9669,40.7889,0,None,000,30,-1.0,10.00,29.79,29.94,CLR:00,54,8,None,0.00,None,20,-6.7,35,1.7,29.96,39.6,2016-01-03 00:51,None,None,None,2141,1220,None,None,None,None,None,None,None,None,None,None,None,None,None,None,None,None
.71,2016-01-03 00:01:39,2016-01-03 00:05:47,6.3,0,0,N,None,None,None,None,-73.999031066894531,40.734218597412109,2,1,0.5,None,None,0.3,5,0.5,-73.999221801757812,40.729026794433594,None,None,2,NY CITY CENTRAL PARK NY US,WBAN:94728,1,FM-15,None,None,None,None,None,None,None,None,None,None,None,None,-9999,-9999,None,None,None,-9999,-9999,None,None,None,None,None,None,None,None,None,None,None,None,None,None,None,None,None,None,None,None,None,None,None,None,-73.9669,40.7889,0,None,000,30,-1.0,10.00,29.79,29.94,CLR:00,54,8,None,0.00,None,20,-6.7,35,1.7,29.96,39.6,2016-01-03 00:51,None,None,None,2141,1220,None,None,None,None,None,None,None,None,None,None,None,None,None,None,None,None
5.70,2016-01-03 00:01:40,2016-01-03 00:16:59,19.8,0,0,N,None,None,None,None,-73.959922790527344,40.773502349853516,2,1,0.5,None,None,0.3,18.5,0.5,-73.888465881347656,40.816562652587891,None,None,1,NY CITY CENTRAL PARK NY US,WBAN:94728,1,FM-15,None,None,None,None,None,None,None,None,None,None,None,None,-9999,-9999,None,None,None,-9999,-9999,None,None,None,None,None,None,None,None,None,None,None,None,None,None,None,None,None,None,None,None,None,None,None,None,-73.9669,40.7889,0,None,000,30,-1.0,10.00,29.79,29.94,CLR:00,54,8,None,0.00,None,20,-6.7,35,1.7,29.96,39.6,2016-01-03 00:51,None,None,None,2141,1220,None,None,None,None,None,None,None,None,None,None,None,None,None,None,None,None
3.60,2016-01-03 00:01:40,2016-01-03 00:24:33,17.3,0,0,N,None,None,None,None,-73.993942260742188,40.7567138671875,2,2,0.5,None,None,0.3,16,0.5,-74.003631591796875,40.751472473144531,None,None,1,NY CITY CENTRAL PARK NY US,WBAN:94728,1,FM-15,None,None,None,None,None,None,None,None,None,None,None,None,-9999,-9999,None,None,None,-9999,-9999,None,None,None,None,None,None,None,None,None,None,None,None,None,None,None,None,None,None,None,None,None,None,None,None,-73.9669,40.7889,0,None,000,30,-1.0,10.00,29.79,29.94,CLR:00,54,8,None,0.00,None,20,-6.7,35,1.7,29.96,39.6,2016-01-03 00:51,None,None,None,2141,1220,None,None,None,None,None,None,None,None,None,None,None,None,None,None,None,None
.90,2016-01-03 00:01:41,2016-01-03 00:07:46,7.3,0,0,N,None,None,None,None,-74.002578735351563,40.739639282226562,2,1,0.5,None,None,0.3,6,0.5,-74.002197265625,40.745220184326172,None,None,1,NY CITY CENTRAL PARK NY US,WBAN:94728,1,FM-15,None,None,None,None,None,None,None,None,None,None,None,None,-9999,-9999,None,None,None,-9999,-9999,None,None,None,None,None,None,None,None,None,None,None,None,None,None,None,None,None,None,None,None,None,None,None,None,-73.9669,40.7889,0,None,000,30,-1.0,10.00,29.79,29.94,CLR:00,54,8,None,0.00,None,20,-6.7,35,1.7,29.96,39.6,2016-01-03 00:51,None,None,None,2141,1220,None,None,None,None,None,None,None,None,None,None,None,None,None,None,None,None
9.60,2016-01-03 00:01:41,2016-01-03 00:34:07,38.3,0,5,N,None,None,None,None,-73.99676513671875,40.742439270019531,1,3,0.5,None,None,0.3,32,0.5,-73.941566467285156,40.851390838623047,None,None,1,NY CITY CENTRAL PARK NY US,WBAN:94728,1,FM-15,None,None,None,None,None,None,None,None,None,None,None,None,-9999,-9999,None,None,None,-9999,-9999,None,None,None,None,None,None,None,None,None,None,None,None,None,None,None,None,None,None,None,None,None,None,None,None,-73.9669,40.7889,0,None,000,30,-1.0,10.00,29.79,29.94,CLR:00,54,8,None,0.00,None,20,-6.7,35,1.7,29.96,39.6,2016-01-03 00:51,None,None,None,2141,1220,None,None,None,None,None,None,None,None,None,None,None,None,None,None,None,None
1.33,2016-01-03 00:01:41,2016-01-03 00:08:17,8.3,0,0,N,None,None,None,None,-73.976448059082031,40.758377075195312,2,1,0.5,None,None,0.3,7,0.5,-73.976432800292969,40.745105743408203,None,None,2,NY CITY CENTRAL PARK NY US,WBAN:94728,1,FM-15,None,None,None,None,None,None,None,None,None,None,None,None,-9999,-9999,None,None,None,-9999,-9999,None,None,None,None,None,None,None,None,None,None,None,None,None,None,None,None,None,None,None,None,None,None,None,None,-73.9669,40.7889,0,None,000,30,-1.0,10.00,29.79,29.94,CLR:00,54,8,None,0.00,None,20,-6.7,35,1.7,29.96,39.6,2016-01-03 00:51,None,None,None,2141,1220,None,None,None,None,None,None,None,None,None,None,None,None,None,None,None,None
1.18,2016-01-03 00:01:41,2016-01-03 00:08:50,7.8,0,0,N,None,None,None,None,-74.004280090332031,40.721820831298828,2,1,0.5,None,None,0.3,6.5,0.5,-73.999076843261719,40.734031677246094,None,None,2,NY CITY CENTRAL PARK NY US,WBAN:94728,1,FM-15,None,None,None,None,None,None,None,None,None,None,None,None,-9999,-9999,None,None,None,-9999,-9999,None,None,None,None,None,None,None,None,None,None,None,None,None,None,None,None,None,None,None,None,None,None,None,None,-73.9669,40.7889,0,None,000,30,-1.0,10.00,29.79,29.94,CLR:00,54,8,None,0.00,None,20,-6.7,35,1.7,29.96,39.6,2016-01-03 00:51,None,None,None,2141,1220,None,None,None,None,None,None,None,None,None,None,None,None,None,None,None,None
6.90,2016-01-03 00:01:42,2016-01-03 00:16:39,27.36,0,4.56,N,None,None,None,None,-73.97149658203125,40.756011962890625,1,1,0.5,None,None,0.3,21.5,0.5,-74.0155029296875,40.7178955078125,None,None,1,NY CITY CENTRAL PARK NY US,WBAN:94728,1,FM-15,None,None,None,None,None,None,None,None,None,None,None,None,-9999,-9999,None,None,None,-9999,-9999,None,None,None,None,None,None,None,None,None,None,None,None,None,None,None,None,None,None,None,None,None,None,None,None,-73.9669,40.7889,0,None,000,30,-1.0,10.00,29.79,29.94,CLR:00,54,8,None,0.00,None,20,-6.7,35,1.7,29.96,39.6,2016-01-03 00:51,None,None,None,2141,1220,None,None,None,None,None,None,None,None,None,None,None,None,None,None,None,None
1.78,2016-01-04 09:18:19,2016-01-04 09:28:56,12.25,0,2.45,N,None,None,None,None,-73.949546813964844,40.771762847900391,1,1,0.5,None,None,0.3,9,0,-73.963699340820313,40.757251739501953,None,None,2,NY CITY CENTRAL PARK NY US,WBAN:94728,1,FM-15,None,None,None,None,None,None,None,None,None,None,None,None,-9999,-9999,None,None,None,-9999,-9999,None,None,None,None,None,None,None,None,None,None,None,None,None,None,None,None,None,None,None,None,None,None,None,None,-73.9669,40.7889,5,None,VRB,23,-4.7,10.00,29.89,30.04,FEW:02 43,43,3,None,0.00,None,8,-13.3,28,-2.2,30.06,39.6,2016-01-04 09:51,None,None,None,2142,1220,None,None,None,None,None,None,None,None,None,None,None,None,None,None,None,None
7.50,2016-01-04 09:18:20,2016-01-04 10:20:27,41.8,0,0,N,2016-12-31 00:00:00,2016-01-01 00:00:00,New York,10022,-73.9739990234375,40.742992401123047,2,1,0.5,-73.968,40.759,0.3,41,0,-73.954803466796875,40.692562103271484,New York,2,1,NY CITY CENTRAL PARK NY US,WBAN:94728,1,FM-15,None,None,None,None,None,None,None,None,None,None,None,None,-9999,-9999,None,None,None,-9999,-9999,None,None,None,None,None,None,None,None,None,None,None,None,None,None,None,None,None,None,None,None,None,None,None,None,-73.9669,40.7889,5,None,VRB,23,-4.7,10.00,29.89,30.04,FEW:02 43,43,3,None,0.00,None,8,-13.3,28,-2.2,30.06,39.6,2016-01-04 09:51,None,None,None,2142,1220,None,None,None,None,None,None,None,None,None,None,None,None,None,None,None,None
1.40,2016-01-04 09:18:20,2016-01-04 09:29:27,10.8,0,1,N,None,None,None,None,-73.987266540527344,40.74432373046875,1,1,0.5,None,None,0.3,9,0,-73.979766845703125,40.760555267333984,None,None,1,NY CITY CENTRAL PARK NY US,WBAN:94728,1,FM-15,None,None,None,None,None,None,None,None,None,None,None,None,-9999,-9999,None,None,None,-9999,-9999,None,None,None,None,None,None,None,None,None,None,None,None,None,None,None,None,None,None,None,None,None,None,None,None,-73.9669,40.7889,5,None,VRB,23,-4.7,10.00,29.89,30.04,FEW:02 43,43,3,None,0.00,None,8,-13.3,28,-2.2,30.06,39.6,2016-01-04 09:51,None,None,None,2142,1220,None,None,None,None,None,None,None,None,None,None,None,None,None,None,None,None
.50,2016-01-04 09:18:20,2016-01-04 09:21:35,5.3,0,0,N,None | 2016-07-03 00:00:00,2016-01-01 00:00:00 | 2015-10-08 00:00:00,New York | New York,10019 | 10019,-73.942710876464844,40.794361114501953,2,1,0.5,-73.9803996 | -73.9844951,40.7656668 | 40.7632328,0.3,4.5,0,-73.935356140136719,40.796188354492187,New York | New York,1 | 2,1,NY CITY CENTRAL PARK NY US,WBAN:94728,1,FM-15,None,None,None,None,None,None,None,None,None,None,None,None,-9999,-9999,None,None,None,-9999,-9999,None,None,None,None,None,None,None,None,None,None,None,None,None,None,None,None,None,None,None,None,None,None,None,None,-73.9669,40.7889,5,None,VRB,23,-4.7,10.00,29.89,30.04,FEW:02 43,43,3,None,0.00,None,8,-13.3,28,-2.2,30.06,39.6,2016-01-04 09:51,None,None,None,2142,1220,None,None,None,None,None,None,None,None,None,None,None,None,None,None,None,None
1.00,2016-01-04 09:18:20,2016-01-04 09:30:41,10.8,0,1,N,None,None,None,None,-74.008773803710937,40.713890075683594,1,1,0.5,None,None,0.3,9,0,-73.99676513671875,40.723995208740234,None,None,1,NY CITY CENTRAL PARK NY US,WBAN:94728,1,FM-15,None,None,None,None,None,None,None,None,None,None,None,None,-9999,-9999,None,None,None,-9999,-9999,None,None,None,None,None,None,None,None,None,None,None,None,None,None,None,None,None,None,None,None,None,None,None,None,-73.9669,40.7889,5,None,VRB,23,-4.7,10.00,29.89,30.04,FEW:02 43,43,3,None,0.00,None,8,-13.3,28,-2.2,30.06,39.6,2016-01-04 09:51,None,None,None,2142,1220,None,None,None,None,None,None,None,None,None,None,None,None,None,None,None,None
.60,2016-01-04 09:18:20,2016-01-04 09:23:43,6.8,0,1,N,None,2016-01-01 20:00:00,New York,10013,-73.997711181640625,40.724002838134766,1,1,0.5,-74.0050159,40.7208412,0.3,5,0,-74.005271911621094,40.719131469726562,New York,0,1,NY CITY CENTRAL PARK NY US,WBAN:94728,1,FM-15,None,None,None,None,None,None,None,None,None,None,None,None,-9999,-9999,None,None,None,-9999,-9999,None,None,None,None,None,None,None,None,None,None,None,None,None,None,None,None,None,None,None,None,None,None,None,None,-73.9669,40.7889,5,None,VRB,23,-4.7,10.00,29.89,30.04,FEW:02 43,43,3,None,0.00,None,8,-13.3,28,-2.2,30.06,39.6,2016-01-04 09:51,None,None,None,2142,1220,None,None,None,None,None,None,None,None,None,None,None,None,None,None,None,None
2.70,2016-01-04 09:18:21,2016-01-04 09:39:13,18.95,0,3.15,N,None | None | None,2016-01-01 00:00:00 | 2016-01-01 00:00:00 | 2016-01-01 20:00:00,New York | New York | New York,None | None | 10013,-73.9652099609375,40.791206359863281,1,1,0.5,-74.0064 | -74.0064 | -74.0050159,40.7142 | 40.7142 | 40.7208412,0.3,15,0,-73.975845336914063,40.760135650634766,New York | New York | New York,1 | 1 | 0,1,NY CITY CENTRAL PARK NY US,WBAN:94728,1,FM-15,None,None,None,None,None,None,None,None,None,None,None,None,-9999,-9999,None,None,None,-9999,-9999,None,None,None,None,None,None,None,None,None,None,None,None,None,None,None,None,None,None,None,None,None,None,None,None,-73.9669,40.7889,5,None,VRB,23,-4.7,10.00,29.89,30.04,FEW:02 43,43,3,None,0.00,None,8,-13.3,28,-2.2,30.06,39.6,2016-01-04 09:51,None,None,None,2142,1220,None,None,None,None,None,None,None,None,None,None,None,None,None,None,None,None
2.60,2016-01-04 09:18:21,2016-01-04 09:33:55,13.3,0,0,N,None | 2016-12-31 00:00:00,2016-01-01 00:00:00 | 2016-01-01 00:00:00,New York | New York,10019 | 10022,-73.982025146484375,40.772476196289063,2,1,0.5,-73.9803996 | -73.968,40.7656668 | 40.759,0.3,12.5,0,-73.954948425292969,40.783359527587891,New York | New York,1 | 2,1,NY CITY CENTRAL PARK NY US,WBAN:94728,1,FM-15,None,None,None,None,None,None,None,None,None,None,None,None,-9999,-9999,None,None,None,-9999,-9999,None,None,None,None,None,None,None,None,None,None,None,None,None,None,None,None,None,None,None,None,None,None,None,None,-73.9669,40.7889,5,None,VRB,23,-4.7,10.00,29.89,30.04,FEW:02 43,43,3,None,0.00,None,8,-13.3,28,-2.2,30.06,39.6,2016-01-04 09:51,None,None,None,2142,1220,None,None,None,None,None,None,None,None,None,None,None,None,None,None,None,None
1.20,2016-01-04 09:18:21,2016-01-04 09:27:59,8.8,0,0,N,None,None,None,None,-73.996589660644531,40.742809295654297,2,1,0.5,None,None,0.3,8,0,-73.989616394042969,40.757415771484375,None,None,1,NY CITY CENTRAL PARK NY US,WBAN:94728,1,FM-15,None,None,None,None,None,None,None,None,None,None,None,None,-9999,-9999,None,None,None,-9999,-9999,None,None,None,None,None,None,None,None,None,None,None,None,None,None,None,None,None,None,None,None,None,None,None,None,-73.9669,40.7889,5,None,VRB,23,-4.7,10.00,29.89,30.04,FEW:02 43,43,3,None,0.00,None,8,-13.3,28,-2.2,30.06,39.6,2016-01-04 09:51,None,None,None,2142,1220,None,None,None,None,None,None,None,None,None,None,None,None,None,None,None,None
1.23,2016-01-04 09:18:21,2016-01-04 09:28:16,10.56,0,1.76,N,2016-07-03 00:00:00,2015-10-08 00:00:00,New York,10019,-74.015983581542969,40.715091705322266,1,5,0.5,-73.9844951,40.7632328,0.3,8,0,-74.001075744628906,40.721012115478516,New York,2,2,NY CITY CENTRAL PARK NY US,WBAN:94728,1,FM-15,None,None,None,None,None,None,None,None,None,None,None,None,-9999,-9999,None,None,None,-9999,-9999,None,None,None,None,None,None,None,None,None,None,None,None,None,None,None,None,None,None,None,None,None,None,None,None,-73.9669,40.7889,5,None,VRB,23,-4.7,10.00,29.89,30.04,FEW:02 43,43,3,None,0.00,None,8,-13.3,28,-2.2,30.06,39.6,2016-01-04 09:51,None,None,None,2142,1220,None,None,None,None,None,None,None,None,None,None,None,None,None,None,None,None
.69,2016-01-04 09:18:21,2016-01-04 09:23:18,5.8,0,0,N,None,2016-01-01 20:00:00,New York,10013,-73.975120544433594,40.75225830078125,2,1,0.5,-74.0050159,40.7208412,0.3,5,0,-73.983833312988281,40.747150421142578,New York,0,2,NY CITY CENTRAL PARK NY US,WBAN:94728,1,FM-15,None,None,None,None,None,None,None,None,None,None,None,None,-9999,-9999,None,None,None,-9999,-9999,None,None,None,None,None,None,None,None,None,None,None,None,None,None,None,None,None,None,None,None,None,None,None,None,-73.9669,40.7889,5,None,VRB,23,-4.7,10.00,29.89,30.04,FEW:02 43,43,3,None,0.00,None,8,-13.3,28,-2.2,30.06,39.6,2016-01-04 09:51,None,None,None,2142,1220,None,None,None,None,None,None,None,None,None,None,None,None,None,None,None,None
1.61,2016-01-04 09:18:21,2016-01-04 09:27:30,10.56,0,1.76,N,None,None,None,None,-73.955718994140625,40.768203735351562,1,1,0.5,None,None,0.3,8,0,-73.972061157226562,40.781772613525391,None,None,2,NY CITY CENTRAL PARK NY US,WBAN:94728,1,FM-15,None,None,None,None,None,None,None,None,None,None,None,None,-9999,-9999,None,None,None,-9999,-9999,None,None,None,None,None,None,None,None,None,None,None,None,None,None,None,None,None,None,None,None,None,None,None,None,-73.9669,40.7889,5,None,VRB,23,-4.7,10.00,29.89,30.04,FEW:02 43,43,3,None,0.00,None,8,-13.3,28,-2.2,30.06,39.6,2016-01-04 09:51,None,None,None,2142,1220,None,None,None,None,None,None,None,None,None,None,None,None,None,None,None,None
.29,2016-01-04 09:18:21,2016-01-04 09:19:57,5.59,0,1.29,N,None,2016-01-01 00:00:00,New York,10028,-73.971885681152344,40.781833648681641,1,1,0.5,-73.9634699,40.7792134,0.3,3.5,0,-73.969383239746094,40.785346984863281,New York,2,2,NY CITY CENTRAL PARK NY US,WBAN:94728,1,FM-15,None,None,None,None,None,None,None,None,None,None,None,None,-9999,-9999,None,None,None,-9999,-9999,None,None,None,None,None,None,None,None,None,None,None,None,None,None,None,None,None,None,None,None,None,None,None,None,-73.9669,40.7889,5,None,VRB,23,-4.7,10.00,29.89,30.04,FEW:02 43,43,3,None,0.00,None,8,-13.3,28,-2.2,30.06,39.6,2016-01-04 09:51,None,None,None,2142,1220,None,None,None,None,None,None,None,None,None,None,None,None,None,None,None,None
4.89,2016-01-04 09:18:21,2016-01-04 09:54:39,26.4,0,1.1,N,None,None,None,None,-74.005928039550781,40.745220184326172,1,1,0.5,None,None,0.3,24.5,0,-73.964263916015625,40.807376861572266,None,None,2,NY CITY CENTRAL PARK NY US,WBAN:94728,1,FM-15,None,None,None,None,None,None,None,None,None,None,None,None,-9999,-9999,None,None,None,-9999,-9999,None,None,None,None,None,None,None,None,None,None,None,None,None,None,None,None,None,None,None,None,None,None,None,None,-73.9669,40.7889,5,None,VRB,23,-4.7,10.00,29.89,30.04,FEW:02 43,43,3,None,0.00,None,8,-13.3,28,-2.2,30.06,39.6,2016-01-04 09:51,None,None,None,2142,1220,None,None,None,None,None,None,None,None,None,None,None,None,None,None,None,None
7.33,2016-01-04 09:18:21,2016-01-04 09:40:52,30.38,0,6.08,N,None,None,None,None,-73.997886657714844,40.682857513427734,1,2,0.5,None,None,0.3,23.5,0,-73.972236633300781,40.749797821044922,None,None,2,NY CITY CENTRAL PARK NY US,WBAN:94728,1,FM-15,None,None,None,None,None,None,None,None,None,None,None,None,-9999,-9999,None,None,None,-9999,-9999,None,None,None,None,None,None,None,None,None,None,None,None,None,None,None,None,None,None,None,None,None,None,None,None,-73.9669,40.7889,5,None,VRB,23,-4.7,10.00,29.89,30.04,FEW:02 43,43,3,None,0.00,None,8,-13.3,28,-2.2,30.06,39.6,2016-01-04 09:51,None,None,None,2142,1220,None,None,None,None,None,None,None,None,None,None,None,None,None,None,None,None
.90,2016-01-04 09:18:22,2016-01-04 09:25:05,7.8,0,1,N,None,None,None,None,-73.996261596679687,40.738037109375,1,1,0.5,None,None,0.3,6,0,-73.990272521972656,40.731681823730469,None,None,1,NY CITY CENTRAL PARK NY US,WBAN:94728,1,FM-15,None,None,None,None,None,None,None,None,None,None,None,None,-9999,-9999,None,None,None,-9999,-9999,None,None,None,None,None,None,None,None,None,None,None,None,None,None,None,None,None,None,None,None,None,None,None,None,-73.9669,40.7889,5,None,VRB,23,-4.7,10.00,29.89,30.04,FEW:02 43,43,3,None,0.00,None,8,-13.3,28,-2.2,30.06,39.6,2016-01-04 09:51,None,None,None,2142,1220,None,None,None,None,None,None,None,None,None,None,None,None,None,None,None,None
.80,2016-01-04 09:18:22,2016-01-04 09:28:43,8.3,0,0,N,None,2016-01-01 09:00:00,New York,10003,-73.991203308105469,40.749736785888672,2,1,0.5,-73.9870210,40.7308580,0.3,7.5,0,-73.989494323730469,40.739948272705078,New York,0,1,NY CITY CENTRAL PARK NY US,WBAN:94728,1,FM-15,None,None,None,None,None,None,None,None,None,None,None,None,-9999,-9999,None,None,None,-9999,-9999,None,None,None,None,None,None,None,None,None,None,None,None,None,None,None,None,None,None,None,None,None,None,None,None,-73.9669,40.7889,5,None,VRB,23,-4.7,10.00,29.89,30.04,FEW:02 43,43,3,None,0.00,None,8,-13.3,28,-2.2,30.06,39.6,2016-01-04 09:51,None,None,None,2142,1220,None,None,None,None,None,None,None,None,None,None,None,None,None,None,None,None
1.20,2016-01-04 09:18:22,2016-01-04 09:28:10,8.8,0,0,N,None,None,None,None,-73.957862854003906,40.765365600585938,2,1,0.5,None,None,0.3,8,0,-73.97076416015625,40.757892608642578,None,None,1,NY CITY CENTRAL PARK NY US,WBAN:94728,1,FM-15,None,None,None,None,None,None,None,None,None,None,None,None,-9999,-9999,None,None,None,-9999,-9999,None,None,None,None,None,None,None,None,None,None,None,None,None,None,None,None,None,None,None,None,None,None,None,None,-73.9669,40.7889,5,None,VRB,23,-4.7,10.00,29.89,30.04,FEW:02 43,43,3,None,0.00,None,8,-13.3,28,-2.2,30.06,39.6,2016-01-04 09:51,None,None,None,2142,1220,None,None,None,None,None,None,None,None,None,None,None,None,None,None,None,None
.90,2016-01-04 09:18:22,2016-01-04 09:25:30,8.75,0,1.45,N,2016-12-31 00:00:00,2016-01-01 00:00:00,New York,10022,0,0,1,1,0.5,-73.968,40.759,0.3,6.5,0,0,0,New York,2,1,NY CITY CENTRAL PARK NY US,WBAN:94728,1,FM-15,None,None,None,None,None,None,None,None,None,None,None,None,-9999,-9999,None,None,None,-9999,-9999,None,None,None,None,None,None,None,None,None,None,None,None,None,None,None,None,None,None,None,None,None,None,None,None,-73.9669,40.7889,5,None,VRB,23,-4.7,10.00,29.89,30.04,FEW:02 43,43,3,None,0.00,None,8,-13.3,28,-2.2,30.06,39.6,2016-01-04 09:51,None,None,None,2142,1220,None,None,None,None,None,None,None,None,None,None,None,None,None,None,None,None
2.60,2016-01-04 09:18:22,2016-01-04 09:27:28,13.3,0,2,N,None,None,None,None,-74.010635375976563,40.717437744140625,1,1,0.5,None,None,0.3,10.5,0,-74.007949829101563,40.751300811767578,None,None,2,NY CITY CENTRAL PARK NY US,WBAN:94728,1,FM-15,None,None,None,None,None,None,None,None,None,None,None,None,-9999,-9999,None,None,None,-9999,-9999,None,None,None,None,None,None,None,None,None,None,None,None,None,None,None,None,None,None,None,None,None,None,None,None,-73.9669,40.7889,5,None,VRB,23,-4.7,10.00,29.89,30.04,FEW:02 43,43,3,None,0.00,None,8,-13.3,28,-2.2,30.06,39.6,2016-01-04 09:51,None,None,None,2142,1220,None,None,None,None,None,None,None,None,None,None,None,None,None,None,None,None
1.10,2016-01-04 09:18:22,2016-01-04 09:29:24,8.8,0,0,N,None,None,None,None,-73.967247009277344,40.760688781738281,2,6,0.5,None,None,0.3,8,0,-73.980751037597656,40.767665863037109,None,None,2,NY CITY CENTRAL PARK NY US,WBAN:94728,1,FM-15,None,None,None,None,None,None,None,None,None,None,None,None,-9999,-9999,None,None,None,-9999,-9999,None,None,None,None,None,None,None,None,None,None,None,None,None,None,None,None,None,None,None,None,None,None,None,None,-73.9669,40.7889,5,None,VRB,23,-4.7,10.00,29.89,30.04,FEW:02 43,43,3,None,0.00,None,8,-13.3,28,-2.2,30.06,39.6,2016-01-04 09:51,None,None,None,2142,1220,None,None,None,None,None,None,None,None,None,None,None,None,None,None,None,None
2.96,2016-01-04 09:18:22,2016-01-04 09:32:34,15.8,0,2,N,None | 2016-07-03 00:00:00,2016-01-01 00:00:00 | 2015-10-08 00:00:00,New York | New York,10019 | 10019,-73.977798461914063,40.73419189453125,1,1,0.5,-73.9803996 | -73.9844951,40.7656668 | 40.7632328,0.3,13,0,-74.001014709472656,40.724208831787109,New York | New York,1 | 2,2,NY CITY CENTRAL PARK NY US,WBAN:94728,1,FM-15,None,None,None,None,None,None,None,None,None,None,None,None,-9999,-9999,None,None,None,-9999,-9999,None,None,None,None,None,None,None,None,None,None,None,None,None,None,None,None,None,None,None,None,None,None,None,None,-73.9669,40.7889,5,None,VRB,23,-4.7,10.00,29.89,30.04,FEW:02 43,43,3,None,0.00,None,8,-13.3,28,-2.2,30.06,39.6,2016-01-04 09:51,None,None,None,2142,1220,None,None,None,None,None,None,None,None,None,None,None,None,None,None,None,None
1.40,2016-01-04 09:18:22,2016-01-04 09:35:21,14.3,0,2,N,None,2016-01-01 20:00:00,New York,10013,-73.979217529296875,40.784881591796875,1,5,0.5,-74.0050159,40.7208412,0.3,11.5,0,-73.981887817382812,40.765708923339844,New York,0,2,NY CITY CENTRAL PARK NY US,WBAN:94728,1,FM-15,None,None,None,None,None,None,None,None,None,None,None,None,-9999,-9999,None,None,None,-9999,-9999,None,None,None,None,None,None,None,None,None,None,None,None,None,None,None,None,None,None,None,None,None,None,None,None,-73.9669,40.7889,5,None,VRB,23,-4.7,10.00,29.89,30.04,FEW:02 43,43,3,None,0.00,None,8,-13.3,28,-2.2,30.06,39.6,2016-01-04 09:51,None,None,None,2142,1220,None,None,None,None,None,None,None,None,None,None,None,None,None,None,None,None
1.50,2016-01-04 09:18:23,2016-01-04 09:33:03,13.8,0,2.5,N,None | 2016-07-03 00:00:00,2016-01-01 00:00:00 | 2015-10-08 00:00:00,New York | New York,10019 | 10019,-73.980644226074219,40.782444000244141,1,1,0.5,-73.9803996 | -73.9844951,40.7656668 | 40.7632328,0.3,10.5,0,-73.983810424804688,40.761360168457031,New York | New York,1 | 2,1,NY CITY CENTRAL PARK NY US,WBAN:94728,1,FM-15,None,None,None,None,None,None,None,None,None,None,None,None,-9999,-9999,None,None,None,-9999,-9999,None,None,None,None,None,None,None,None,None,None,None,None,None,None,None,None,None,None,None,None,None,None,None,None,-73.9669,40.7889,5,None,VRB,23,-4.7,10.00,29.89,30.04,FEW:02 43,43,3,None,0.00,None,8,-13.3,28,-2.2,30.06,39.6,2016-01-04 09:51,None,None,None,2142,1220,None,None,None,None,None,None,None,None,None,None,None,None,None,None,None,None
.60,2016-01-04 09:18:23,2016-01-04 09:23:47,7.55,0,1.25,N,None | 2016-07-03 00:00:00,2016-01-01 00:00:00 | 2015-10-08 00:00:00,New York | New York,10019 | 10019,-73.984260559082031,40.754833221435547,1,1,0.5,-73.9803996 | -73.9844951,40.7656668 | 40.7632328,0.3,5.5,0,-73.976951599121094,40.758533477783203,New York | New York,1 | 2,1,NY CITY CENTRAL PARK NY US,WBAN:94728,1,FM-15,None,None,None,None,None,None,None,None,None,None,None,None,-9999,-9999,None,None,None,-9999,-9999,None,None,None,None,None,None,None,None,None,None,None,None,None,None,None,None,None,None,None,None,None,None,None,None,-73.9669,40.7889,5,None,VRB,23,-4.7,10.00,29.89,30.04,FEW:02 43,43,3,None,0.00,None,8,-13.3,28,-2.2,30.06,39.6,2016-01-04 09:51,None,None,None,2142,1220,None,None,None,None,None,None,None,None,None,None,None,None,None,None,None,None
1.80,2016-01-04 09:18:23,2016-01-04 09:32:05,14.1,0,2.8,N,2016-12-31 00:00:00,2016-01-01 00:00:00,New York,10022,-73.993362426757813,40.746902465820313,1,1,0.5,-73.968,40.759,0.3,10.5,0,-73.983062744140625,40.765792846679688,New York,2,1,NY CITY CENTRAL PARK NY US,WBAN:94728,1,FM-15,None,None,None,None,None,None,None,None,None,None,None,None,-9999,-9999,None,None,None,-9999,-9999,None,None,None,None,None,None,None,None,None,None,None,None,None,None,None,None,None,None,None,None,None,None,None,None,-73.9669,40.7889,5,None,VRB,23,-4.7,10.00,29.89,30.04,FEW:02 43,43,3,None,0.00,None,8,-13.3,28,-2.2,30.06,39.6,2016-01-04 09:51,None,None,None,2142,1220,None,None,None,None,None,None,None,None,None,None,None,None,None,None,None,None
2.96,2016-01-04 09:18:23,2016-01-04 09:44:52,20.3,0,2,N,None | 2016-07-03 00:00:00,2016-01-01 00:00:00 | 2015-10-08 00:00:00,New York | New York,10019 | 10019,-73.962234497070312,40.776077270507812,1,1,0.5,-73.9803996 | -73.9844951,40.7656668 | 40.7632328,0.3,17.5,0,-73.98980712890625,40.741180419921875,New York | New York,1 | 2,2,NY CITY CENTRAL PARK NY US,WBAN:94728,1,FM-15,None,None,None,None,None,None,None,None,None,None,None,None,-9999,-9999,None,None,None,-9999,-9999,None,None,None,None,None,None,None,None,None,None,None,None,None,None,None,None,None,None,None,None,None,None,None,None,-73.9669,40.7889,5,None,VRB,23,-4.7,10.00,29.89,30.04,FEW:02 43,43,3,None,0.00,None,8,-13.3,28,-2.2,30.06,39.6,2016-01-04 09:51,None,None,None,2142,1220,None,None,None,None,None,None,None,None,None,None,None,None,None,None,None,None
.89,2016-01-04 09:18:23,2016-01-04 09:23:09,7.56,0,1.26,N,None,None,None,None,-73.935699462890625,40.761070251464844,1,5,0.5,None,None,0.3,5.5,0,-73.937744140625,40.753673553466797,None,None,2,NY CITY CENTRAL PARK NY US,WBAN:94728,1,FM-15,None,None,None,None,None,None,None,None,None,None,None,None,-9999,-9999,None,None,None,-9999,-9999,None,None,None,None,None,None,None,None,None,None,None,None,None,None,None,None,None,None,None,None,None,None,None,None,-73.9669,40.7889,5,None,VRB,23,-4.7,10.00,29.89,30.04,FEW:02 43,43,3,None,0.00,None,8,-13.3,28,-2.2,30.06,39.6,2016-01-04 09:51,None,None,None,2142,1220,None,None,None,None,None,None,None,None,None,None,None,None,None,None,None,None
.27,2016-01-04 09:18:23,2016-01-04 09:19:37,3.8,0,0,N,None,None,None,None,-73.977333068847656,40.750141143798828,2,6,0.5,None,None,0.3,3,0,-73.980461120605469,40.74761962890625,None,None,2,NY CITY CENTRAL PARK NY US,WBAN:94728,1,FM-15,None,None,None,None,None,None,None,None,None,None,None,None,-9999,-9999,None,None,None,-9999,-9999,None,None,None,None,None,None,None,None,None,None,None,None,None,None,None,None,None,None,None,None,None,None,None,None,-73.9669,40.7889,5,None,VRB,23,-4.7,10.00,29.89,30.04,FEW:02 43,43,3,None,0.00,None,8,-13.3,28,-2.2,30.06,39.6,2016-01-04 09:51,None,None,None,2142,1220,None,None,None,None,None,None,None,None,None,None,None,None,None,None,None,None
2.01,2016-01-04 09:18:23,2016-01-04 09:32:15,12.41,0,1.11,N,None,None,None,None,-73.961036682128906,40.796726226806641,1,2,0.5,None,None,0.3,10.5,0,-73.953399658203125,40.778480529785156,None,None,2,NY CITY CENTRAL PARK NY US,WBAN:94728,1,FM-15,None,None,None,None,None,None,None,None,None,None,None,None,-9999,-9999,None,None,None,-9999,-9999,None,None,None,None,None,None,None,None,None,None,None,None,None,None,None,None,None,None,None,None,None,None,None,None,-73.9669,40.7889,5,None,VRB,23,-4.7,10.00,29.89,30.04,FEW:02 43,43,3,None,0.00,None,8,-13.3,28,-2.2,30.06,39.6,2016-01-04 09:51,None,None,None,2142,1220,None,None,None,None,None,None,None,None,None,None,None,None,None,None,None,None
.69,2016-01-04 09:18:23,2016-01-04 09:21:34,5.3,0,0,N,None,None,None,None,-73.961021423339844,40.76947021484375,1,2,0.5,None,None,0.3,4.5,0,-73.963508605957031,40.77423095703125,None,None,2,NY CITY CENTRAL PARK NY US,WBAN:94728,1,FM-15,None,None,None,None,None,None,None,None,None,None,None,None,-9999,-9999,None,None,None,-9999,-9999,None,None,None,None,None,None,None,None,None,None,None,None,None,None,None,None,None,None,None,None,None,None,None,None,-73.9669,40.7889,5,None,VRB,23,-4.7,10.00,29.89,30.04,FEW:02 43,43,3,None,0.00,None,8,-13.3,28,-2.2,30.06,39.6,2016-01-04 09:51,None,None,None,2142,1220,None,None,None,None,None,None,None,None,None,None,None,None,None,None,None,None
.78,2016-01-04 09:18:24,2016-01-04 09:22:37,5.3,0,0,N,2022-04-16 02:00:00 | None,2016-01-01 00:00:00 | 2016-01-01 00:00:00,New York | New York,None | 10028,-73.988258361816406,40.753810882568359,2,1,0.5,-73.9651814 | -73.9634699,40.7745779 | 40.7792134,0.3,4.5,0,-73.985549926757813,40.747093200683594,New York | New York,1 | 2,2,NY CITY CENTRAL PARK NY US,WBAN:94728,1,FM-15,None,None,None,None,None,None,None,None,None,None,None,None,-9999,-9999,None,None,None,-9999,-9999,None,None,None,None,None,None,None,None,None,None,None,None,None,None,None,None,None,None,None,None,None,None,None,None,-73.9669,40.7889,5,None,VRB,23,-4.7,10.00,29.89,30.04,FEW:02 43,43,3,None,0.00,None,8,-13.3,28,-2.2,30.06,39.6,2016-01-04 09:51,None,None,None,2142,1220,None,None,None,None,None,None,None,None,None,None,None,None,None,None,None,None
3.92,2016-01-04 09:18:24,2016-01-04 09:35:43,16.3,0,0,N,None,None,None,None,-73.996025085449219,40.686729431152344,2,1,0.5,None,None,0.3,15.5,0,-74.015823364257813,40.714469909667969,None,None,2,NY CITY CENTRAL PARK NY US,WBAN:94728,1,FM-15,None,None,None,None,None,None,None,None,None,None,None,None,-9999,-9999,None,None,None,-9999,-9999,None,None,None,None,None,None,None,None,None,None,None,None,None,None,None,None,None,None,None,None,None,None,None,None,-73.9669,40.7889,5,None,VRB,23,-4.7,10.00,29.89,30.04,FEW:02 43,43,3,None,0.00,None,8,-13.3,28,-2.2,30.06,39.6,2016-01-04 09:51,None,None,None,2142,1220,None,None,None,None,None,None,None,None,None,None,None,None,None,None,None,None
1.61,2016-01-04 09:18:24,2016-01-04 09:29:51,11.76,0,1.96,N,None | None,2016-01-01 00:00:00 | 2016-01-01 00:00:00,New York | New York,None | None,-73.990829467773437,40.750526428222656,1,1,0.5,-74.0064 | -74.0064,40.7142 | 40.7142,0.3,9,0,-73.989334106445313,40.734081268310547,New York | New York,1 | 1,2,NY CITY CENTRAL PARK NY US,WBAN:94728,1,FM-15,None,None,None,None,None,None,None,None,None,None,None,None,-9999,-9999,None,None,None,-9999,-9999,None,None,None,None,None,None,None,None,None,None,None,None,None,None,None,None,None,None,None,None,None,None,None,None,-73.9669,40.7889,5,None,VRB,23,-4.7,10.00,29.89,30.04,FEW:02 43,43,3,None,0.00,None,8,-13.3,28,-2.2,30.06,39.6,2016-01-04 09:51,None,None,None,2142,1220,None,None,None,None,None,None,None,None,None,None,None,None,None,None,None,None
4.70,2016-01-04 09:18:25,2016-01-04 09:40:03,23.75,0,3.95,N,None,2016-01-01 09:00:00,New York,10003,-73.989303588867187,40.740478515625,1,1,0.5,-73.9870210,40.7308580,0.3,19,0,-74.008377075195312,40.711029052734375,New York,0,1,NY CITY CENTRAL PARK NY US,WBAN:94728,1,FM-15,None,None,None,None,None,None,None,None,None,None,None,None,-9999,-9999,None,None,None,-9999,-9999,None,None,None,None,None,None,None,None,None,None,None,None,None,None,None,None,None,None,None,None,None,None,None,None,-73.9669,40.7889,5,None,VRB,23,-4.7,10.00,29.89,30.04,FEW:02 43,43,3,None,0.00,None,8,-13.3,28,-2.2,30.06,39.6,2016-01-04 09:51,None,None,None,2142,1220,None,None,None,None,None,None,None,None,None,None,None,None,None,None,None,None
2.50,2016-01-04 09:18:25,2016-01-04 09:29:35,11.3,0,0,N,None | None | None,2016-01-01 00:00:00 | 2016-01-01 00:00:00 | 2016-01-01 02:00:00,New York | New York | New York,None | None | 10038,-73.96990966796875,40.784591674804688,2,1,0.5,-74.0064 | -74.0064 | -74.0081571,40.7142 | 40.7142 | 40.7090990,0.3,10.5,0,-73.943504333496094,40.801605224609375,New York | New York | New York,1 | 1 | 0,1,NY CITY CENTRAL PARK NY US,WBAN:94728,1,FM-15,None,None,None,None,None,None,None,None,None,None,None,None,-9999,-9999,None,None,None,-9999,-9999,None,None,None,None,None,None,None,None,None,None,None,None,None,None,None,None,None,None,None,None,None,None,None,None,-73.9669,40.7889,5,None,VRB,23,-4.7,10.00,29.89,30.04,FEW:02 43,43,3,None,0.00,None,8,-13.3,28,-2.2,30.06,39.6,2016-01-04 09:51,None,None,None,2142,1220,None,None,None,None,None,None,None,None,None,None,None,None,None,None,None,None
1.07,2016-01-04 09:18:25,2016-01-04 09:26:04,7.3,0,0,N,None,None,None,None,-73.966850280761719,40.761638641357422,2,2,0.5,None,None,0.3,6.5,0,-73.9534912109375,40.767238616943359,None,None,2,NY CITY CENTRAL PARK NY US,WBAN:94728,1,FM-15,None,None,None,None,None,None,None,None,None,None,None,None,-9999,-9999,None,None,None,-9999,-9999,None,None,None,None,None,None,None,None,None,None,None,None,None,None,None,None,None,None,None,None,None,None,None,None,-73.9669,40.7889,5,None,VRB,23,-4.7,10.00,29.89,30.04,FEW:02 43,43,3,None,0.00,None,8,-13.3,28,-2.2,30.06,39.6,2016-01-04 09:51,None,None,None,2142,1220,None,None,None,None,None,None,None,None,None,None,None,None,None,None,None,None
5.41,2016-01-04 09:18:25,2016-01-04 09:33:39,23.5,0,4.7,N,None,None,None,None,-73.981109619140625,40.779388427734375,1,6,0.5,None,None,0.3,18,0,-73.940017700195313,40.841232299804688,None,None,2,NY CITY CENTRAL PARK NY US,WBAN:94728,1,FM-15,None,None,None,None,None,None,None,None,None,None,None,None,-9999,-9999,None,None,None,-9999,-9999,None,None,None,None,None,None,None,None,None,None,None,None,None,None,None,None,None,None,None,None,None,None,None,None,-73.9669,40.7889,5,None,VRB,23,-4.7,10.00,29.89,30.04,FEW:02 43,43,3,None,0.00,None,8,-13.3,28,-2.2,30.06,39.6,2016-01-04 09:51,None,None,None,2142,1220,None,None,None,None,None,None,None,None,None,None,None,None,None,None,None,None
1.48,2016-01-04 09:18:25,2016-01-04 09:29:08,10.3,0,1,N,None,None,None,None,-73.985450744628906,40.744510650634766,1,6,0.5,None,None,0.3,8.5,0,-73.971122741699219,40.759269714355469,None,None,2,NY CITY CENTRAL PARK NY US,WBAN:94728,1,FM-15,None,None,None,None,None,None,None,None,None,None,None,None,-9999,-9999,None,None,None,-9999,-9999,None,None,None,None,None,None,None,None,None,None,None,None,None,None,None,None,None,None,None,None,None,None,None,None,-73.9669,40.7889,5,None,VRB,23,-4.7,10.00,29.89,30.04,FEW:02 43,43,3,None,0.00,None,8,-13.3,28,-2.2,30.06,39.6,2016-01-04 09:51,None,None,None,2142,1220,None,None,None,None,None,None,None,None,None,None,None,None,None,None,None,None
2.06,2016-01-04 09:18:25,2016-01-04 09:29:06,10.3,0,0,N,2016-12-31 00:00:00,2016-01-01 00:00:00,New York,10022,-73.964942932128906,40.795131683349609,2,5,0.5,-73.968,40.759,0.3,9.5,0,-73.939460754394531,40.804630279541016,New York,2,2,NY CITY CENTRAL PARK NY US,WBAN:94728,1,FM-15,None,None,None,None,None,None,None,None,None,None,None,None,-9999,-9999,None,None,None,-9999,-9999,None,None,None,None,None,None,None,None,None,None,None,None,None,None,None,None,None,None,None,None,None,None,None,None,-73.9669,40.7889,5,None,VRB,23,-4.7,10.00,29.89,30.04,FEW:02 43,43,3,None,0.00,None,8,-13.3,28,-2.2,30.06,39.6,2016-01-04 09:51,None,None,None,2142,1220,None,None,None,None,None,None,None,None,None,None,None,None,None,None,None,None
.90,2016-01-04 09:18:26,2016-01-04 09:29:41,10.55,0,1.75,N,None,None,None,None,-73.9677734375,40.756008148193359,1,1,0.5,None,None,0.3,8,0,-73.979217529296875,40.75299072265625,None,None,1,NY CITY CENTRAL PARK NY US,WBAN:94728,1,FM-15,None,None,None,None,None,None,None,None,None,None,None,None,-9999,-9999,None,None,None,-9999,-9999,None,None,None,None,None,None,None,None,None,None,None,None,None,None,None,None,None,None,None,None,None,None,None,None,-73.9669,40.7889,5,None,VRB,23,-4.7,10.00,29.89,30.04,FEW:02 43,43,3,None,0.00,None,8,-13.3,28,-2.2,30.06,39.6,2016-01-04 09:51,None,None,None,2142,1220,None,None,None,None,None,None,None,None,None,None,None,None,None,None,None,None
1.50,2016-01-04 09:18:26,2016-01-04 09:31:53,11.8,0,1,N,None,None,None,None,-73.992713928222656,40.755222320556641,1,1,0.5,None,None,0.3,10,0,-73.991325378417969,40.738807678222656,None,None,1,NY CITY CENTRAL PARK NY US,WBAN:94728,1,FM-15,None,None,None,None,None,None,None,None,None,None,None,None,-9999,-9999,None,None,None,-9999,-9999,None,None,None,None,None,None,None,None,None,None,None,None,None,None,None,None,None,None,None,None,None,None,None,None,-73.9669,40.7889,5,None,VRB,23,-4.7,10.00,29.89,30.04,FEW:02 43,43,3,None,0.00,None,8,-13.3,28,-2.2,30.06,39.6,2016-01-04 09:51,None,None,None,2142,1220,None,None,None,None,None,None,None,None,None,None,None,None,None,None,None,None
1.30,2016-01-04 09:18:26,2016-01-04 09:28:59,9.3,0,0,N,None,None,None,None,-73.956329345703125,40.771434783935547,2,1,0.5,None,None,0.3,8.5,0,-73.970237731933594,40.759201049804688,None,None,1,NY CITY CENTRAL PARK NY US,WBAN:94728,1,FM-15,None,None,None,None,None,None,None,None,None,None,None,None,-9999,-9999,None,None,None,-9999,-9999,None,None,None,None,None,None,None,None,None,None,None,None,None,None,None,None,None,None,None,None,None,None,None,None,-73.9669,40.7889,5,None,VRB,23,-4.7,10.00,29.89,30.04,FEW:02 43,43,3,None,0.00,None,8,-13.3,28,-2.2,30.06,39.6,2016-01-04 09:51,None,None,None,2142,1220,None,None,None,None,None,None,None,None,None,None,None,None,None,None,None,None
.52,2016-01-04 09:18:26,2016-01-04 09:25:24,7.8,0,1,N,2016-12-31 00:00:00,2016-01-01 00:00:00,New York,10022,-73.968437194824219,40.799446105957031,1,1,0.5,-73.968,40.759,0.3,6,0,-73.966438293457031,40.794395446777344,New York,2,2,NY CITY CENTRAL PARK NY US,WBAN:94728,1,FM-15,None,None,None,None,None,None,None,None,None,None,None,None,-9999,-9999,None,None,None,-9999,-9999,None,None,None,None,None,None,None,None,None,None,None,None,None,None,None,None,None,None,None,None,None,None,None,None,-73.9669,40.7889,5,None,VRB,23,-4.7,10.00,29.89,30.04,FEW:02 43,43,3,None,0.00,None,8,-13.3,28,-2.2,30.06,39.6,2016-01-04 09:51,None,None,None,2142,1220,None,None,None,None,None,None,None,None,None,None,None,None,None,None,None,None
2.36,2016-01-04 09:18:26,2016-01-04 09:36:30,17.16,0,2.86,N,None,None,None,None,-73.961051940917969,40.760810852050781,1,2,0.5,None,None,0.3,13.5,0,-73.982963562011719,40.748020172119141,None,None,2,NY CITY CENTRAL PARK NY US,WBAN:94728,1,FM-15,None,None,None,None,None,None,None,None,None,None,None,None,-9999,-9999,None,None,None,-9999,-9999,None,None,None,None,None,None,None,None,None,None,None,None,None,None,None,None,None,None,None,None,None,None,None,None,-73.9669,40.7889,5,None,VRB,23,-4.7,10.00,29.89,30.04,FEW:02 43,43,3,None,0.00,None,8,-13.3,28,-2.2,30.06,39.6,2016-01-04 09:51,None,None,None,2142,1220,None,None,None,None,None,None,None,None,None,None,None,None,None,None,None,None
4.48,2016-01-04 09:18:26,2016-01-04 09:25:02,16.3,0,2,N,None,None,None,None,-73.971900939941406,40.794780731201172,1,1,0.5,None,None,0.3,13.5,0,-73.938720703125,40.848560333251953,None,None,2,NY CITY CENTRAL PARK NY US,WBAN:94728,1,FM-15,None,None,None,None,None,None,None,None,None,None,None,None,-9999,-9999,None,None,None,-9999,-9999,None,None,None,None,None,None,None,None,None,None,None,None,None,None,None,None,None,None,None,None,None,None,None,None,-73.9669,40.7889,5,None,VRB,23,-4.7,10.00,29.89,30.04,FEW:02 43,43,3,None,0.00,None,8,-13.3,28,-2.2,30.06,39.6,2016-01-04 09:51,None,None,None,2142,1220,None,None,None,None,None,None,None,None,None,None,None,None,None,None,None,None
.32,2016-01-04 09:18:26,2016-01-04 09:22:00,5.76,0,0.96,N,None,None,None,None,-73.958229064941406,40.778739929199219,1,5,0.5,None,None,0.3,4,0,-73.961158752441406,40.774650573730469,None,None,2,NY CITY CENTRAL PARK NY US,WBAN:94728,1,FM-15,None,None,None,None,None,None,None,None,None,None,None,None,-9999,-9999,None,None,None,-9999,-9999,None,None,None,None,None,None,None,None,None,None,None,None,None,None,None,None,None,None,None,None,None,None,None,None,-73.9669,40.7889,5,None,VRB,23,-4.7,10.00,29.89,30.04,FEW:02 43,43,3,None,0.00,None,8,-13.3,28,-2.2,30.06,39.6,2016-01-04 09:51,None,None,None,2142,1220,None,None,None,None,None,None,None,None,None,None,None,None,None,None,None,None
8.60,2016-01-04 09:18:27,2016-01-04 09:49:13,34.55,0,5.75,N,2022-04-16 02:00:00 | None,2016-01-01 00:00:00 | 2016-01-01 00:00:00,New York | New York,None | 10028,-73.946052551269531,40.792472839355469,1,1,0.5,-73.9651814 | -73.9634699,40.7745779 | 40.7792134,0.3,28,0,-73.993171691894531,40.719764709472656,New York | New York,1 | 2,1,NY CITY CENTRAL PARK NY US,WBAN:94728,1,FM-15,None,None,None,None,None,None,None,None,None,None,None,None,-9999,-9999,None,None,None,-9999,-9999,None,None,None,None,None,None,None,None,None,None,None,None,None,None,None,None,None,None,None,None,None,None,None,None,-73.9669,40.7889,5,None,VRB,23,-4.7,10.00,29.89,30.04,FEW:02 43,43,3,None,0.00,None,8,-13.3,28,-2.2,30.06,39.6,2016-01-04 09:51,None,None,None,2142,1220,None,None,None,None,None,None,None,None,None,None,None,None,None,None,None,None
1.90,2016-01-04 09:18:27,2016-01-04 09:27:58,11.76,0,1.96,N,None | None,2016-01-01 03:00:00 | 2016-01-01 11:00:00,New York | New York,10002 | 10002,-73.956031799316406,40.781097412109375,1,1,0.5,-73.9847 | -73.9847,40.7182 | 40.7182,0.3,9,0,-73.938888549804688,40.804958343505859,New York | New York,0 | 0,1,NY CITY CENTRAL PARK NY US,WBAN:94728,1,FM-15,None,None,None,None,None,None,None,None,None,None,None,None,-9999,-9999,None,None,None,-9999,-9999,None,None,None,None,None,None,None,None,None,None,None,None,None,None,None,None,None,None,None,None,None,None,None,None,-73.9669,40.7889,5,None,VRB,23,-4.7,10.00,29.89,30.04,FEW:02 43,43,3,None,0.00,None,8,-13.3,28,-2.2,30.06,39.6,2016-01-04 09:51,None,None,None,2142,1220,None,None,None,None,None,None,None,None,None,None,None,None,None,None,None,None
1.10,2016-01-04 09:18:27,2016-01-04 09:32:19,12.35,0,2.05,N,None,None,None,None,-73.981941223144531,40.752143859863281,1,2,0.5,None,None,0.3,9.5,0,-73.972824096679688,40.758106231689453,None,None,1,NY CITY CENTRAL PARK NY US,WBAN:94728,1,FM-15,None,None,None,None,None,None,None,None,None,None,None,None,-9999,-9999,None,None,None,-9999,-9999,None,None,None,None,None,None,None,None,None,None,None,None,None,None,None,None,None,None,None,None,None,None,None,None,-73.9669,40.7889,5,None,VRB,23,-4.7,10.00,29.89,30.04,FEW:02 43,43,3,None,0.00,None,8,-13.3,28,-2.2,30.06,39.6,2016-01-04 09:51,None,None,None,2142,1220,None,None,None,None,None,None,None,None,None,None,None,None,None,None,None,None
3.32,2016-01-04 09:18:27,2016-01-04 09:48:03,20.8,0,1,N,2016-12-31 00:00:00,2016-01-01 00:00:00,New York,10022,-73.953643798828125,40.766620635986328,1,5,0.5,-73.968,40.759,0.3,19,0,-73.993240356445313,40.747291564941406,New York,2,2,NY CITY CENTRAL PARK NY US,WBAN:94728,1,FM-15,None,None,None,None,None,None,None,None,None,None,None,None,-9999,-9999,None,None,None,-9999,-9999,None,None,None,None,None,None,None,None,None,None,None,None,None,None,None,None,None,None,None,None,None,None,None,None,-73.9669,40.7889,5,None,VRB,23,-4.7,10.00,29.89,30.04,FEW:02 43,43,3,None,0.00,None,8,-13.3,28,-2.2,30.06,39.6,2016-01-04 09:51,None,None,None,2142,1220,None,None,None,None,None,None,None,None,None,None,None,None,None,None,None,None
.60,2016-01-04 09:18:27,2016-01-04 09:27:07,9.36,0,1.56,N,None,None,None,None,-73.99176025390625,40.749248504638672,1,1,0.5,None,None,0.3,7,0,-73.989311218261719,40.743812561035156,None,None,2,NY CITY CENTRAL PARK NY US,WBAN:94728,1,FM-15,None,None,None,None,None,None,None,None,None,None,None,None,-9999,-9999,None,None,None,-9999,-9999,None,None,None,None,None,None,None,None,None,None,None,None,None,None,None,None,None,None,None,None,None,None,None,None,-73.9669,40.7889,5,None,VRB,23,-4.7,10.00,29.89,30.04,FEW:02 43,43,3,None,0.00,None,8,-13.3,28,-2.2,30.06,39.6,2016-01-04 09:51,None,None,None,2142,1220,None,None,None,None,None,None,None,None,None,None,None,None,None,None,None,None
.81,2016-01-04 09:18:27,2016-01-04 09:23:41,7.88,0,1.58,N,None,None,None,None,-73.972549438476562,40.74652099609375,1,1,0.5,None,None,0.3,5.5,0,-73.967903137207031,40.755531311035156,None,None,2,NY CITY CENTRAL PARK NY US,WBAN:94728,1,FM-15,None,None,None,None,None,None,None,None,None,None,None,None,-9999,-9999,None,None,None,-9999,-9999,None,None,None,None,None,None,None,None,None,None,None,None,None,None,None,None,None,None,None,None,None,None,None,None,-73.9669,40.7889,5,None,VRB,23,-4.7,10.00,29.89,30.04,FEW:02 43,43,3,None,0.00,None,8,-13.3,28,-2.2,30.06,39.6,2016-01-04 09:51,None,None,None,2142,1220,None,None,None,None,None,None,None,None,None,None,None,None,None,None,None,None
.79,2016-01-04 09:18:27,2016-01-04 09:27:47,8.3,0,0,N,2016-12-31 00:00:00,2016-01-01 00:00:00,New York,10022,-73.989883422851562,40.735252380371094,2,5,0.5,-73.968,40.759,0.3,7.5,0,-73.981246948242188,40.736366271972656,New York,2,2,NY CITY CENTRAL PARK NY US,WBAN:94728,1,FM-15,None,None,None,None,None,None,None,None,None,None,None,None,-9999,-9999,None,None,None,-9999,-9999,None,None,None,None,None,None,None,None,None,None,None,None,None,None,None,None,None,None,None,None,None,None,None,None,-73.9669,40.7889,5,None,VRB,23,-4.7,10.00,29.89,30.04,FEW:02 43,43,3,None,0.00,None,8,-13.3,28,-2.2,30.06,39.6,2016-01-04 09:51,None,None,None,2142,1220,None,None,None,None,None,None,None,None,None,None,None,None,None,None,None,None
.51,2016-01-04 09:18:27,2016-01-04 09:29:06,8.3,0,0,N,None,2016-01-01 09:00:00,New York,10003,-73.975479125976562,40.749813079833984,1,1,0.5,-73.9870210,40.7308580,0.3,7.5,0,-73.970085144042969,40.756099700927734,New York,0,2,NY CITY CENTRAL PARK NY US,WBAN:94728,1,FM-15,None,None,None,None,None,None,None,None,None,None,None,None,-9999,-9999,None,None,None,-9999,-9999,None,None,None,None,None,None,None,None,None,None,None,None,None,None,None,None,None,None,None,None,None,None,None,None,-73.9669,40.7889,5,None,VRB,23,-4.7,10.00,29.89,30.04,FEW:02 43,43,3,None,0.00,None,8,-13.3,28,-2.2,30.06,39.6,2016-01-04 09:51,None,None,None,2142,1220,None,None,None,None,None,None,None,None,None,None,None,None,None,None,None,None
4.60,2016-01-04 09:18:28,2016-01-04 09:59:42,32.75,0,5.45,N,2016-12-31 00:00:00,2016-01-01 00:00:00,New York,10022,-73.995574951171875,40.754817962646484,1,1,0.5,-73.968,40.759,0.3,26.5,0,-73.948745727539063,40.770698547363281,New York,2,1,NY CITY CENTRAL PARK NY US,WBAN:94728,1,FM-15,None,None,None,None,None,None,None,None,None,None,None,None,-9999,-9999,None,None,None,-9999,-9999,None,None,None,None,None,None,None,None,None,None,None,None,None,None,None,None,None,None,None,None,None,None,None,None,-73.9669,40.7889,5,None,VRB,23,-4.7,10.00,29.89,30.04,FEW:02 43,43,3,None,0.00,None,8,-13.3,28,-2.2,30.06,39.6,2016-01-04 09:51,None,None,None,2142,1220,None,None,None,None,None,None,None,None,None,None,None,None,None,None,None,None
.00,2016-01-04 09:18:28,2016-01-04 09:18:34,3.3,0,0,N,None,None,None,None,-73.949928283691406,40.772037506103516,3,1,0.5,None,None,0.3,2.5,0,-73.949920654296875,40.77203369140625,None,None,1,NY CITY CENTRAL PARK NY US,WBAN:94728,1,FM-15,None,None,None,None,None,None,None,None,None,None,None,None,-9999,-9999,None,None,None,-9999,-9999,None,None,None,None,None,None,None,None,None,None,None,None,None,None,None,None,None,None,None,None,None,None,None,None,-73.9669,40.7889,5,None,VRB,23,-4.7,10.00,29.89,30.04,FEW:02 43,43,3,None,0.00,None,8,-13.3,28,-2.2,30.06,39.6,2016-01-04 09:51,None,None,None,2142,1220,None,None,None,None,None,None,None,None,None,None,None,None,None,None,None,None
1.20,2016-01-04 09:18:28,2016-01-04 09:32:04,12.35,0,2.05,N,None,None,None,None,-73.984519958496094,40.745746612548828,1,1,0.5,None,None,0.3,9.5,0,-73.972610473632812,40.761558532714844,None,None,1,NY CITY CENTRAL PARK NY US,WBAN:94728,1,FM-15,None,None,None,None,None,None,None,None,None,None,None,None,-9999,-9999,None,None,None,-9999,-9999,None,None,None,None,None,None,None,None,None,None,None,None,None,None,None,None,None,None,None,None,None,None,None,None,-73.9669,40.7889,5,None,VRB,23,-4.7,10.00,29.89,30.04,FEW:02 43,43,3,None,0.00,None,8,-13.3,28,-2.2,30.06,39.6,2016-01-04 09:51,None,None,None,2142,1220,None,None,None,None,None,None,None,None,None,None,None,None,None,None,None,None
.77,2016-01-04 09:18:28,2016-01-04 09:27:01,9.36,0,1.56,N,None | 2016-12-31 00:00:00,2016-01-01 00:00:00 | 2016-01-01 00:00:00,New York | New York,10019 | 10022,-73.974624633789063,40.751060485839844,1,1,0.5,-73.9803996 | -73.968,40.7656668 | 40.759,0.3,7,0,-73.987213134765625,40.75628662109375,New York | New York,1 | 2,2,NY CITY CENTRAL PARK NY US,WBAN:94728,1,FM-15,None,None,None,None,None,None,None,None,None,None,None,None,-9999,-9999,None,None,None,-9999,-9999,None,None,None,None,None,None,None,None,None,None,None,None,None,None,None,None,None,None,None,None,None,None,None,None,-73.9669,40.7889,5,None,VRB,23,-4.7,10.00,29.89,30.04,FEW:02 43,43,3,None,0.00,None,8,-13.3,28,-2.2,30.06,39.6,2016-01-04 09:51,None,None,None,2142,1220,None,None,None,None,None,None,None,None,None,None,None,None,None,None,None,None
1.43,2016-01-04 09:18:28,2016-01-04 09:32:44,13.56,0,2.26,N,None,None,None,None,-73.980941772460938,40.744373321533203,1,5,0.5,None,None,0.3,10.5,0,-73.981346130371094,40.759475708007812,None,None,2,NY CITY CENTRAL PARK NY US,WBAN:94728,1,FM-15,None,None,None,None,None,None,None,None,None,None,None,None,-9999,-9999,None,None,None,-9999,-9999,None,None,None,None,None,None,None,None,None,None,None,None,None,None,None,None,None,None,None,None,None,None,None,None,-73.9669,40.7889,5,None,VRB,23,-4.7,10.00,29.89,30.04,FEW:02 43,43,3,None,0.00,None,8,-13.3,28,-2.2,30.06,39.6,2016-01-04 09:51,None,None,None,2142,1220,None,None,None,None,None,None,None,None,None,None,None,None,None,None,None,None
.34,2016-01-04 09:18:28,2016-01-04 09:21:05,4.3,0,0,N,None | 2016-07-03 00:00:00,2016-01-01 00:00:00 | 2015-10-08 00:00:00,New York | New York,10019 | 10019,-73.957260131835937,40.770488739013672,2,2,0.5,-73.9803996 | -73.9844951,40.7656668 | 40.7632328,0.3,3.5,0,-73.962860107421875,40.768161773681641,New York | New York,1 | 2,2,NY CITY CENTRAL PARK NY US,WBAN:94728,1,FM-15,None,None,None,None,None,None,None,None,None,None,None,None,-9999,-9999,None,None,None,-9999,-9999,None,None,None,None,None,None,None,None,None,None,None,None,None,None,None,None,None,None,None,None,None,None,None,None,-73.9669,40.7889,5,None,VRB,23,-4.7,10.00,29.89,30.04,FEW:02 43,43,3,None,0.00,None,8,-13.3,28,-2.2,30.06,39.6,2016-01-04 09:51,None,None,None,2142,1220,None,None,None,None,None,None,None,None,None,None,None,None,None,None,None,None
3.49,2016-01-04 09:18:28,2016-01-04 09:41:42,18.8,0,1,N,2022-04-16 02:00:00,2016-01-01 00:00:00,New York,None,-74.016151428222656,40.709911346435547,1,1,0.5,-73.9651814,40.7745779,0.3,17,0,-73.991561889648438,40.739921569824219,New York,1,2,NY CITY CENTRAL PARK NY US,WBAN:94728,1,FM-15,None,None,None,None,None,None,None,None,None,None,None,None,-9999,-9999,None,None,None,-9999,-9999,None,None,None,None,None,None,None,None,None,None,None,None,None,None,None,None,None,None,None,None,None,None,None,None,-73.9669,40.7889,5,None,VRB,23,-4.7,10.00,29.89,30.04,FEW:02 43,43,3,None,0.00,None,8,-13.3,28,-2.2,30.06,39.6,2016-01-04 09:51,None,None,None,2142,1220,None,None,None,None,None,None,None,None,None,None,None,None,None,None,None,None
1.77,2016-01-04 09:18:28,2016-01-04 09:42:10,18.96,0,3.16,N,None,None,None,None,-73.990310668945313,40.750938415527344,1,1,0.5,None,None,0.3,15,0,-73.970596313476563,40.756080627441406,None,None,2,NY CITY CENTRAL PARK NY US,WBAN:94728,1,FM-15,None,None,None,None,None,None,None,None,None,None,None,None,-9999,-9999,None,None,None,-9999,-9999,None,None,None,None,None,None,None,None,None,None,None,None,None,None,None,None,None,None,None,None,None,None,None,None,-73.9669,40.7889,5,None,VRB,23,-4.7,10.00,29.89,30.04,FEW:02 43,43,3,None,0.00,None,8,-13.3,28,-2.2,30.06,39.6,2016-01-04 09:51,None,None,None,2142,1220,None,None,None,None,None,None,None,None,None,None,None,None,None,None,None,None
4.65,2016-01-04 09:18:28,2016-01-04 09:48:46,21.8,0,0,N,2016-12-31 00:00:00,2016-01-01 00:00:00,New York,10022,-74.005088806152344,40.730998992919922,2,1,0.5,-73.968,40.759,0.3,21,0,-73.961959838867188,40.773281097412109,New York,2,2,NY CITY CENTRAL PARK NY US,WBAN:94728,1,FM-15,None,None,None,None,None,None,None,None,None,None,None,None,-9999,-9999,None,None,None,-9999,-9999,None,None,None,None,None,None,None,None,None,None,None,None,None,None,None,None,None,None,None,None,None,None,None,None,-73.9669,40.7889,5,None,VRB,23,-4.7,10.00,29.89,30.04,FEW:02 43,43,3,None,0.00,None,8,-13.3,28,-2.2,30.06,39.6,2016-01-04 09:51,None,None,None,2142,1220,None,None,None,None,None,None,None,None,None,None,None,None,None,None,None,None
3.20,2016-01-04 09:18:29,2016-01-04 09:42:24,21.35,0,3.55,N,2022-04-16 02:00:00 | None,2016-01-01 00:00:00 | 2016-01-01 00:00:00,New York | New York,None | 10028,-73.993980407714844,40.751201629638672,1,1,0.5,-73.9651814 | -73.9634699,40.7745779 | 40.7792134,0.3,17,0,-73.968490600585938,40.790782928466797,New York | New York,1 | 2,1,NY CITY CENTRAL PARK NY US,WBAN:94728,1,FM-15,None,None,None,None,None,None,None,None,None,None,None,None,-9999,-9999,None,None,None,-9999,-9999,None,None,None,None,None,None,None,None,None,None,None,None,None,None,None,None,None,None,None,None,None,None,None,None,-73.9669,40.7889,5,None,VRB,23,-4.7,10.00,29.89,30.04,FEW:02 43,43,3,None,0.00,None,8,-13.3,28,-2.2,30.06,39.6,2016-01-04 09:51,None,None,None,2142,1220,None,None,None,None,None,None,None,None,None,None,None,None,None,None,None,None
1.30,2016-01-04 09:18:29,2016-01-04 09:27:48,8.8,0,0,N,None,None,None,None,-73.9869384765625,40.73944091796875,2,1,0.5,None,None,0.3,8,0,-73.975189208984375,40.755901336669922,None,None,1,NY CITY CENTRAL PARK NY US,WBAN:94728,1,FM-15,None,None,None,None,None,None,None,None,None,None,None,None,-9999,-9999,None,None,None,-9999,-9999,None,None,None,None,None,None,None,None,None,None,None,None,None,None,None,None,None,None,None,None,None,None,None,None,-73.9669,40.7889,5,None,VRB,23,-4.7,10.00,29.89,30.04,FEW:02 43,43,3,None,0.00,None,8,-13.3,28,-2.2,30.06,39.6,2016-01-04 09:51,None,None,None,2142,1220,None,None,None,None,None,None,None,None,None,None,None,None,None,None,None,None
2.00,2016-01-04 09:18:29,2016-01-04 09:43:48,15.8,0,0,N,2016-12-31 00:00:00,2016-01-01 00:00:00,New York,10022,-73.979873657226562,40.735160827636719,2,1,0.5,-73.968,40.759,0.3,15,0,-73.990791320800781,40.755157470703125,New York,2,1,NY CITY CENTRAL PARK NY US,WBAN:94728,1,FM-15,None,None,None,None,None,None,None,None,None,None,None,None,-9999,-9999,None,None,None,-9999,-9999,None,None,None,None,None,None,None,None,None,None,None,None,None,None,None,None,None,None,None,None,None,None,None,None,-73.9669,40.7889,5,None,VRB,23,-4.7,10.00,29.89,30.04,FEW:02 43,43,3,None,0.00,None,8,-13.3,28,-2.2,30.06,39.6,2016-01-04 09:51,None,None,None,2142,1220,None,None,None,None,None,None,None,None,None,None,None,None,None,None,None,None
1.70,2016-01-04 09:18:29,2016-01-04 09:38:37,16,0,1.7,N,None,None,None,None,-73.99188232421875,40.74993896484375,1,1,0.5,None,None,0.3,13.5,0,-73.976188659667969,40.740779876708984,None,None,1,NY CITY CENTRAL PARK NY US,WBAN:94728,1,FM-15,None,None,None,None,None,None,None,None,None,None,None,None,-9999,-9999,None,None,None,-9999,-9999,None,None,None,None,None,None,None,None,None,None,None,None,None,None,None,None,None,None,None,None,None,None,None,None,-73.9669,40.7889,5,None,VRB,23,-4.7,10.00,29.89,30.04,FEW:02 43,43,3,None,0.00,None,8,-13.3,28,-2.2,30.06,39.6,2016-01-04 09:51,None,None,None,2142,1220,None,None,None,None,None,None,None,None,None,None,None,None,None,None,None,None
2.89,2016-01-04 09:18:29,2016-01-04 09:33:10,16.56,0,2.76,N,None,None,None,None,-73.996551513671875,40.737300872802734,1,1,0.5,None,None,0.3,13,0,-74.01409912109375,40.713920593261719,None,None,2,NY CITY CENTRAL PARK NY US,WBAN:94728,1,FM-15,None,None,None,None,None,None,None,None,None,None,None,None,-9999,-9999,None,None,None,-9999,-9999,None,None,None,None,None,None,None,None,None,None,None,None,None,None,None,None,None,None,None,None,None,None,None,None,-73.9669,40.7889,5,None,VRB,23,-4.7,10.00,29.89,30.04,FEW:02 43,43,3,None,0.00,None,8,-13.3,28,-2.2,30.06,39.6,2016-01-04 09:51,None,None,None,2142,1220,None,None,None,None,None,None,None,None,None,None,None,None,None,None,None,None
1.05,2016-01-04 09:18:29,2016-01-04 09:27:44,8.3,0,0,N,None | None | None,2016-01-01 00:00:00 | 2016-01-01 00:00:00 | 2016-01-01 02:00:00,New York | New York | New York,None | None | 10038,-74.008781433105469,40.71905517578125,2,1,0.5,-74.0064 | -74.0064 | -74.0081571,40.7142 | 40.7142 | 40.7090990,0.3,7.5,0,-73.998542785644531,40.728591918945313,New York | New York | New York,1 | 1 | 0,2,NY CITY CENTRAL PARK NY US,WBAN:94728,1,FM-15,None,None,None,None,None,None,None,None,None,None,None,None,-9999,-9999,None,None,None,-9999,-9999,None,None,None,None,None,None,None,None,None,None,None,None,None,None,None,None,None,None,None,None,None,None,None,None,-73.9669,40.7889,5,None,VRB,23,-4.7,10.00,29.89,30.04,FEW:02 43,43,3,None,0.00,None,8,-13.3,28,-2.2,30.06,39.6,2016-01-04 09:51,None,None,None,2142,1220,None,None,None,None,None,None,None,None,None,None,None,None,None,None,None,None
1.43,2016-01-04 09:18:29,2016-01-04 09:34:49,14.75,0,2.95,N,None,None,None,None,-73.9952392578125,40.749820709228516,1,1,0.5,None,None,0.3,11,0,-73.977333068847656,40.755458831787109,None,None,2,NY CITY CENTRAL PARK NY US,WBAN:94728,1,FM-15,None,None,None,None,None,None,None,None,None,None,None,None,-9999,-9999,None,None,None,-9999,-9999,None,None,None,None,None,None,None,None,None,None,None,None,None,None,None,None,None,None,None,None,None,None,None,None,-73.9669,40.7889,5,None,VRB,23,-4.7,10.00,29.89,30.04,FEW:02 43,43,3,None,0.00,None,8,-13.3,28,-2.2,30.06,39.6,2016-01-04 09:51,None,None,None,2142,1220,None,None,None,None,None,None,None,None,None,None,None,None,None,None,None,None
1.69,2016-01-04 09:18:29,2016-01-04 09:29:55,11.76,0,1.96,N,None,None,None,None,-74.000816345214844,40.752349853515625,1,1,0.5,None,None,0.3,9,0,-73.990501403808594,40.740100860595703,None,None,2,NY CITY CENTRAL PARK NY US,WBAN:94728,1,FM-15,None,None,None,None,None,None,None,None,None,None,None,None,-9999,-9999,None,None,None,-9999,-9999,None,None,None,None,None,None,None,None,None,None,None,None,None,None,None,None,None,None,None,None,None,None,None,None,-73.9669,40.7889,5,None,VRB,23,-4.7,10.00,29.89,30.04,FEW:02 43,43,3,None,0.00,None,8,-13.3,28,-2.2,30.06,39.6,2016-01-04 09:51,None,None,None,2142,1220,None,None,None,None,None,None,None,None,None,None,None,None,None,None,None,None
.90,2016-01-04 09:18:30,2016-01-04 09:23:43,6.3,0,0,N,None,None,None,None,-74.016860961914062,40.706317901611328,2,1,0.5,None,None,0.3,5.5,0,-74.010536193847656,40.708808898925781,None,None,1,NY CITY CENTRAL PARK NY US,WBAN:94728,1,FM-15,None,None,None,None,None,None,None,None,None,None,None,None,-9999,-9999,None,None,None,-9999,-9999,None,None,None,None,None,None,None,None,None,None,None,None,None,None,None,None,None,None,None,None,None,None,None,None,-73.9669,40.7889,5,None,VRB,23,-4.7,10.00,29.89,30.04,FEW:02 43,43,3,None,0.00,None,8,-13.3,28,-2.2,30.06,39.6,2016-01-04 09:51,None,None,None,2142,1220,None,None,None,None,None,None,None,None,None,None,None,None,None,None,None,None
1.60,2016-01-04 09:18:30,2016-01-04 09:39:57,17.75,0,2.95,N,None | None | None,2016-01-01 00:00:00 | 2016-01-01 00:00:00 | 2016-01-01 02:00:00,New York | New York | New York,None | None | 10038,-73.956573486328125,40.767017364501953,1,1,0.5,-74.0064 | -74.0064 | -74.0081571,40.7142 | 40.7142 | 40.7090990,0.3,14,0,-73.976974487304688,40.762519836425781,New York | New York | New York,1 | 1 | 0,1,NY CITY CENTRAL PARK NY US,WBAN:94728,1,FM-15,None,None,None,None,None,None,None,None,None,None,None,None,-9999,-9999,None,None,None,-9999,-9999,None,None,None,None,None,None,None,None,None,None,None,None,None,None,None,None,None,None,None,None,None,None,None,None,-73.9669,40.7889,5,None,VRB,23,-4.7,10.00,29.89,30.04,FEW:02 43,43,3,None,0.00,None,8,-13.3,28,-2.2,30.06,39.6,2016-01-04 09:51,None,None,None,2142,1220,None,None,None,None,None,None,None,None,None,None,None,None,None,None,None,None
1.20,2016-01-04 09:18:30,2016-01-04 09:29:58,10.8,0,1.5,N,None | 2016-07-03 00:00:00,2016-01-01 00:00:00 | 2015-10-08 00:00:00,New York | New York,10019 | 10019,-73.966964721679688,40.769847869873047,1,1,0.5,-73.9803996 | -73.9844951,40.7656668 | 40.7632328,0.3,8.5,0,-73.984306335449219,40.769893646240234,New York | New York,1 | 2,1,NY CITY CENTRAL PARK NY US,WBAN:94728,1,FM-15,None,None,None,None,None,None,None,None,None,None,None,None,-9999,-9999,None,None,None,-9999,-9999,None,None,None,None,None,None,None,None,None,None,None,None,None,None,None,None,None,None,None,None,None,None,None,None,-73.9669,40.7889,5,None,VRB,23,-4.7,10.00,29.89,30.04,FEW:02 43,43,3,None,0.00,None,8,-13.3,28,-2.2,30.06,39.6,2016-01-04 09:51,None,None,None,2142,1220,None,None,None,None,None,None,None,None,None,None,None,None,None,None,None,None
19.22,2016-01-04 09:18:30,2016-01-04 10:03:31,63.36,0,10.56,N,None | 2016-07-03 00:00:00,2016-01-01 00:00:00 | 2015-10-08 00:00:00,New York | New York,10019 | 10019,-74.002754211425781,40.728641510009766,1,3,0.5,-73.9803996 | -73.9844951,40.7656668 | 40.7632328,0.3,52,0,-73.783500671386719,40.643699645996094,New York | New York,1 | 2,2,NY CITY CENTRAL PARK NY US,WBAN:94728,2,FM-15,None,None,None,None,None,None,None,None,None,None,None,None,-9999,-9999,None,None,None,-9999,-9999,None,None,None,None,None,None,None,None,None,None,None,None,None,None,None,None,None,None,None,None,None,None,None,None,-73.9669,40.7889,5,None,VRB,23,-4.7,10.00,29.89,30.04,FEW:02 43,43,3,None,0.00,None,8,-13.3,28,-2.2,30.06,39.6,2016-01-04 09:51,None,None,None,2142,1220,None,None,None,None,None,None,None,None,None,None,None,None,None,None,None,None
2.10,2016-01-04 09:18:31,2016-01-04 09:37:55,13.8,0,0,N,None,None,None,None,-73.982231140136719,40.765132904052734,2,1,0.5,None,None,0.3,13,0,-73.954200744628906,40.767181396484375,None,None,1,NY CITY CENTRAL PARK NY US,WBAN:94728,1,FM-15,None,None,None,None,None,None,None,None,None,None,None,None,-9999,-9999,None,None,None,-9999,-9999,None,None,None,None,None,None,None,None,None,None,None,None,None,None,None,None,None,None,None,None,None,None,None,None,-73.9669,40.7889,5,None,VRB,23,-4.7,10.00,29.89,30.04,FEW:02 43,43,3,None,0.00,None,8,-13.3,28,-2.2,30.06,39.6,2016-01-04 09:51,None,None,None,2142,1220,None,None,None,None,None,None,None,None,None,None,None,None,None,None,None,None
7.00,2016-01-04 09:18:31,2016-01-04 09:45:17,38.19,5.54,6.35,N,None,None,None,None,-74.000205993652344,40.678451538085938,1,1,0.5,None,None,0.3,25.5,0,-73.983047485351563,40.734821319580078,None,None,1,NY CITY CENTRAL PARK NY US,WBAN:94728,1,FM-15,None,None,None,None,None,None,None,None,None,None,None,None,-9999,-9999,None,None,None,-9999,-9999,None,None,None,None,None,None,None,None,None,None,None,None,None,None,None,None,None,None,None,None,None,None,None,None,-73.9669,40.7889,5,None,VRB,23,-4.7,10.00,29.89,30.04,FEW:02 43,43,3,None,0.00,None,8,-13.3,28,-2.2,30.06,39.6,2016-01-04 09:51,None,None,None,2142,1220,None,None,None,None,None,None,None,None,None,None,None,None,None,None,None,None
15.90,2016-01-04 09:18:31,2016-01-04 09:51:40,69.99,5.54,11.65,N,None,2016-01-01 09:00:00,New York,10003,-73.983627319335938,40.747642517089844,1,1,0.5,-73.9870210,40.7308580,0.3,52,0,-73.78704833984375,40.64691162109375,New York,0,1,NY CITY CENTRAL PARK NY US,WBAN:94728,2,FM-15,None,None,None,None,None,None,None,None,None,None,None,None,-9999,-9999,None,None,None,-9999,-9999,None,None,None,None,None,None,None,None,None,None,None,None,None,None,None,None,None,None,None,None,None,None,None,None,-73.9669,40.7889,5,None,VRB,23,-4.7,10.00,29.89,30.04,FEW:02 43,43,3,None,0.00,None,8,-13.3,28,-2.2,30.06,39.6,2016-01-04 09:51,None,None,None,2142,1220,None,None,None,None,None,None,None,None,None,None,None,None,None,None,None,None
6.82,2016-01-04 09:18:31,2016-01-04 09:40:50,35.81,5.54,5.97,N,None,None,None,None,-73.951728820800781,40.769489288330078,1,6,0.5,None,None,0.3,23.5,0,-73.91217041015625,40.758941650390625,None,None,2,NY CITY CENTRAL PARK NY US,WBAN:94728,1,FM-15,None,None,None,None,None,None,None,None,None,None,None,None,-9999,-9999,None,None,None,-9999,-9999,None,None,None,None,None,None,None,None,None,None,None,None,None,None,None,None,None,None,None,None,None,None,None,None,-73.9669,40.7889,5,None,VRB,23,-4.7,10.00,29.89,30.04,FEW:02 43,43,3,None,0.00,None,8,-13.3,28,-2.2,30.06,39.6,2016-01-04 09:51,None,None,None,2142,1220,None,None,None,None,None,None,None,None,None,None,None,None,None,None,None,None
1.25,2016-01-04 09:18:31,2016-01-04 09:25:55,9.36,0,1.56,N,None,None,None,None,-73.955703735351563,40.768482208251953,1,1,0.5,None,None,0.3,7,0,-73.959945678710937,40.778812408447266,None,None,2,NY CITY CENTRAL PARK NY US,WBAN:94728,1,FM-15,None,None,None,None,None,None,None,None,None,None,None,None,-9999,-9999,None,None,None,-9999,-9999,None,None,None,None,None,None,None,None,None,None,None,None,None,None,None,None,None,None,None,None,None,None,None,None,-73.9669,40.7889,5,None,VRB,23,-4.7,10.00,29.89,30.04,FEW:02 43,43,3,None,0.00,None,8,-13.3,28,-2.2,30.06,39.6,2016-01-04 09:51,None,None,None,2142,1220,None,None,None,None,None,None,None,None,None,None,None,None,None,None,None,None
2.25,2016-01-04 09:18:31,2016-01-04 09:39:17,17.76,0,2.96,N,2022-04-16 02:00:00 | None,2016-01-01 00:00:00 | 2016-01-01 00:00:00,New York | New York,None | 10028,-73.988136291503906,40.738006591796875,1,1,0.5,-73.9651814 | -73.9634699,40.7745779 | 40.7792134,0.3,14,0,-73.982536315917969,40.763240814208984,New York | New York,1 | 2,2,NY CITY CENTRAL PARK NY US,WBAN:94728,1,FM-15,None,None,None,None,None,None,None,None,None,None,None,None,-9999,-9999,None,None,None,-9999,-9999,None,None,None,None,None,None,None,None,None,None,None,None,None,None,None,None,None,None,None,None,None,None,None,None,-73.9669,40.7889,5,None,VRB,23,-4.7,10.00,29.89,30.04,FEW:02 43,43,3,None,0.00,None,8,-13.3,28,-2.2,30.06,39.6,2016-01-04 09:51,None,None,None,2142,1220,None,None,None,None,None,None,None,None,None,None,None,None,None,None,None,None
5.10,2016-01-04 09:18:32,2016-01-04 09:48:56,29.75,0,4.95,N,None | 2016-07-03 00:00:00,2016-01-01 00:00:00 | 2015-10-08 00:00:00,New York | New York,10019 | 10019,-73.993873596191406,40.735260009765625,1,1,0.5,-73.9803996 | -73.9844951,40.7656668 | 40.7632328,0.3,24,0,-74.014190673828125,40.708358764648437,New York | New York,1 | 2,1,NY CITY CENTRAL PARK NY US,WBAN:94728,1,FM-15,None,None,None,None,None,None,None,None,None,None,None,None,-9999,-9999,None,None,None,-9999,-9999,None,None,None,None,None,None,None,None,None,None,None,None,None,None,None,None,None,None,None,None,None,None,None,None,-73.9669,40.7889,5,None,VRB,23,-4.7,10.00,29.89,30.04,FEW:02 43,43,3,None,0.00,None,8,-13.3,28,-2.2,30.06,39.6,2016-01-04 09:51,None,None,None,2142,1220,None,None,None,None,None,None,None,None,None,None,None,None,None,None,None,None
3.00,2016-01-04 09:18:32,2016-01-04 09:35:38,18.5,0,3.7,N,None,2016-01-01 02:00:00,New York,10038,-73.986419677734375,40.734626770019531,1,1,0.5,-74.0081571,40.7090990,0.3,14,0,-74.01580810546875,40.716037750244141,New York,0,1,NY CITY CENTRAL PARK NY US,WBAN:94728,1,FM-15,None,None,None,None,None,None,None,None,None,None,None,None,-9999,-9999,None,None,None,-9999,-9999,None,None,None,None,None,None,None,None,None,None,None,None,None,None,None,None,None,None,None,None,None,None,None,None,-73.9669,40.7889,5,None,VRB,23,-4.7,10.00,29.89,30.04,FEW:02 43,43,3,None,0.00,None,8,-13.3,28,-2.2,30.06,39.6,2016-01-04 09:51,None,None,None,2142,1220,None,None,None,None,None,None,None,None,None,None,None,None,None,None,None,None
2.10,2016-01-04 09:18:32,2016-01-04 09:41:58,18.95,0,3.15,N,None,None,None,None,-73.955741882324219,40.781909942626953,1,1,0.5,None,None,0.3,15,0,-73.962409973144531,40.758342742919922,None,None,1,NY CITY CENTRAL PARK NY US,WBAN:94728,1,FM-15,None,None,None,None,None,None,None,None,None,None,None,None,-9999,-9999,None,None,None,-9999,-9999,None,None,None,None,None,None,None,None,None,None,None,None,None,None,None,None,None,None,None,None,None,None,None,None,-73.9669,40.7889,5,None,VRB,23,-4.7,10.00,29.89,30.04,FEW:02 43,43,3,None,0.00,None,8,-13.3,28,-2.2,30.06,39.6,2016-01-04 09:51,None,None,None,2142,1220,None,None,None,None,None,None,None,None,None,None,None,None,None,None,None,None
3.40,2016-01-04 09:18:32,2016-01-04 09:55:33,29.12,0,5.82,N,2016-12-31 00:00:00,2016-01-01 00:00:00,New York,10022,-73.95587158203125,40.779304504394531,1,1,0.5,-73.968,40.759,0.3,22.5,0,-73.989166259765625,40.741359710693359,New York,2,1,NY CITY CENTRAL PARK NY US,WBAN:94728,1,FM-15,None,None,None,None,None,None,None,None,None,None,None,None,-9999,-9999,None,None,None,-9999,-9999,None,None,None,None,None,None,None,None,None,None,None,None,None,None,None,None,None,None,None,None,None,None,None,None,-73.9669,40.7889,5,None,VRB,23,-4.7,10.00,29.89,30.04,FEW:02 43,43,3,None,0.00,None,8,-13.3,28,-2.2,30.06,39.6,2016-01-04 09:51,None,None,None,2142,1220,None,None,None,None,None,None,None,None,None,None,None,None,None,None,None,None
5.17,2016-01-04 09:18:32,2016-01-04 09:37:50,24.36,0,4.06,N,None,None,None,None,-73.978904724121094,40.740768432617188,1,1,0.5,None,None,0.3,19.5,0,-74.014930725097656,40.71307373046875,None,None,2,NY CITY CENTRAL PARK NY US,WBAN:94728,1,FM-15,None,None,None,None,None,None,None,None,None,None,None,None,-9999,-9999,None,None,None,-9999,-9999,None,None,None,None,None,None,None,None,None,None,None,None,None,None,None,None,None,None,None,None,None,None,None,None,-73.9669,40.7889,5,None,VRB,23,-4.7,10.00,29.89,30.04,FEW:02 43,43,3,None,0.00,None,8,-13.3,28,-2.2,30.06,39.6,2016-01-04 09:51,None,None,None,2142,1220,None,None,None,None,None,None,None,None,None,None,None,None,None,None,None,None
.40,2016-01-04 09:18:33,2016-01-04 09:20:32,5.15,0,0.85,N,None | None | None,2016-01-01 00:00:00 | 2016-01-01 00:00:00 | 2016-01-01 02:00:00,New York | New York | New York,None | None | 10038,-73.999580383300781,40.738510131835938,1,1,0.5,-74.0064 | -74.0064 | -74.0081571,40.7142 | 40.7142 | 40.7090990,0.3,3.5,0,-74.002471923828125,40.734035491943359,New York | New York | New York,1 | 1 | 0,1,NY CITY CENTRAL PARK NY US,WBAN:94728,1,FM-15,None,None,None,None,None,None,None,None,None,None,None,None,-9999,-9999,None,None,None,-9999,-9999,None,None,None,None,None,None,None,None,None,None,None,None,None,None,None,None,None,None,None,None,None,None,None,None,-73.9669,40.7889,5,None,VRB,23,-4.7,10.00,29.89,30.04,FEW:02 43,43,3,None,0.00,None,8,-13.3,28,-2.2,30.06,39.6,2016-01-04 09:51,None,None,None,2142,1220,None,None,None,None,None,None,None,None,None,None,None,None,None,None,None,None
3.30,2016-01-04 09:18:33,2016-01-04 09:45:32,22.55,0,3.75,N,None,None,None,None,-73.985786437988281,40.730953216552734,1,1,0.5,None,None,0.3,18,0,-73.966621398925781,40.766292572021484,None,None,1,NY CITY CENTRAL PARK NY US,WBAN:94728,1,FM-15,None,None,None,None,None,None,None,None,None,None,None,None,-9999,-9999,None,None,None,-9999,-9999,None,None,None,None,None,None,None,None,None,None,None,None,None,None,None,None,None,None,None,None,None,None,None,None,-73.9669,40.7889,5,None,VRB,23,-4.7,10.00,29.89,30.04,FEW:02 43,43,3,None,0.00,None,8,-13.3,28,-2.2,30.06,39.6,2016-01-04 09:51,None,None,None,2142,1220,None,None,None,None,None,None,None,None,None,None,None,None,None,None,None,None
1.50,2016-01-04 09:18:33,2016-01-04 09:37:02,14.3,0,1,N,None,None,None,None,-73.990219116210938,40.756256103515625,1,2,0.5,None,None,0.3,12.5,0,-73.981460571289063,40.745216369628906,None,None,1,NY CITY CENTRAL PARK NY US,WBAN:94728,1,FM-15,None,None,None,None,None,None,None,None,None,None,None,None,-9999,-9999,None,None,None,-9999,-9999,None,None,None,None,None,None,None,None,None,None,None,None,None,None,None,None,None,None,None,None,None,None,None,None,-73.9669,40.7889,5,None,VRB,23,-4.7,10.00,29.89,30.04,FEW:02 43,43,3,None,0.00,None,8,-13.3,28,-2.2,30.06,39.6,2016-01-04 09:51,None,None,None,2142,1220,None,None,None,None,None,None,None,None,None,None,None,None,None,None,None,None
1.57,2016-01-04 09:18:33,2016-01-04 09:33:36,11.3,0,0,N,None,None,None,None,-73.952651977539063,40.783580780029297,2,3,0.5,None,None,0.3,10.5,0,-73.964553833007813,40.764812469482422,None,None,2,NY CITY CENTRAL PARK NY US,WBAN:94728,1,FM-15,None,None,None,None,None,None,None,None,None,None,None,None,-9999,-9999,None,None,None,-9999,-9999,None,None,None,None,None,None,None,None,None,None,None,None,None,None,None,None,None,None,None,None,None,None,None,None,-73.9669,40.7889,5,None,VRB,23,-4.7,10.00,29.89,30.04,FEW:02 43,43,3,None,0.00,None,8,-13.3,28,-2.2,30.06,39.6,2016-01-04 09:51,None,None,None,2142,1220,None,None,None,None,None,None,None,None,None,None,None,None,None,None,None,None
2.11,2016-01-04 09:18:33,2016-01-04 09:27:32,11.76,0,1.96,N,2016-12-31 00:00:00,2016-01-01 00:00:00,New York,10022,-73.949569702148438,40.781150817871094,1,5,0.5,-73.968,40.759,0.3,9,0,-73.97589111328125,40.776458740234375,New York,2,2,NY CITY CENTRAL PARK NY US,WBAN:94728,1,FM-15,None,None,None,None,None,None,None,None,None,None,None,None,-9999,-9999,None,None,None,-9999,-9999,None,None,None,None,None,None,None,None,None,None,None,None,None,None,None,None,None,None,None,None,None,None,None,None,-73.9669,40.7889,5,None,VRB,23,-4.7,10.00,29.89,30.04,FEW:02 43,43,3,None,0.00,None,8,-13.3,28,-2.2,30.06,39.6,2016-01-04 09:51,None,None,None,2142,1220,None,None,None,None,None,None,None,None,None,None,None,None,None,None,None,None
10.76,2016-01-04 09:18:33,2016-01-04 09:40:10,42.84,5.54,5,N,None,None,None,None,-73.977134704589844,40.751945495605469,1,1,0.5,None,None,0.3,31.5,0,-73.870529174804688,40.773757934570313,None,None,2,NY CITY CENTRAL PARK NY US,WBAN:94728,1,FM-15,None,None,None,None,None,None,None,None,None,None,None,None,-9999,-9999,None,None,None,-9999,-9999,None,None,None,None,None,None,None,None,None,None,None,None,None,None,None,None,None,None,None,None,None,None,None,None,-73.9669,40.7889,5,None,VRB,23,-4.7,10.00,29.89,30.04,FEW:02 43,43,3,None,0.00,None,8,-13.3,28,-2.2,30.06,39.6,2016-01-04 09:51,None,None,None,2142,1220,None,None,None,None,None,None,None,None,None,None,None,None,None,None,None,None
3.76,2016-01-04 09:18:33,2016-01-04 09:43:30,22.56,0,3.76,N,None,None,None,None,-73.953651428222656,40.766941070556641,1,5,0.5,None,None,0.3,18,0,-73.944557189941406,40.808971405029297,None,None,2,NY CITY CENTRAL PARK NY US,WBAN:94728,1,FM-15,None,None,None,None,None,None,None,None,None,None,None,None,-9999,-9999,None,None,None,-9999,-9999,None,None,None,None,None,None,None,None,None,None,None,None,None,None,None,None,None,None,None,None,None,None,None,None,-73.9669,40.7889,5,None,VRB,23,-4.7,10.00,29.89,30.04,FEW:02 43,43,3,None,0.00,None,8,-13.3,28,-2.2,30.06,39.6,2016-01-04 09:51,None,None,None,2142,1220,None,None,None,None,None,None,None,None,None,None,None,None,None,None,None,None
3.70,2016-01-04 09:18:34,2016-01-04 09:36:11,18.95,0,3.15,N,None,None,None,None,-74.014328002929688,40.709434509277344,1,1,0.5,None,None,0.3,15,0,-73.994804382324219,40.750400543212891,None,None,1,NY CITY CENTRAL PARK NY US,WBAN:94728,1,FM-15,None,None,None,None,None,None,None,None,None,None,None,None,-9999,-9999,None,None,None,-9999,-9999,None,None,None,None,None,None,None,None,None,None,None,None,None,None,None,None,None,None,None,None,None,None,None,None,-73.9669,40.7889,5,None,VRB,23,-4.7,10.00,29.89,30.04,FEW:02 43,43,3,None,0.00,None,8,-13.3,28,-2.2,30.06,39.6,2016-01-04 09:51,None,None,None,2142,1220,None,None,None,None,None,None,None,None,None,None,None,None,None,None,None,None
.90,2016-01-04 09:18:34,2016-01-04 09:31:21,9.8,0,0,N,None,None,None,None,-73.992774963378906,40.743000030517578,2,1,0.5,None,None,0.3,9,0,-73.977058410644531,40.739044189453125,None,None,1,NY CITY CENTRAL PARK NY US,WBAN:94728,1,FM-15,None,None,None,None,None,None,None,None,None,None,None,None,-9999,-9999,None,None,None,-9999,-9999,None,None,None,None,None,None,None,None,None,None,None,None,None,None,None,None,None,None,None,None,None,None,None,None,-73.9669,40.7889,5,None,VRB,23,-4.7,10.00,29.89,30.04,FEW:02 43,43,3,None,0.00,None,8,-13.3,28,-2.2,30.06,39.6,2016-01-04 09:51,None,None,None,2142,1220,None,None,None,None,None,None,None,None,None,None,None,None,None,None,None,None
1.20,2016-01-04 09:18:34,2016-01-04 09:27:31,9.3,0,1,N,None,None,None,None,-74.008354187011719,40.736125946044922,1,1,0.5,None,None,0.3,7.5,0,-74.010154724121094,40.719749450683594,None,None,1,NY CITY CENTRAL PARK NY US,WBAN:94728,1,FM-15,None,None,None,None,None,None,None,None,None,None,None,None,-9999,-9999,None,None,None,-9999,-9999,None,None,None,None,None,None,None,None,None,None,None,None,None,None,None,None,None,None,None,None,None,None,None,None,-73.9669,40.7889,5,None,VRB,23,-4.7,10.00,29.89,30.04,FEW:02 43,43,3,None,0.00,None,8,-13.3,28,-2.2,30.06,39.6,2016-01-04 09:51,None,None,None,2142,1220,None,None,None,None,None,None,None,None,None,None,None,None,None,None,None,None
.80,2016-01-04 09:18:34,2016-01-04 09:34:43,13,0,1.7,N,None | None | None,2016-01-01 00:00:00 | 2016-01-01 00:00:00 | 2016-01-01 20:00:00,New York | New York | New York,None | None | 10013,-73.9615478515625,40.757785797119141,1,1,0.5,-74.0064 | -74.0064 | -74.0050159,40.7142 | 40.7142 | 40.7208412,0.3,10.5,0,-73.972610473632812,40.758903503417969,New York | New York | New York,1 | 1 | 0,1,NY CITY CENTRAL PARK NY US,WBAN:94728,1,FM-15,None,None,None,None,None,None,None,None,None,None,None,None,-9999,-9999,None,None,None,-9999,-9999,None,None,None,None,None,None,None,None,None,None,None,None,None,None,None,None,None,None,None,None,None,None,None,None,-73.9669,40.7889,5,None,VRB,23,-4.7,10.00,29.89,30.04,FEW:02 43,43,3,None,0.00,None,8,-13.3,28,-2.2,30.06,39.6,2016-01-04 09:51,None,None,None,2142,1220,None,None,None,None,None,None,None,None,None,None,None,None,None,None,None,None
2.30,2016-01-04 09:18:34,2016-01-04 09:32:33,12.3,0,0,N,2016-12-31 00:00:00,2016-01-01 00:00:00,New York,10022,-74.008827209472656,40.719169616699219,2,1,0.5,-73.968,40.759,0.3,11.5,0,-73.99072265625,40.694492340087891,New York,2,1,NY CITY CENTRAL PARK NY US,WBAN:94728,1,FM-15,None,None,None,None,None,None,None,None,None,None,None,None,-9999,-9999,None,None,None,-9999,-9999,None,None,None,None,None,None,None,None,None,None,None,None,None,None,None,None,None,None,None,None,None,None,None,None,-73.9669,40.7889,5,None,VRB,23,-4.7,10.00,29.89,30.04,FEW:02 43,43,3,None,0.00,None,8,-13.3,28,-2.2,30.06,39.6,2016-01-04 09:51,None,None,None,2142,1220,None,None,None,None,None,None,None,None,None,None,None,None,None,None,None,None
1.50,2016-01-04 09:18:34,2016-01-04 09:33:12,12.3,0,1,N,None,None,None,None,-73.977371215820313,40.749591827392578,1,1,0.5,None,None,0.3,10.5,0,-73.976058959960937,40.763931274414063,None,None,1,NY CITY CENTRAL PARK NY US,WBAN:94728,1,FM-15,None,None,None,None,None,None,None,None,None,None,None,None,-9999,-9999,None,None,None,-9999,-9999,None,None,None,None,None,None,None,None,None,None,None,None,None,None,None,None,None,None,None,None,None,None,None,None,-73.9669,40.7889,5,None,VRB,23,-4.7,10.00,29.89,30.04,FEW:02 43,43,3,None,0.00,None,8,-13.3,28,-2.2,30.06,39.6,2016-01-04 09:51,None,None,None,2142,1220,None,None,None,None,None,None,None,None,None,None,None,None,None,None,None,None
2.64,2016-01-04 09:18:34,2016-01-04 09:41:45,18.3,0,2,N,None | 2016-07-03 00:00:00,2016-01-01 00:00:00 | 2015-10-08 00:00:00,New York | New York,10019 | 10019,-73.950904846191406,40.771568298339844,1,3,0.5,-73.9803996 | -73.9844951,40.7656668 | 40.7632328,0.3,15.5,0,-73.980796813964844,40.762340545654297,New York | New York,1 | 2,2,NY CITY CENTRAL PARK NY US,WBAN:94728,1,FM-15,None,None,None,None,None,None,None,None,None,None,None,None,-9999,-9999,None,None,None,-9999,-9999,None,None,None,None,None,None,None,None,None,None,None,None,None,None,None,None,None,None,None,None,None,None,None,None,-73.9669,40.7889,5,None,VRB,23,-4.7,10.00,29.89,30.04,FEW:02 43,43,3,None,0.00,None,8,-13.3,28,-2.2,30.06,39.6,2016-01-04 09:51,None,None,None,2142,1220,None,None,None,None,None,None,None,None,None,None,None,None,None,None,None,None
.67,2016-01-04 09:18:34,2016-01-04 09:26:19,8.4,0,1.1,N,None | 2016-07-03 00:00:00,2016-01-01 00:00:00 | 2015-10-08 00:00:00,New York | New York,10019 | 10019,-73.984138488769531,40.768180847167969,1,1,0.5,-73.9803996 | -73.9844951,40.7656668 | 40.7632328,0.3,6.5,0,-73.973442077636719,40.764427185058594,New York | New York,1 | 2,2,NY CITY CENTRAL PARK NY US,WBAN:94728,1,FM-15,None,None,None,None,None,None,None,None,None,None,None,None,-9999,-9999,None,None,None,-9999,-9999,None,None,None,None,None,None,None,None,None,None,None,None,None,None,None,None,None,None,None,None,None,None,None,None,-73.9669,40.7889,5,None,VRB,23,-4.7,10.00,29.89,30.04,FEW:02 43,43,3,None,0.00,None,8,-13.3,28,-2.2,30.06,39.6,2016-01-04 09:51,None,None,None,2142,1220,None,None,None,None,None,None,None,None,None,None,None,None,None,None,None,None
1.12,2016-01-04 09:18:34,2016-01-04 09:31:24,9.8,0,0,N,None | 2016-12-31 00:00:00,2016-01-01 00:00:00 | 2016-01-01 00:00:00,New York | New York,10019 | 10022,-73.990715026855469,40.751117706298828,2,1,0.5,-73.9803996 | -73.968,40.7656668 | 40.759,0.3,9,0,-73.972877502441406,40.746421813964844,New York | New York,1 | 2,2,NY CITY CENTRAL PARK NY US,WBAN:94728,1,FM-15,None,None,None,None,None,None,None,None,None,None,None,None,-9999,-9999,None,None,None,-9999,-9999,None,None,None,None,None,None,None,None,None,None,None,None,None,None,None,None,None,None,None,None,None,None,None,None,-73.9669,40.7889,5,None,VRB,23,-4.7,10.00,29.89,30.04,FEW:02 43,43,3,None,0.00,None,8,-13.3,28,-2.2,30.06,39.6,2016-01-04 09:51,None,None,None,2142,1220,None,None,None,None,None,None,None,None,None,None,None,None,None,None,None,None
.20,2016-01-04 09:18:34,2016-01-04 09:22:20,6,0,1.2,N,None,None,None,None,-73.989990234375,40.757305145263672,1,1,0.5,None,None,0.3,4,0,-73.987525939941406,40.760303497314453,None,None,2,NY CITY CENTRAL PARK NY US,WBAN:94728,1,FM-15,None,None,None,None,None,None,None,None,None,None,None,None,-9999,-9999,None,None,None,-9999,-9999,None,None,None,None,None,None,None,None,None,None,None,None,None,None,None,None,None,None,None,None,None,None,None,None,-73.9669,40.7889,5,None,VRB,23,-4.7,10.00,29.89,30.04,FEW:02 43,43,3,None,0.00,None,8,-13.3,28,-2.2,30.06,39.6,2016-01-04 09:51,None,None,None,2142,1220,None,None,None,None,None,None,None,None,None,None,None,None,None,None,None,None
1.00,2016-01-04 09:18:35,2016-01-04 09:27:51,8.3,0,0,N,2016-07-03 00:00:00,2015-10-08 00:00:00,New York,10019,-73.961715698242188,40.7642822265625,2,1,0.5,-73.9844951,40.7632328,0.3,7.5,0,-73.9703369140625,40.752101898193359,New York,2,1,NY CITY CENTRAL PARK NY US,WBAN:94728,1,FM-15,None,None,None,None,None,None,None,None,None,None,None,None,-9999,-9999,None,None,None,-9999,-9999,None,None,None,None,None,None,None,None,None,None,None,None,None,None,None,None,None,None,None,None,None,None,None,None,-73.9669,40.7889,5,None,VRB,23,-4.7,10.00,29.89,30.04,FEW:02 43,43,3,None,0.00,None,8,-13.3,28,-2.2,30.06,39.6,2016-01-04 09:51,None,None,None,2142,1220,None,None,None,None,None,None,None,None,None,None,None,None,None,None,None,None
.50,2016-01-04 09:18:35,2016-01-04 09:26:01,9.3,0,2,N,2016-12-31 00:00:00,2016-01-01 00:00:00,New York,10022,-74.005203247070313,40.718460083007813,1,1,0.5,-73.968,40.759,0.3,6.5,0,-74.011337280273437,40.714859008789063,New York,2,1,NY CITY CENTRAL PARK NY US,WBAN:94728,1,FM-15,None,None,None,None,None,None,None,None,None,None,None,None,-9999,-9999,None,None,None,-9999,-9999,None,None,None,None,None,None,None,None,None,None,None,None,None,None,None,None,None,None,None,None,None,None,None,None,-73.9669,40.7889,5,None,VRB,23,-4.7,10.00,29.89,30.04,FEW:02 43,43,3,None,0.00,None,8,-13.3,28,-2.2,30.06,39.6,2016-01-04 09:51,None,None,None,2142,1220,None,None,None,None,None,None,None,None,None,None,None,None,None,None,None,None
1.98,2016-01-04 09:18:35,2016-01-04 09:33:11,12.8,0,0,N,None | None | None,2016-01-01 00:00:00 | 2016-01-01 00:00:00 | 2016-01-01 02:00:00,New York | New York | New York,None | None | 10038,-73.981391906738281,40.728908538818359,2,1,0.5,-74.0064 | -74.0064 | -74.0081571,40.7142 | 40.7142 | 40.7090990,0.3,12,0,-73.969383239746094,40.748710632324219,New York | New York | New York,1 | 1 | 0,2,NY CITY CENTRAL PARK NY US,WBAN:94728,1,FM-15,None,None,None,None,None,None,None,None,None,None,None,None,-9999,-9999,None,None,None,-9999,-9999,None,None,None,None,None,None,None,None,None,None,None,None,None,None,None,None,None,None,None,None,None,None,None,None,-73.9669,40.7889,5,None,VRB,23,-4.7,10.00,29.89,30.04,FEW:02 43,43,3,None,0.00,None,8,-13.3,28,-2.2,30.06,39.6,2016-01-04 09:51,None,None,None,2142,1220,None,None,None,None,None,None,None,None,None,None,None,None,None,None,None,None
1.03,2016-01-04 09:18:35,2016-01-04 09:29:54,10.8,0,2,N,None,None,None,None,-73.982398986816406,40.751369476318359,1,1,0.5,None,None,0.3,8,0,-73.996902465820313,40.751399993896484,None,None,2,NY CITY CENTRAL PARK NY US,WBAN:94728,1,FM-15,None,None,None,None,None,None,None,None,None,None,None,None,-9999,-9999,None,None,None,-9999,-9999,None,None,None,None,None,None,None,None,None,None,None,None,None,None,None,None,None,None,None,None,None,None,None,None,-73.9669,40.7889,5,None,VRB,23,-4.7,10.00,29.89,30.04,FEW:02 43,43,3,None,0.00,None,8,-13.3,28,-2.2,30.06,39.6,2016-01-04 09:51,None,None,None,2142,1220,None,None,None,None,None,None,None,None,None,None,None,None,None,None,None,None
1.79,2016-01-04 09:18:36,2016-01-04 09:33:44,11.3,0,0,N,None,None,None,None,-73.982757568359375,40.77191162109375,2,1,0.5,None,None,0.3,10.5,0,-73.991249084472656,40.749168395996094,None,None,2,NY CITY CENTRAL PARK NY US,WBAN:94728,1,FM-15,None,None,None,None,None,None,None,None,None,None,None,None,-9999,-9999,None,None,None,-9999,-9999,None,None,None,None,None,None,None,None,None,None,None,None,None,None,None,None,None,None,None,None,None,None,None,None,-73.9669,40.7889,5,None,VRB,23,-4.7,10.00,29.89,30.04,FEW:02 43,43,3,None,0.00,None,8,-13.3,28,-2.2,30.06,39.6,2016-01-04 09:51,None,None,None,2142,1220,None,None,None,None,None,None,None,None,None,None,None,None,None,None,None,None
1.81,2016-01-04 09:18:36,2016-01-04 09:33:50,11.8,0,0,N,None,None,None,None,-73.95050048828125,40.779769897460938,1,6,0.5,None,None,0.3,11,0,-73.968330383300781,40.761638641357422,None,None,2,NY CITY CENTRAL PARK NY US,WBAN:94728,1,FM-15,None,None,None,None,None,None,None,None,None,None,None,None,-9999,-9999,None,None,None,-9999,-9999,None,None,None,None,None,None,None,None,None,None,None,None,None,None,None,None,None,None,None,None,None,None,None,None,-73.9669,40.7889,5,None,VRB,23,-4.7,10.00,29.89,30.04,FEW:02 43,43,3,None,0.00,None,8,-13.3,28,-2.2,30.06,39.6,2016-01-04 09:51,None,None,None,2142,1220,None,None,None,None,None,None,None,None,None,None,None,None,None,None,None,None
.62,2016-01-04 09:18:36,2016-01-04 09:31:00,10.3,0,1,N,2016-12-31 00:00:00,2016-01-01 00:00:00,New York,10022,-73.965896606445313,40.759693145751953,1,2,0.5,-73.968,40.759,0.3,8.5,0,-73.975990295410156,40.763744354248047,New York,2,2,NY CITY CENTRAL PARK NY US,WBAN:94728,1,FM-15,None,None,None,None,None,None,None,None,None,None,None,None,-9999,-9999,None,None,None,-9999,-9999,None,None,None,None,None,None,None,None,None,None,None,None,None,None,None,None,None,None,None,None,None,None,None,None,-73.9669,40.7889,5,None,VRB,23,-4.7,10.00,29.89,30.04,FEW:02 43,43,3,None,0.00,None,8,-13.3,28,-2.2,30.06,39.6,2016-01-04 09:51,None,None,None,2142,1220,None,None,None,None,None,None,None,None,None,None,None,None,None,None,None,None
1.81,2016-01-04 09:18:36,2016-01-04 09:32:05,13.3,0,2,N,None | 2016-07-03 00:00:00,2016-01-01 00:00:00 | 2015-10-08 00:00:00,New York | New York,10019 | 10019,-73.995491027832031,40.717090606689453,1,1,0.5,-73.9803996 | -73.9844951,40.7656668 | 40.7632328,0.3,10.5,0,-74.013763427734375,40.714790344238281,New York | New York,1 | 2,2,NY CITY CENTRAL PARK NY US,WBAN:94728,1,FM-15,None,None,None,None,None,None,None,None,None,None,None,None,-9999,-9999,None,None,None,-9999,-9999,None,None,None,None,None,None,None,None,None,None,None,None,None,None,None,None,None,None,None,None,None,None,None,None,-73.9669,40.7889,5,None,VRB,23,-4.7,10.00,29.89,30.04,FEW:02 43,43,3,None,0.00,None,8,-13.3,28,-2.2,30.06,39.6,2016-01-04 09:51,None,None,None,2142,1220,None,None,None,None,None,None,None,None,None,None,None,None,None,None,None,None
.90,2016-01-04 09:18:37,2016-01-04 09:28:49,10.55,0,1.75,N,None | None | None,2016-01-01 00:00:00 | 2016-01-01 00:00:00 | 2016-01-01 02:00:00,New York | New York | New York,None | None | 10038,-73.995223999023437,40.749744415283203,1,1,0.5,-74.0064 | -74.0064 | -74.0081571,40.7142 | 40.7142 | 40.7090990,0.3,8,0,-73.9862060546875,40.762218475341797,New York | New York | New York,1 | 1 | 0,1,NY CITY CENTRAL PARK NY US,WBAN:94728,1,FM-15,None,None,None,None,None,None,None,None,None,None,None,None,-9999,-9999,None,None,None,-9999,-9999,None,None,None,None,None,None,None,None,None,None,None,None,None,None,None,None,None,None,None,None,None,None,None,None,-73.9669,40.7889,5,None,VRB,23,-4.7,10.00,29.89,30.04,FEW:02 43,43,3,None,0.00,None,8,-13.3,28,-2.2,30.06,39.6,2016-01-04 09:51,None,None,None,2142,1220,None,None,None,None,None,None,None,None,None,None,None,None,None,None,None,None
10.20,2016-01-04 09:18:37,2016-01-04 09:56:54,49.59,5.54,8.25,N,None | 2016-07-03 00:00:00,2016-01-01 00:00:00 | 2015-10-08 00:00:00,New York | New York,10019 | 10019,-73.872764587402344,40.773754119873047,1,1,0.5,-73.9803996 | -73.9844951,40.7656668 | 40.7632328,0.3,35,0,-73.973060607910156,40.761772155761719,New York | New York,1 | 2,1,NY CITY CENTRAL PARK NY US,WBAN:94728,1,FM-15,None,None,None,None,None,None,None,None,None,None,None,None,-9999,-9999,None,None,None,-9999,-9999,None,None,None,None,None,None,None,None,None,None,None,None,None,None,None,None,None,None,None,None,None,None,None,None,-73.9669,40.7889,5,None,VRB,23,-4.7,10.00,29.89,30.04,FEW:02 43,43,3,None,0.00,None,8,-13.3,28,-2.2,30.06,39.6,2016-01-04 09:51,None,None,None,2142,1220,None,None,None,None,None,None,None,None,None,None,None,None,None,None,None,None
1.70,2016-01-04 09:18:37,2016-01-04 09:32:20,12.95,0,2.15,N,None | 2016-12-31 00:00:00,2016-01-01 00:00:00 | 2016-01-01 00:00:00,New York | New York,10019 | 10022,-74.005584716796875,40.738765716552734,1,1,0.5,-73.9803996 | -73.968,40.7656668 | 40.759,0.3,10,0,-73.994392395019531,40.719661712646484,New York | New York,1 | 2,1,NY CITY CENTRAL PARK NY US,WBAN:94728,1,FM-15,None,None,None,None,None,None,None,None,None,None,None,None,-9999,-9999,None,None,None,-9999,-9999,None,None,None,None,None,None,None,None,None,None,None,None,None,None,None,None,None,None,None,None,None,None,None,None,-73.9669,40.7889,5,None,VRB,23,-4.7,10.00,29.89,30.04,FEW:02 43,43,3,None,0.00,None,8,-13.3,28,-2.2,30.06,39.6,2016-01-04 09:51,None,None,None,2142,1220,None,None,None,None,None,None,None,None,None,None,None,None,None,None,None,None
2.72,2016-01-04 09:18:37,2016-01-04 09:49:44,20.3,0,0,N,None,None,None,None,-73.974586486816406,40.787940979003906,2,1,0.5,None,None,0.3,19.5,0,-73.957023620605469,40.762619018554687,None,None,2,NY CITY CENTRAL PARK NY US,WBAN:94728,1,FM-15,None,None,None,None,None,None,None,None,None,None,None,None,-9999,-9999,None,None,None,-9999,-9999,None,None,None,None,None,None,None,None,None,None,None,None,None,None,None,None,None,None,None,None,None,None,None,None,-73.9669,40.7889,5,None,VRB,23,-4.7,10.00,29.89,30.04,FEW:02 43,43,3,None,0.00,None,8,-13.3,28,-2.2,30.06,39.6,2016-01-04 09:51,None,None,None,2142,1220,None,None,None,None,None,None,None,None,None,None,None,None,None,None,None,None
1.30,2016-01-04 09:18:37,2016-01-04 09:30:41,9.8,0,0,N,None,None,None,None,-73.965118408203125,40.769161224365234,2,1,0.5,None,None,0.3,9,0,-73.976882934570313,40.758628845214844,None,None,2,NY CITY CENTRAL PARK NY US,WBAN:94728,1,FM-15,None,None,None,None,None,None,None,None,None,None,None,None,-9999,-9999,None,None,None,-9999,-9999,None,None,None,None,None,None,None,None,None,None,None,None,None,None,None,None,None,None,None,None,None,None,None,None,-73.9669,40.7889,5,None,VRB,23,-4.7,10.00,29.89,30.04,FEW:02 43,43,3,None,0.00,None,8,-13.3,28,-2.2,30.06,39.6,2016-01-04 09:51,None,None,None,2142,1220,None,None,None,None,None,None,None,None,None,None,None,None,None,None,None,None
1.31,2016-01-04 09:18:37,2016-01-04 09:37:56,15.96,0,2.66,N,2016-12-31 00:00:00,2016-01-01 00:00:00,New York,10022,-73.956771850585938,40.778068542480469,1,1,0.5,-73.968,40.759,0.3,12.5,0,-73.961051940917969,40.766338348388672,New York,2,2,NY CITY CENTRAL PARK NY US,WBAN:94728,1,FM-15,None,None,None,None,None,None,None,None,None,None,None,None,-9999,-9999,None,None,None,-9999,-9999,None,None,None,None,None,None,None,None,None,None,None,None,None,None,None,None,None,None,None,None,None,None,None,None,-73.9669,40.7889,5,None,VRB,23,-4.7,10.00,29.89,30.04,FEW:02 43,43,3,None,0.00,None,8,-13.3,28,-2.2,30.06,39.6,2016-01-04 09:51,None,None,None,2142,1220,None,None,None,None,None,None,None,None,None,None,None,None,None,None,None,None
1.00,2016-01-04 09:18:38,2016-01-04 09:23:06,7.55,0,1.25,N,None,None,None,None,-74.00994873046875,40.721141815185547,1,1,0.5,None,None,0.3,5.5,0,-74.01556396484375,40.707981109619141,None,None,1,NY CITY CENTRAL PARK NY US,WBAN:94728,1,FM-15,None,None,None,None,None,None,None,None,None,None,None,None,-9999,-9999,None,None,None,-9999,-9999,None,None,None,None,None,None,None,None,None,None,None,None,None,None,None,None,None,None,None,None,None,None,None,None,-73.9669,40.7889,5,None,VRB,23,-4.7,10.00,29.89,30.04,FEW:02 43,43,3,None,0.00,None,8,-13.3,28,-2.2,30.06,39.6,2016-01-04 09:51,None,None,None,2142,1220,None,None,None,None,None,None,None,None,None,None,None,None,None,None,None,None
.70,2016-01-04 09:18:38,2016-01-04 09:27:30,7.8,0,0,N,None,2016-01-01 02:00:00,New York,10038,-73.974716186523438,40.750328063964844,2,1,0.5,-74.0081571,40.7090990,0.3,7,0,-73.967498779296875,40.760543823242188,New York,0,1,NY CITY CENTRAL PARK NY US,WBAN:94728,1,FM-15,None,None,None,None,None,None,None,None,None,None,None,None,-9999,-9999,None,None,None,-9999,-9999,None,None,None,None,None,None,None,None,None,None,None,None,None,None,None,None,None,None,None,None,None,None,None,None,-73.9669,40.7889,5,None,VRB,23,-4.7,10.00,29.89,30.04,FEW:02 43,43,3,None,0.00,None,8,-13.3,28,-2.2,30.06,39.6,2016-01-04 09:51,None,None,None,2142,1220,None,None,None,None,None,None,None,None,None,None,None,None,None,None,None,None
.60,2016-01-04 09:18:38,2016-01-04 09:26:15,7.3,0,0,N,2016-12-31 00:00:00,2016-01-01 00:00:00,New York,10022,-73.979545593261719,40.749332427978516,2,2,0.5,-73.968,40.759,0.3,6.5,0,-73.986160278320312,40.743412017822266,New York,2,1,NY CITY CENTRAL PARK NY US,WBAN:94728,1,FM-15,None,None,None,None,None,None,None,None,None,None,None,None,-9999,-9999,None,None,None,-9999,-9999,None,None,None,None,None,None,None,None,None,None,None,None,None,None,None,None,None,None,None,None,None,None,None,None,-73.9669,40.7889,5,None,VRB,23,-4.7,10.00,29.89,30.04,FEW:02 43,43,3,None,0.00,None,8,-13.3,28,-2.2,30.06,39.6,2016-01-04 09:51,None,None,None,2142,1220,None,None,None,None,None,None,None,None,None,None,None,None,None,None,None,None
1.40,2016-01-04 09:18:38,2016-01-04 09:31:21,10.3,0,0,N,None,None,None,None,-73.954910278320312,40.765735626220703,2,3,0.5,None,None,0.3,9.5,0,-73.971641540527344,40.757614135742187,None,None,1,NY CITY CENTRAL PARK NY US,WBAN:94728,1,FM-15,None,None,None,None,None,None,None,None,None,None,None,None,-9999,-9999,None,None,None,-9999,-9999,None,None,None,None,None,None,None,None,None,None,None,None,None,None,None,None,None,None,None,None,None,None,None,None,-73.9669,40.7889,5,None,VRB,23,-4.7,10.00,29.89,30.04,FEW:02 43,43,3,None,0.00,None,8,-13.3,28,-2.2,30.06,39.6,2016-01-04 09:51,None,None,None,2142,1220,None,None,None,None,None,None,None,None,None,None,None,None,None,None,None,None
1.15,2016-01-04 09:18:38,2016-01-04 09:28:24,10.3,0,1,N,2016-12-31 00:00:00,2016-01-01 00:00:00,New York,10022,-73.987335205078125,40.724716186523438,1,1,0.5,-73.968,40.759,0.3,8.5,0,-73.976844787597656,40.739166259765625,New York,2,2,NY CITY CENTRAL PARK NY US,WBAN:94728,1,FM-15,None,None,None,None,None,None,None,None,None,None,None,None,-9999,-9999,None,None,None,-9999,-9999,None,None,None,None,None,None,None,None,None,None,None,None,None,None,None,None,None,None,None,None,None,None,None,None,-73.9669,40.7889,5,None,VRB,23,-4.7,10.00,29.89,30.04,FEW:02 43,43,3,None,0.00,None,8,-13.3,28,-2.2,30.06,39.6,2016-01-04 09:51,None,None,None,2142,1220,None,None,None,None,None,None,None,None,None,None,None,None,None,None,None,None
.85,2016-01-04 09:18:38,2016-01-04 09:29:00,8.3,0,0,N,None,None,None,None,-73.981361389160156,40.764617919921875,2,1,0.5,None,None,0.3,7.5,0,-73.988563537597656,40.758888244628906,None,None,2,NY CITY CENTRAL PARK NY US,WBAN:94728,1,FM-15,None,None,None,None,None,None,None,None,None,None,None,None,-9999,-9999,None,None,None,-9999,-9999,None,None,None,None,None,None,None,None,None,None,None,None,None,None,None,None,None,None,None,None,None,None,None,None,-73.9669,40.7889,5,None,VRB,23,-4.7,10.00,29.89,30.04,FEW:02 43,43,3,None,0.00,None,8,-13.3,28,-2.2,30.06,39.6,2016-01-04 09:51,None,None,None,2142,1220,None,None,None,None,None,None,None,None,None,None,None,None,None,None,None,None
.94,2016-01-04 09:18:38,2016-01-04 09:23:59,6.3,0,0,N,2016-07-03 00:00:00,2015-10-08 00:00:00,New York,10019,-74.016250610351563,40.714809417724609,2,1,0.5,-73.9844951,40.7632328,0.3,5.5,0,-74.010093688964844,40.720241546630859,New York,2,2,NY CITY CENTRAL PARK NY US,WBAN:94728,1,FM-15,None,None,None,None,None,None,None,None,None,None,None,None,-9999,-9999,None,None,None,-9999,-9999,None,None,None,None,None,None,None,None,None,None,None,None,None,None,None,None,None,None,None,None,None,None,None,None,-73.9669,40.7889,5,None,VRB,23,-4.7,10.00,29.89,30.04,FEW:02 43,43,3,None,0.00,None,8,-13.3,28,-2.2,30.06,39.6,2016-01-04 09:51,None,None,None,2142,1220,None,None,None,None,None,None,None,None,None,None,None,None,None,None,None,None
1.50,2016-01-04 09:18:39,2016-01-04 09:36:59,14.72,0,1.92,Y,None | None | None,2016-01-01 00:00:00 | 2016-01-01 00:00:00 | 2016-01-01 20:00:00,New York | New York | New York,None | None | 10013,-73.978408813476563,40.748237609863281,1,1,0.5,-74.0064 | -74.0064 | -74.0050159,40.7142 | 40.7142 | 40.7208412,0.3,12,0,-73.972946166992188,40.764553070068359,New York | New York | New York,1 | 1 | 0,1,NY CITY CENTRAL PARK NY US,WBAN:94728,1,FM-15,None,None,None,None,None,None,None,None,None,None,None,None,-9999,-9999,None,None,None,-9999,-9999,None,None,None,None,None,None,None,None,None,None,None,None,None,None,None,None,None,None,None,None,None,None,None,None,-73.9669,40.7889,5,None,VRB,23,-4.7,10.00,29.89,30.04,FEW:02 43,43,3,None,0.00,None,8,-13.3,28,-2.2,30.06,39.6,2016-01-04 09:51,None,None,None,2142,1220,None,None,None,None,None,None,None,None,None,None,None,None,None,None,None,None
15.20,2016-01-04 09:18:39,2016-01-04 09:53:16,75.84,5.54,17.5,N,None | 2016-12-31 00:00:00,2016-01-01 00:00:00 | 2016-01-01 00:00:00,New York | New York,10019 | 10022,-73.974411010742188,40.749656677246094,1,1,0.5,-73.9803996 | -73.968,40.7656668 | 40.759,0.3,52,0,-73.790817260742188,40.663429260253906,New York | New York,1 | 2,1,NY CITY CENTRAL PARK NY US,WBAN:94728,2,FM-15,None,None,None,None,None,None,None,None,None,None,None,None,-9999,-9999,None,None,None,-9999,-9999,None,None,None,None,None,None,None,None,None,None,None,None,None,None,None,None,None,None,None,None,None,None,None,None,-73.9669,40.7889,5,None,VRB,23,-4.7,10.00,29.89,30.04,FEW:02 43,43,3,None,0.00,None,8,-13.3,28,-2.2,30.06,39.6,2016-01-04 09:51,None,None,None,2142,1220,None,None,None,None,None,None,None,None,None,None,None,None,None,None,None,None
.80,2016-01-04 09:18:39,2016-01-04 09:22:05,6.35,0,1.05,N,None,None,None,None,-73.9879150390625,40.754638671875,1,1,0.5,None,None,0.3,4.5,0,-73.986289978027344,40.745880126953125,None,None,1,NY CITY CENTRAL PARK NY US,WBAN:94728,1,FM-15,None,None,None,None,None,None,None,None,None,None,None,None,-9999,-9999,None,None,None,-9999,-9999,None,None,None,None,None,None,None,None,None,None,None,None,None,None,None,None,None,None,None,None,None,None,None,None,-73.9669,40.7889,5,None,VRB,23,-4.7,10.00,29.89,30.04,FEW:02 43,43,3,None,0.00,None,8,-13.3,28,-2.2,30.06,39.6,2016-01-04 09:51,None,None,None,2142,1220,None,None,None,None,None,None,None,None,None,None,None,None,None,None,None,None
.71,2016-01-04 09:18:39,2016-01-04 09:21:54,6.36,0,1.06,N,None,None,None,None,-73.987098693847656,40.7711181640625,1,2,0.5,None,None,0.3,4.5,0,-73.979751586914063,40.777801513671875,None,None,2,NY CITY CENTRAL PARK NY US,WBAN:94728,1,FM-15,None,None,None,None,None,None,None,None,None,None,None,None,-9999,-9999,None,None,None,-9999,-9999,None,None,None,None,None,None,None,None,None,None,None,None,None,None,None,None,None,None,None,None,None,None,None,None,-73.9669,40.7889,5,None,VRB,23,-4.7,10.00,29.89,30.04,FEW:02 43,43,3,None,0.00,None,8,-13.3,28,-2.2,30.06,39.6,2016-01-04 09:51,None,None,None,2142,1220,None,None,None,None,None,None,None,None,None,None,None,None,None,None,None,None
6.31,2016-01-04 09:18:39,2016-01-04 09:54:47,33.96,0,5.66,N,None,None,None,None,-74.004600524902344,40.70684814453125,1,1,0.5,None,None,0.3,27.5,0,-73.980201721191406,40.767330169677734,None,None,2,NY CITY CENTRAL PARK NY US,WBAN:94728,1,FM-15,None,None,None,None,None,None,None,None,None,None,None,None,-9999,-9999,None,None,None,-9999,-9999,None,None,None,None,None,None,None,None,None,None,None,None,None,None,None,None,None,None,None,None,None,None,None,None,-73.9669,40.7889,5,None,VRB,23,-4.7,10.00,29.89,30.04,FEW:02 43,43,3,None,0.00,None,8,-13.3,28,-2.2,30.06,39.6,2016-01-04 09:51,None,None,None,2142,1220,None,None,None,None,None,None,None,None,None,None,None,None,None,None,None,None
6.75,2016-01-04 09:18:39,2016-01-04 09:59:56,22.8,0,0,N,None | 2016-07-03 00:00:00,2016-01-01 00:00:00 | 2015-10-08 00:00:00,New York | New York,10019 | 10019,-73.992462158203125,40.714260101318359,2,2,0.5,-73.9803996 | -73.9844951,40.7656668 | 40.7632328,0.3,22,0,-73.921058654785156,40.66778564453125,New York | New York,1 | 2,2,NY CITY CENTRAL PARK NY US,WBAN:94728,5,FM-15,None,None,None,None,None,None,None,None,None,None,None,None,-9999,-9999,None,None,None,-9999,-9999,None,None,None,None,None,None,None,None,None,None,None,None,None,None,None,None,None,None,None,None,None,None,None,None,-73.9669,40.7889,5,None,VRB,23,-4.7,10.00,29.89,30.04,FEW:02 43,43,3,None,0.00,None,8,-13.3,28,-2.2,30.06,39.6,2016-01-04 09:51,None,None,None,2142,1220,None,None,None,None,None,None,None,None,None,None,None,None,None,None,None,None
8.82,2016-01-04 09:18:39,2016-01-04 09:45:00,37.25,0,7.45,N,None,None,None,None,-73.975692749023438,40.765018463134766,1,2,0.5,None,None,0.3,29,0,-73.870613098144531,40.773979187011719,None,None,2,NY CITY CENTRAL PARK NY US,WBAN:94728,1,FM-15,None,None,None,None,None,None,None,None,None,None,None,None,-9999,-9999,None,None,None,-9999,-9999,None,None,None,None,None,None,None,None,None,None,None,None,None,None,None,None,None,None,None,None,None,None,None,None,-73.9669,40.7889,5,None,VRB,23,-4.7,10.00,29.89,30.04,FEW:02 43,43,3,None,0.00,None,8,-13.3,28,-2.2,30.06,39.6,2016-01-04 09:51,None,None,None,2142,1220,None,None,None,None,None,None,None,None,None,None,None,None,None,None,None,None
1.02,2016-01-04 09:18:39,2016-01-04 09:26:14,7.3,0,0,N,None,None,None,None,-73.962226867675781,40.773078918457031,2,1,0.5,None,None,0.3,6.5,0,-73.958076477050781,40.764900207519531,None,None,2,NY CITY CENTRAL PARK NY US,WBAN:94728,1,FM-15,None,None,None,None,None,None,None,None,None,None,None,None,-9999,-9999,None,None,None,-9999,-9999,None,None,None,None,None,None,None,None,None,None,None,None,None,None,None,None,None,None,None,None,None,None,None,None,-73.9669,40.7889,5,None,VRB,23,-4.7,10.00,29.89,30.04,FEW:02 43,43,3,None,0.00,None,8,-13.3,28,-2.2,30.06,39.6,2016-01-04 09:51,None,None,None,2142,1220,None,None,None,None,None,None,None,None,None,None,None,None,None,None,None,None
1.16,2016-01-04 09:18:39,2016-01-04 09:29:13,11.62,0,2.32,N,None,None,None,None,-73.98260498046875,40.739627838134766,1,1,0.5,None,None,0.3,8.5,0,-73.979484558105469,40.752418518066406,None,None,2,NY CITY CENTRAL PARK NY US,WBAN:94728,1,FM-15,None,None,None,None,None,None,None,None,None,None,None,None,-9999,-9999,None,None,None,-9999,-9999,None,None,None,None,None,None,None,None,None,None,None,None,None,None,None,None,None,None,None,None,None,None,None,None,-73.9669,40.7889,5,None,VRB,23,-4.7,10.00,29.89,30.04,FEW:02 43,43,3,None,0.00,None,8,-13.3,28,-2.2,30.06,39.6,2016-01-04 09:51,None,None,None,2142,1220,None,None,None,None,None,None,None,None,None,None,None,None,None,None,None,None
6.84,2016-01-04 09:18:39,2016-01-04 09:46:46,32.25,0,6.45,N,None,None,None,None,-73.966934204101563,40.804008483886719,1,1,0.5,None,None,0.3,25,0,-74.009124755859375,40.725296020507812,None,None,2,NY CITY CENTRAL PARK NY US,WBAN:94728,1,FM-15,None,None,None,None,None,None,None,None,None,None,None,None,-9999,-9999,None,None,None,-9999,-9999,None,None,None,None,None,None,None,None,None,None,None,None,None,None,None,None,None,None,None,None,None,None,None,None,-73.9669,40.7889,5,None,VRB,23,-4.7,10.00,29.89,30.04,FEW:02 43,43,3,None,0.00,None,8,-13.3,28,-2.2,30.06,39.6,2016-01-04 09:51,None,None,None,2142,1220,None,None,None,None,None,None,None,None,None,None,None,None,None,None,None,None
1.40,2016-01-04 09:18:40,2016-01-04 09:25:58,8.3,0,0,N,None,2016-01-01 20:00:00,New York,10013,-73.960205078125,40.781391143798828,2,2,0.5,-74.0050159,40.7208412,0.3,7.5,0,-73.97998046875,40.782089233398437,New York,0,1,NY CITY CENTRAL PARK NY US,WBAN:94728,1,FM-15,None,None,None,None,None,None,None,None,None,None,None,None,-9999,-9999,None,None,None,-9999,-9999,None,None,None,None,None,None,None,None,None,None,None,None,None,None,None,None,None,None,None,None,None,None,None,None,-73.9669,40.7889,5,None,VRB,23,-4.7,10.00,29.89,30.04,FEW:02 43,43,3,None,0.00,None,8,-13.3,28,-2.2,30.06,39.6,2016-01-04 09:51,None,None,None,2142,1220,None,None,None,None,None,None,None,None,None,None,None,None,None,None,None,None
1.08,2016-01-04 09:18:40,2016-01-04 09:32:14,10.3,0,0,N,None,None,None,None,-73.974533081054687,40.757999420166016,2,1,0.5,None,None,0.3,9.5,0,-73.964210510253906,40.760818481445313,None,None,2,NY CITY CENTRAL PARK NY US,WBAN:94728,1,FM-15,None,None,None,None,None,None,None,None,None,None,None,None,-9999,-9999,None,None,None,-9999,-9999,None,None,None,None,None,None,None,None,None,None,None,None,None,None,None,None,None,None,None,None,None,None,None,None,-73.9669,40.7889,5,None,VRB,23,-4.7,10.00,29.89,30.04,FEW:02 43,43,3,None,0.00,None,8,-13.3,28,-2.2,30.06,39.6,2016-01-04 09:51,None,None,None,2142,1220,None,None,None,None,None,None,None,None,None,None,None,None,None,None,None,None
.73,2016-01-04 09:18:40,2016-01-04 09:23:17,9.1,0,3.3,N,2016-12-31 00:00:00,2016-01-01 00:00:00,New York,10022,-73.983619689941406,40.765239715576172,1,1,0.5,-73.968,40.759,0.3,5,0,-73.973365783691406,40.76434326171875,New York,2,2,NY CITY CENTRAL PARK NY US,WBAN:94728,1,FM-15,None,None,None,None,None,None,None,None,None,None,None,None,-9999,-9999,None,None,None,-9999,-9999,None,None,None,None,None,None,None,None,None,None,None,None,None,None,None,None,None,None,None,None,None,None,None,None,-73.9669,40.7889,5,None,VRB,23,-4.7,10.00,29.89,30.04,FEW:02 43,43,3,None,0.00,None,8,-13.3,28,-2.2,30.06,39.6,2016-01-04 09:51,None,None,None,2142,1220,None,None,None,None,None,None,None,None,None,None,None,None,None,None,None,None
.60,2016-01-04 09:18:41,2016-01-04 09:20:51,5.75,0,0.95,N,None | 2016-12-31 00:00:00,2016-01-01 00:00:00 | 2016-01-01 00:00:00,New York | New York,10019 | 10022,-73.987617492675781,40.7545166015625,1,1,0.5,-73.9803996 | -73.968,40.7656668 | 40.759,0.3,4,0,-73.983207702636719,40.749412536621094,New York | New York,1 | 2,1,NY CITY CENTRAL PARK NY US,WBAN:94728,1,FM-15,None,None,None,None,None,None,None,None,None,None,None,None,-9999,-9999,None,None,None,-9999,-9999,None,None,None,None,None,None,None,None,None,None,None,None,None,None,None,None,None,None,None,None,None,None,None,None,-73.9669,40.7889,5,None,VRB,23,-4.7,10.00,29.89,30.04,FEW:02 43,43,3,None,0.00,None,8,-13.3,28,-2.2,30.06,39.6,2016-01-04 09:51,None,None,None,2142,1220,None,None,None,None,None,None,None,None,None,None,None,None,None,None,None,None
1.56,2016-01-04 09:18:41,2016-01-04 09:31:38,12.3,0,1.5,N,None,None,None,None,-73.95355224609375,40.766941070556641,1,1,0.5,None,None,0.3,10,0,-73.968597412109375,40.757488250732422,None,None,2,NY CITY CENTRAL PARK NY US,WBAN:94728,1,FM-15,None,None,None,None,None,None,None,None,None,None,None,None,-9999,-9999,None,None,None,-9999,-9999,None,None,None,None,None,None,None,None,None,None,None,None,None,None,None,None,None,None,None,None,None,None,None,None,-73.9669,40.7889,5,None,VRB,23,-4.7,10.00,29.89,30.04,FEW:02 43,43,3,None,0.00,None,8,-13.3,28,-2.2,30.06,39.6,2016-01-04 09:51,None,None,None,2142,1220,None,None,None,None,None,None,None,None,None,None,None,None,None,None,None,None
.98,2016-01-04 09:18:41,2016-01-04 09:27:58,7.8,0,0,N,2016-12-31 00:00:00,2016-01-01 00:00:00,New York,10022,-73.954139709472656,40.770511627197266,2,1,0.5,-73.968,40.759,0.3,7,0,-73.966781616210938,40.769821166992187,New York,2,2,NY CITY CENTRAL PARK NY US,WBAN:94728,1,FM-15,None,None,None,None,None,None,None,None,None,None,None,None,-9999,-9999,None,None,None,-9999,-9999,None,None,None,None,None,None,None,None,None,None,None,None,None,None,None,None,None,None,None,None,None,None,None,None,-73.9669,40.7889,5,None,VRB,23,-4.7,10.00,29.89,30.04,FEW:02 43,43,3,None,0.00,None,8,-13.3,28,-2.2,30.06,39.6,2016-01-04 09:51,None,None,None,2142,1220,None,None,None,None,None,None,None,None,None,None,None,None,None,None,None,None
2.70,2016-01-04 09:18:41,2016-01-04 09:33:29,15.36,0,2.56,N,2022-04-16 02:00:00,2016-01-01 00:00:00,New York,None,-74.000518798828125,40.727180480957031,1,4,0.5,-73.9651814,40.7745779,0.3,12,0,-73.975883483886719,40.754173278808594,New York,1,2,NY CITY CENTRAL PARK NY US,WBAN:94728,1,FM-15,None,None,None,None,None,None,None,None,None,None,None,None,-9999,-9999,None,None,None,-9999,-9999,None,None,None,None,None,None,None,None,None,None,None,None,None,None,None,None,None,None,None,None,None,None,None,None,-73.9669,40.7889,5,None,VRB,23,-4.7,10.00,29.89,30.04,FEW:02 43,43,3,None,0.00,None,8,-13.3,28,-2.2,30.06,39.6,2016-01-04 09:51,None,None,None,2142,1220,None,None,None,None,None,None,None,None,None,None,None,None,None,None,None,None
3.80,2016-01-04 09:18:42,2016-01-04 09:45:40,19.8,0,0,N,None,None,None,None,-73.979827880859375,40.785671234130859,2,2,0.5,None,None,0.3,19,0,-74.002113342285156,40.742916107177734,None,None,1,NY CITY CENTRAL PARK NY US,WBAN:94728,1,FM-15,None,None,None,None,None,None,None,None,None,None,None,None,-9999,-9999,None,None,None,-9999,-9999,None,None,None,None,None,None,None,None,None,None,None,None,None,None,None,None,None,None,None,None,None,None,None,None,-73.9669,40.7889,5,None,VRB,23,-4.7,10.00,29.89,30.04,FEW:02 43,43,3,None,0.00,None,8,-13.3,28,-2.2,30.06,39.6,2016-01-04 09:51,None,None,None,2142,1220,None,None,None,None,None,None,None,None,None,None,None,None,None,None,None,None
2.15,2016-01-04 09:18:42,2016-01-04 09:41:04,18.36,0,3.06,N,None,None,None,None,-73.994010925292969,40.750118255615234,1,2,0.5,None,None,0.3,14.5,0,-73.96942138671875,40.762870788574219,None,None,2,NY CITY CENTRAL PARK NY US,WBAN:94728,1,FM-15,None,None,None,None,None,None,None,None,None,None,None,None,-9999,-9999,None,None,None,-9999,-9999,None,None,None,None,None,None,None,None,None,None,None,None,None,None,None,None,None,None,None,None,None,None,None,None,-73.9669,40.7889,5,None,VRB,23,-4.7,10.00,29.89,30.04,FEW:02 43,43,3,None,0.00,None,8,-13.3,28,-2.2,30.06,39.6,2016-01-04 09:51,None,None,None,2142,1220,None,None,None,None,None,None,None,None,None,None,None,None,None,None,None,None
2.38,2016-01-04 09:18:42,2016-01-04 09:36:43,17.25,0,3.45,N,2016-12-31 00:00:00,2016-01-01 00:00:00,New York,10022,-74.002555847167969,40.729007720947266,1,1,0.5,-73.968,40.759,0.3,13,0,-73.978981018066406,40.753105163574219,New York,2,2,NY CITY CENTRAL PARK NY US,WBAN:94728,1,FM-15,None,None,None,None,None,None,None,None,None,None,None,None,-9999,-9999,None,None,None,-9999,-9999,None,None,None,None,None,None,None,None,None,None,None,None,None,None,None,None,None,None,None,None,None,None,None,None,-73.9669,40.7889,5,None,VRB,23,-4.7,10.00,29.89,30.04,FEW:02 43,43,3,None,0.00,None,8,-13.3,28,-2.2,30.06,39.6,2016-01-04 09:51,None,None,None,2142,1220,None,None,None,None,None,None,None,None,None,None,None,None,None,None,None,None
1.54,2016-01-04 09:18:42,2016-01-04 09:31:15,12.88,0,2.58,N,None,None,None,None,-73.998504638671875,40.681678771972656,1,1,0.5,None,None,0.3,9.5,0,-73.988739013671875,40.692901611328125,None,None,2,NY CITY CENTRAL PARK NY US,WBAN:94728,1,FM-15,None,None,None,None,None,None,None,None,None,None,None,None,-9999,-9999,None,None,None,-9999,-9999,None,None,None,None,None,None,None,None,None,None,None,None,None,None,None,None,None,None,None,None,None,None,None,None,-73.9669,40.7889,5,None,VRB,23,-4.7,10.00,29.89,30.04,FEW:02 43,43,3,None,0.00,None,8,-13.3,28,-2.2,30.06,39.6,2016-01-04 09:51,None,None,None,2142,1220,None,None,None,None,None,None,None,None,None,None,None,None,None,None,None,None
1.05,2016-01-04 09:18:42,2016-01-04 09:26:23,8.76,0,1.46,N,None,None,None,None,-73.994400024414063,40.755970001220703,1,6,0.5,None,None,0.3,6.5,0,-73.981254577636719,40.759101867675781,None,None,2,NY CITY CENTRAL PARK NY US,WBAN:94728,1,FM-15,None,None,None,None,None,None,None,None,None,None,None,None,-9999,-9999,None,None,None,-9999,-9999,None,None,None,None,None,None,None,None,None,None,None,None,None,None,None,None,None,None,None,None,None,None,None,None,-73.9669,40.7889,5,None,VRB,23,-4.7,10.00,29.89,30.04,FEW:02 43,43,3,None,0.00,None,8,-13.3,28,-2.2,30.06,39.6,2016-01-04 09:51,None,None,None,2142,1220,None,None,None,None,None,None,None,None,None,None,None,None,None,None,None,None
1.27,2016-01-04 09:18:42,2016-01-04 09:33:44,13.56,0,2.26,N,None | 2016-07-03 00:00:00,2016-01-01 00:00:00 | 2015-10-08 00:00:00,New York | New York,10019 | 10019,-73.976860046386719,40.755649566650391,1,6,0.5,-73.9803996 | -73.9844951,40.7656668 | 40.7632328,0.3,10.5,0,-73.985740661621094,40.767841339111328,New York | New York,1 | 2,2,NY CITY CENTRAL PARK NY US,WBAN:94728,1,FM-15,None,None,None,None,None,None,None,None,None,None,None,None,-9999,-9999,None,None,None,-9999,-9999,None,None,None,None,None,None,None,None,None,None,None,None,None,None,None,None,None,None,None,None,None,None,None,None,-73.9669,40.7889,5,None,VRB,23,-4.7,10.00,29.89,30.04,FEW:02 43,43,3,None,0.00,None,8,-13.3,28,-2.2,30.06,39.6,2016-01-04 09:51,None,None,None,2142,1220,None,None,None,None,None,None,None,None,None,None,None,None,None,None,None,None
1.14,2016-01-04 09:18:42,2016-01-04 09:33:55,11.3,0,0,N,None | 2016-07-03 00:00:00,2016-01-01 00:00:00 | 2015-10-08 00:00:00,New York | New York,10019 | 10019,-73.981788635253906,40.728397369384766,2,1,0.5,-73.9803996 | -73.9844951,40.7656668 | 40.7632328,0.3,10.5,0,-73.993675231933594,40.722503662109375,New York | New York,1 | 2,2,NY CITY CENTRAL PARK NY US,WBAN:94728,1,FM-15,None,None,None,None,None,None,None,None,None,None,None,None,-9999,-9999,None,None,None,-9999,-9999,None,None,None,None,None,None,None,None,None,None,None,None,None,None,None,None,None,None,None,None,None,None,None,None,-73.9669,40.7889,5,None,VRB,23,-4.7,10.00,29.89,30.04,FEW:02 43,43,3,None,0.00,None,8,-13.3,28,-2.2,30.06,39.6,2016-01-04 09:51,None,None,None,2142,1220,None,None,None,None,None,None,None,None,None,None,None,None,None,None,None,None
7.70,2016-01-04 09:18:43,2016-01-04 09:37:43,26.8,0,2.5,N,None,None,None,None,-73.9443359375,40.780727386474609,1,1,0.5,None,None,0.3,23.5,0,-74.007133483886719,40.703853607177734,None,None,1,NY CITY CENTRAL PARK NY US,WBAN:94728,1,FM-15,None,None,None,None,None,None,None,None,None,None,None,None,-9999,-9999,None,None,None,-9999,-9999,None,None,None,None,None,None,None,None,None,None,None,None,None,None,None,None,None,None,None,None,None,None,None,None,-73.9669,40.7889,5,None,VRB,23,-4.7,10.00,29.89,30.04,FEW:02 43,43,3,None,0.00,None,8,-13.3,28,-2.2,30.06,39.6,2016-01-04 09:51,None,None,None,2142,1220,None,None,None,None,None,None,None,None,None,None,None,None,None,None,None,None
.80,2016-01-04 09:18:43,2016-01-04 09:22:28,7.25,0,1.45,N,None,2016-01-01 02:00:00,New York,10038,-73.993858337402344,40.745693206787109,1,1,0.5,-74.0081571,40.7090990,0.3,5,0,-74.004783630371094,40.7447509765625,New York,0,1,NY CITY CENTRAL PARK NY US,WBAN:94728,1,FM-15,None,None,None,None,None,None,None,None,None,None,None,None,-9999,-9999,None,None,None,-9999,-9999,None,None,None,None,None,None,None,None,None,None,None,None,None,None,None,None,None,None,None,None,None,None,None,None,-73.9669,40.7889,5,None,VRB,23,-4.7,10.00,29.89,30.04,FEW:02 43,43,3,None,0.00,None,8,-13.3,28,-2.2,30.06,39.6,2016-01-04 09:51,None,None,None,2142,1220,None,None,None,None,None,None,None,None,None,None,None,None,None,None,None,None
1.50,2016-01-04 09:18:43,2016-01-04 09:25:53,9.3,0,1,N,None,None,None,None,-73.957183837890625,40.766124725341797,1,1,0.5,None,None,0.3,7.5,0,-73.9498291015625,40.78460693359375,None,None,1,NY CITY CENTRAL PARK NY US,WBAN:94728,1,FM-15,None,None,None,None,None,None,None,None,None,None,None,None,-9999,-9999,None,None,None,-9999,-9999,None,None,None,None,None,None,None,None,None,None,None,None,None,None,None,None,None,None,None,None,None,None,None,None,-73.9669,40.7889,5,None,VRB,23,-4.7,10.00,29.89,30.04,FEW:02 43,43,3,None,0.00,None,8,-13.3,28,-2.2,30.06,39.6,2016-01-04 09:51,None,None,None,2142,1220,None,None,None,None,None,None,None,None,None,None,None,None,None,None,None,None
1.10,2016-01-04 09:18:44,2016-01-04 09:33:05,12.95,0,2.15,N,None,None,None,None,-74.006637573242188,40.736415863037109,1,2,0.5,None,None,0.3,10,0,-73.989677429199219,40.73443603515625,None,None,1,NY CITY CENTRAL PARK NY US,WBAN:94728,1,FM-15,None,None,None,None,None,None,None,None,None,None,None,None,-9999,-9999,None,None,None,-9999,-9999,None,None,None,None,None,None,None,None,None,None,None,None,None,None,None,None,None,None,None,None,None,None,None,None,-73.9669,40.7889,5,None,VRB,23,-4.7,10.00,29.89,30.04,FEW:02 43,43,3,None,0.00,None,8,-13.3,28,-2.2,30.06,39.6,2016-01-04 09:51,None,None,None,2142,1220,None,None,None,None,None,None,None,None,None,None,None,None,None,None,None,None
.50,2016-01-04 09:18:44,2016-01-04 09:21:06,5.75,0,0.95,N,None,2016-01-01 09:00:00,New York,10003,-73.991584777832031,40.749885559082031,1,1,0.5,-73.9870210,40.7308580,0.3,4,0,-73.996780395507813,40.742397308349609,New York,0,1,NY CITY CENTRAL PARK NY US,WBAN:94728,1,FM-15,None,None,None,None,None,None,None,None,None,None,None,None,-9999,-9999,None,None,None,-9999,-9999,None,None,None,None,None,None,None,None,None,None,None,None,None,None,None,None,None,None,None,None,None,None,None,None,-73.9669,40.7889,5,None,VRB,23,-4.7,10.00,29.89,30.04,FEW:02 43,43,3,None,0.00,None,8,-13.3,28,-2.2,30.06,39.6,2016-01-04 09:51,None,None,None,2142,1220,None,None,None,None,None,None,None,None,None,None,None,None,None,None,None,None
2.30,2016-01-04 09:18:44,2016-01-04 09:35:31,15.35,0,2.55,N,None,None,None,None,-73.948959350585937,40.781532287597656,1,1,0.5,None,None,0.3,12,0,-73.970718383789063,40.751499176025391,None,None,1,NY CITY CENTRAL PARK NY US,WBAN:94728,1,FM-15,None,None,None,None,None,None,None,None,None,None,None,None,-9999,-9999,None,None,None,-9999,-9999,None,None,None,None,None,None,None,None,None,None,None,None,None,None,None,None,None,None,None,None,None,None,None,None,-73.9669,40.7889,5,None,VRB,23,-4.7,10.00,29.89,30.04,FEW:02 43,43,3,None,0.00,None,8,-13.3,28,-2.2,30.06,39.6,2016-01-04 09:51,None,None,None,2142,1220,None,None,None,None,None,None,None,None,None,None,None,None,None,None,None,None
3.56,2016-01-04 09:18:44,2016-01-04 09:37:53,15.3,0,0,N,None,None,None,None,-73.9761962890625,40.715450286865234,2,5,0.5,None,None,0.3,14.5,0,-73.9761962890625,40.715450286865234,None,None,2,NY CITY CENTRAL PARK NY US,WBAN:94728,1,FM-15,None,None,None,None,None,None,None,None,None,None,None,None,-9999,-9999,None,None,None,-9999,-9999,None,None,None,None,None,None,None,None,None,None,None,None,None,None,None,None,None,None,None,None,None,None,None,None,-73.9669,40.7889,5,None,VRB,23,-4.7,10.00,29.89,30.04,FEW:02 43,43,3,None,0.00,None,8,-13.3,28,-2.2,30.06,39.6,2016-01-04 09:51,None,None,None,2142,1220,None,None,None,None,None,None,None,None,None,None,None,None,None,None,None,None
.67,2016-01-04 09:18:45,2016-01-04 09:24:11,7.88,0,1.58,N,None | None,2016-01-01 03:00:00 | 2016-01-01 11:00:00,New York | New York,10002 | 10002,-73.965858459472656,40.762405395507813,1,1,0.5,-73.9847 | -73.9847,40.7182 | 40.7182,0.3,5.5,0,-73.956878662109375,40.762577056884766,New York | New York,0 | 0,2,NY CITY CENTRAL PARK NY US,WBAN:94728,1,FM-15,None,None,None,None,None,None,None,None,None,None,None,None,-9999,-9999,None,None,None,-9999,-9999,None,None,None,None,None,None,None,None,None,None,None,None,None,None,None,None,None,None,None,None,None,None,None,None,-73.9669,40.7889,5,None,VRB,23,-4.7,10.00,29.89,30.04,FEW:02 43,43,3,None,0.00,None,8,-13.3,28,-2.2,30.06,39.6,2016-01-04 09:51,None,None,None,2142,1220,None,None,None,None,None,None,None,None,None,None,None,None,None,None,None,None
1.06,2016-01-04 09:18:45,2016-01-04 09:25:20,8.3,0,1,N,None,None,None,None,-73.967147827148438,40.803680419921875,1,1,0.5,None,None,0.3,6.5,0,-73.97637939453125,40.790481567382813,None,None,2,NY CITY CENTRAL PARK NY US,WBAN:94728,1,FM-15,None,None,None,None,None,None,None,None,None,None,None,None,-9999,-9999,None,None,None,-9999,-9999,None,None,None,None,None,None,None,None,None,None,None,None,None,None,None,None,None,None,None,None,None,None,None,None,-73.9669,40.7889,5,None,VRB,23,-4.7,10.00,29.89,30.04,FEW:02 43,43,3,None,0.00,None,8,-13.3,28,-2.2,30.06,39.6,2016-01-04 09:51,None,None,None,2142,1220,None,None,None,None,None,None,None,None,None,None,None,None,None,None,None,None
.68,2016-01-04 09:18:45,2016-01-04 09:22:01,5.3,0,0,N,None,None,None,None,-73.988311767578125,40.753448486328125,2,1,0.5,None,None,0.3,4.5,0,-73.995018005371094,40.744659423828125,None,None,2,NY CITY CENTRAL PARK NY US,WBAN:94728,1,FM-15,None,None,None,None,None,None,None,None,None,None,None,None,-9999,-9999,None,None,None,-9999,-9999,None,None,None,None,None,None,None,None,None,None,None,None,None,None,None,None,None,None,None,None,None,None,None,None,-73.9669,40.7889,5,None,VRB,23,-4.7,10.00,29.89,30.04,FEW:02 43,43,3,None,0.00,None,8,-13.3,28,-2.2,30.06,39.6,2016-01-04 09:51,None,None,None,2142,1220,None,None,None,None,None,None,None,None,None,None,None,None,None,None,None,None
1.82,2016-01-04 09:18:45,2016-01-04 09:31:04,12.96,0,2.16,N,None,None,None,None,-73.995803833007812,40.73870849609375,1,1,0.5,None,None,0.3,10,0,-73.99835205078125,40.755599975585938,None,None,2,NY CITY CENTRAL PARK NY US,WBAN:94728,1,FM-15,None,None,None,None,None,None,None,None,None,None,None,None,-9999,-9999,None,None,None,-9999,-9999,None,None,None,None,None,None,None,None,None,None,None,None,None,None,None,None,None,None,None,None,None,None,None,None,-73.9669,40.7889,5,None,VRB,23,-4.7,10.00,29.89,30.04,FEW:02 43,43,3,None,0.00,None,8,-13.3,28,-2.2,30.06,39.6,2016-01-04 09:51,None,None,None,2142,1220,None,None,None,None,None,None,None,None,None,None,None,None,None,None,None,None
.00,2016-01-04 09:18:45,2016-01-04 09:18:47,60.8,0,8,N,None,None,None,None,0,0,1,1,0.5,None,None,0.3,52,0,0,0,None,None,2,NY CITY CENTRAL PARK NY US,WBAN:94728,2,FM-15,None,None,None,None,None,None,None,None,None,None,None,None,-9999,-9999,None,None,None,-9999,-9999,None,None,None,None,None,None,None,None,None,None,None,None,None,None,None,None,None,None,None,None,None,None,None,None,-73.9669,40.7889,5,None,VRB,23,-4.7,10.00,29.89,30.04,FEW:02 43,43,3,None,0.00,None,8,-13.3,28,-2.2,30.06,39.6,2016-01-04 09:51,None,None,None,2142,1220,None,None,None,None,None,None,None,None,None,None,None,None,None,None,None,None
1.87,2016-01-04 09:18:45,2016-01-04 09:37:37,16.56,0,2.76,N,None,None,None,None,-73.960716247558594,40.775104522705078,1,3,0.5,None,None,0.3,13,0,-73.978240966796875,40.755210876464844,None,None,2,NY CITY CENTRAL PARK NY US,WBAN:94728,1,FM-15,None,None,None,None,None,None,None,None,None,None,None,None,-9999,-9999,None,None,None,-9999,-9999,None,None,None,None,None,None,None,None,None,None,None,None,None,None,None,None,None,None,None,None,None,None,None,None,-73.9669,40.7889,5,None,VRB,23,-4.7,10.00,29.89,30.04,FEW:02 43,43,3,None,0.00,None,8,-13.3,28,-2.2,30.06,39.6,2016-01-04 09:51,None,None,None,2142,1220,None,None,None,None,None,None,None,None,None,None,None,None,None,None,None,None
4.70,2016-01-04 09:18:46,2016-01-04 09:32:16,19.55,0,3.25,N,None,None,None,None,-73.977188110351562,40.750118255615234,1,1,0.5,None,None,0.3,15.5,0,-74.007644653320312,40.703525543212891,None,None,1,NY CITY CENTRAL PARK NY US,WBAN:94728,1,FM-15,None,None,None,None,None,None,None,None,None,None,None,None,-9999,-9999,None,None,None,-9999,-9999,None,None,None,None,None,None,None,None,None,None,None,None,None,None,None,None,None,None,None,None,None,None,None,None,-73.9669,40.7889,5,None,VRB,23,-4.7,10.00,29.89,30.04,FEW:02 43,43,3,None,0.00,None,8,-13.3,28,-2.2,30.06,39.6,2016-01-04 09:51,None,None,None,2142,1220,None,None,None,None,None,None,None,None,None,None,None,None,None,None,None,None
.79,2016-01-04 09:18:46,2016-01-04 09:27:10,9.36,0,1.56,N,None,2016-01-01 02:00:00,New York,10038,-73.981246948242188,40.779109954833984,1,2,0.5,-74.0081571,40.7090990,0.3,7,0,-73.9715576171875,40.782848358154297,New York,0,2,NY CITY CENTRAL PARK NY US,WBAN:94728,1,FM-15,None,None,None,None,None,None,None,None,None,None,None,None,-9999,-9999,None,None,None,-9999,-9999,None,None,None,None,None,None,None,None,None,None,None,None,None,None,None,None,None,None,None,None,None,None,None,None,-73.9669,40.7889,5,None,VRB,23,-4.7,10.00,29.89,30.04,FEW:02 43,43,3,None,0.00,None,8,-13.3,28,-2.2,30.06,39.6,2016-01-04 09:51,None,None,None,2142,1220,None,None,None,None,None,None,None,None,None,None,None,None,None,None,None,None
.26,2016-01-04 09:18:46,2016-01-04 09:20:47,4.3,0,0,N,None,2016-01-01 00:00:00,New York,10028,-73.978157043457031,40.753303527832031,1,1,0.5,-73.9634699,40.7792134,0.3,3.5,0,-73.98199462890625,40.754936218261719,New York,2,2,NY CITY CENTRAL PARK NY US,WBAN:94728,1,FM-15,None,None,None,None,None,None,None,None,None,None,None,None,-9999,-9999,None,None,None,-9999,-9999,None,None,None,None,None,None,None,None,None,None,None,None,None,None,None,None,None,None,None,None,None,None,None,None,-73.9669,40.7889,5,None,VRB,23,-4.7,10.00,29.89,30.04,FEW:02 43,43,3,None,0.00,None,8,-13.3,28,-2.2,30.06,39.6,2016-01-04 09:51,None,None,None,2142,1220,None,None,None,None,None,None,None,None,None,None,None,None,None,None,None,None
1.74,2016-01-04 09:18:46,2016-01-04 09:31:00,12.96,0,2.16,N,None,None,None,None,-74.013374328613281,40.716682434082031,1,1,0.5,None,None,0.3,10,0,-73.995010375976563,40.72564697265625,None,None,2,NY CITY CENTRAL PARK NY US,WBAN:94728,1,FM-15,None,None,None,None,None,None,None,None,None,None,None,None,-9999,-9999,None,None,None,-9999,-9999,None,None,None,None,None,None,None,None,None,None,None,None,None,None,None,None,None,None,None,None,None,None,None,None,-73.9669,40.7889,5,None,VRB,23,-4.7,10.00,29.89,30.04,FEW:02 43,43,3,None,0.00,None,8,-13.3,28,-2.2,30.06,39.6,2016-01-04 09:51,None,None,None,2142,1220,None,None,None,None,None,None,None,None,None,None,None,None,None,None,None,None
3.42,2016-01-04 09:18:46,2016-01-04 09:47:11,21.3,0,2,N,None,None,None,None,-73.993995666503906,40.751155853271484,1,1,0.5,None,None,0.3,18.5,0,-73.953994750976563,40.770530700683594,None,None,2,NY CITY CENTRAL PARK NY US,WBAN:94728,1,FM-15,None,None,None,None,None,None,None,None,None,None,None,None,-9999,-9999,None,None,None,-9999,-9999,None,None,None,None,None,None,None,None,None,None,None,None,None,None,None,None,None,None,None,None,None,None,None,None,-73.9669,40.7889,5,None,VRB,23,-4.7,10.00,29.89,30.04,FEW:02 43,43,3,None,0.00,None,8,-13.3,28,-2.2,30.06,39.6,2016-01-04 09:51,None,None,None,2142,1220,None,None,None,None,None,None,None,None,None,None,None,None,None,None,None,None
1.20,2016-01-04 09:18:47,2016-01-04 09:26:15,7.8,0,0,N,None,None,None,None,-73.991493225097656,40.727180480957031,2,1,0.5,None,None,0.3,7,0,-73.985000610351563,40.741851806640625,None,None,1,NY CITY CENTRAL PARK NY US,WBAN:94728,1,FM-15,None,None,None,None,None,None,None,None,None,None,None,None,-9999,-9999,None,None,None,-9999,-9999,None,None,None,None,None,None,None,None,None,None,None,None,None,None,None,None,None,None,None,None,None,None,None,None,-73.9669,40.7889,5,None,VRB,23,-4.7,10.00,29.89,30.04,FEW:02 43,43,3,None,0.00,None,8,-13.3,28,-2.2,30.06,39.6,2016-01-04 09:51,None,None,None,2142,1220,None,None,None,None,None,None,None,None,None,None,None,None,None,None,None,None
.40,2016-01-04 09:18:47,2016-01-04 09:26:22,7.48,0,0.68,N,None,None,None,None,-73.981231689453125,40.747089385986328,1,1,0.5,None,None,0.3,6,0,-73.984245300292969,40.742805480957031,None,None,1,NY CITY CENTRAL PARK NY US,WBAN:94728,1,FM-15,None,None,None,None,None,None,None,None,None,None,None,None,-9999,-9999,None,None,None,-9999,-9999,None,None,None,None,None,None,None,None,None,None,None,None,None,None,None,None,None,None,None,None,None,None,None,None,-73.9669,40.7889,5,None,VRB,23,-4.7,10.00,29.89,30.04,FEW:02 43,43,3,None,0.00,None,8,-13.3,28,-2.2,30.06,39.6,2016-01-04 09:51,None,None,None,2142,1220,None,None,None,None,None,None,None,None,None,None,None,None,None,None,None,None
1.00,2016-01-04 09:18:47,2016-01-04 09:31:56,11.8,0,1.5,N,None,None,None,None,-73.953971862792969,40.772991180419922,1,1,0.5,None,None,0.3,9.5,0,-73.965690612792969,40.765430450439453,None,None,1,NY CITY CENTRAL PARK NY US,WBAN:94728,1,FM-15,None,None,None,None,None,None,None,None,None,None,None,None,-9999,-9999,None,None,None,-9999,-9999,None,None,None,None,None,None,None,None,None,None,None,None,None,None,None,None,None,None,None,None,None,None,None,None,-73.9669,40.7889,5,None,VRB,23,-4.7,10.00,29.89,30.04,FEW:02 43,43,3,None,0.00,None,8,-13.3,28,-2.2,30.06,39.6,2016-01-04 09:51,None,None,None,2142,1220,None,None,None,None,None,None,None,None,None,None,None,None,None,None,None,None
2.17,2016-01-04 09:18:47,2016-01-04 09:38:15,17.16,0,2.86,N,2016-12-31 00:00:00,2016-01-01 00:00:00,New York,10022,-73.95794677734375,40.760948181152344,1,1,0.5,-73.968,40.759,0.3,13.5,0,-73.957733154296875,40.784599304199219,New York,2,2,NY CITY CENTRAL PARK NY US,WBAN:94728,1,FM-15,None,None,None,None,None,None,None,None,None,None,None,None,-9999,-9999,None,None,None,-9999,-9999,None,None,None,None,None,None,None,None,None,None,None,None,None,None,None,None,None,None,None,None,None,None,None,None,-73.9669,40.7889,5,None,VRB,23,-4.7,10.00,29.89,30.04,FEW:02 43,43,3,None,0.00,None,8,-13.3,28,-2.2,30.06,39.6,2016-01-04 09:51,None,None,None,2142,1220,None,None,None,None,None,None,None,None,None,None,None,None,None,None,None,None
.30,2016-01-04 09:18:48,2016-01-04 09:20:25,4.3,0,0,N,None,2016-01-01 00:00:00,New York,10028,-73.974838256835938,40.787921905517578,2,1,0.5,-73.9634699,40.7792134,0.3,3.5,0,-73.970321655273437,40.790763854980469,New York,2,1,NY CITY CENTRAL PARK NY US,WBAN:94728,1,FM-15,None,None,None,None,None,None,None,None,None,None,None,None,-9999,-9999,None,None,None,-9999,-9999,None,None,None,None,None,None,None,None,None,None,None,None,None,None,None,None,None,None,None,None,None,None,None,None,-73.9669,40.7889,5,None,VRB,23,-4.7,10.00,29.89,30.04,FEW:02 43,43,3,None,0.00,None,8,-13.3,28,-2.2,30.06,39.6,2016-01-04 09:51,None,None,None,2142,1220,None,None,None,None,None,None,None,None,None,None,None,None,None,None,None,None
1.70,2016-01-04 09:18:48,2016-01-04 09:30:58,12.3,0,2,N,None,None,None,None,-73.989173889160156,40.747989654541016,1,1,0.5,None,None,0.3,9.5,0,-73.96990966796875,40.762306213378906,None,None,1,NY CITY CENTRAL PARK NY US,WBAN:94728,1,FM-15,None,None,None,None,None,None,None,None,None,None,None,None,-9999,-9999,None,None,None,-9999,-9999,None,None,None,None,None,None,None,None,None,None,None,None,None,None,None,None,None,None,None,None,None,None,None,None,-73.9669,40.7889,5,None,VRB,23,-4.7,10.00,29.89,30.04,FEW:02 43,43,3,None,0.00,None,8,-13.3,28,-2.2,30.06,39.6,2016-01-04 09:51,None,None,None,2142,1220,None,None,None,None,None,None,None,None,None,None,None,None,None,None,None,None
1.00,2016-01-04 09:18:48,2016-01-04 09:25:10,7.8,0,1,N,2016-12-31 00:00:00,2016-01-01 00:00:00,New York,10022,-73.952987670898437,40.776741027832031,1,1,0.5,-73.968,40.759,0.3,6,0,-73.9617919921875,40.763637542724609,New York,2,1,NY CITY CENTRAL PARK NY US,WBAN:94728,1,FM-15,None,None,None,None,None,None,None,None,None,None,None,None,-9999,-9999,None,None,None,-9999,-9999,None,None,None,None,None,None,None,None,None,None,None,None,None,None,None,None,None,None,None,None,None,None,None,None,-73.9669,40.7889,5,None,VRB,23,-4.7,10.00,29.89,30.04,FEW:02 43,43,3,None,0.00,None,8,-13.3,28,-2.2,30.06,39.6,2016-01-04 09:51,None,None,None,2142,1220,None,None,None,None,None,None,None,None,None,None,None,None,None,None,None,None
1.10,2016-01-04 09:18:48,2016-01-04 09:32:28,13.5,0,2.7,N,2016-12-31 00:00:00,2016-01-01 00:00:00,New York,10022,-73.994094848632812,40.751190185546875,1,2,0.5,-73.968,40.759,0.3,10,0,-74.004623413085938,40.741909027099609,New York,2,1,NY CITY CENTRAL PARK NY US,WBAN:94728,1,FM-15,None,None,None,None,None,None,None,None,None,None,None,None,-9999,-9999,None,None,None,-9999,-9999,None,None,None,None,None,None,None,None,None,None,None,None,None,None,None,None,None,None,None,None,None,None,None,None,-73.9669,40.7889,5,None,VRB,23,-4.7,10.00,29.89,30.04,FEW:02 43,43,3,None,0.00,None,8,-13.3,28,-2.2,30.06,39.6,2016-01-04 09:51,None,None,None,2142,1220,None,None,None,None,None,None,None,None,None,None,None,None,None,None,None,None
1.10,2016-01-04 09:18:48,2016-01-04 09:33:01,10.8,0,0.5,N,None,None,None,None,-73.967315673828125,40.757591247558594,1,1,0.5,None,None,0.3,9.5,0,-73.980224609375,40.753055572509766,None,None,1,NY CITY CENTRAL PARK NY US,WBAN:94728,1,FM-15,None,None,None,None,None,None,None,None,None,None,None,None,-9999,-9999,None,None,None,-9999,-9999,None,None,None,None,None,None,None,None,None,None,None,None,None,None,None,None,None,None,None,None,None,None,None,None,-73.9669,40.7889,5,None,VRB,23,-4.7,10.00,29.89,30.04,FEW:02 43,43,3,None,0.00,None,8,-13.3,28,-2.2,30.06,39.6,2016-01-04 09:51,None,None,None,2142,1220,None,None,None,None,None,None,None,None,None,None,None,None,None,None,None,None
.75,2016-01-04 09:18:48,2016-01-04 09:21:13,4.8,0,0,N,None,None,None,None,-73.971511840820313,40.787269592285156,2,6,0.5,None,None,0.3,4,0,-73.970489501953125,40.793869018554687,None,None,2,NY CITY CENTRAL PARK NY US,WBAN:94728,1,FM-15,None,None,None,None,None,None,None,None,None,None,None,None,-9999,-9999,None,None,None,-9999,-9999,None,None,None,None,None,None,None,None,None,None,None,None,None,None,None,None,None,None,None,None,None,None,None,None,-73.9669,40.7889,5,None,VRB,23,-4.7,10.00,29.89,30.04,FEW:02 43,43,3,None,0.00,None,8,-13.3,28,-2.2,30.06,39.6,2016-01-04 09:51,None,None,None,2142,1220,None,None,None,None,None,None,None,None,None,None,None,None,None,None,None,None
2.83,2016-01-04 09:18:48,2016-01-04 09:30:20,15.3,0,3,N,None,None,None,None,-73.904159545898437,40.771560668945313,1,1,0.5,None,None,0.3,11.5,0,-73.875068664550781,40.750930786132813,None,None,2,NY CITY CENTRAL PARK NY US,WBAN:94728,1,FM-15,None,None,None,None,None,None,None,None,None,None,None,None,-9999,-9999,None,None,None,-9999,-9999,None,None,None,None,None,None,None,None,None,None,None,None,None,None,None,None,None,None,None,None,None,None,None,None,-73.9669,40.7889,5,None,VRB,23,-4.7,10.00,29.89,30.04,FEW:02 43,43,3,None,0.00,None,8,-13.3,28,-2.2,30.06,39.6,2016-01-04 09:51,None,None,None,2142,1220,None,None,None,None,None,None,None,None,None,None,None,None,None,None,None,None
2.47,2016-01-04 09:18:48,2016-01-04 09:41:47,18.8,0,2,N,None,None,None,None,-73.980461120605469,40.730060577392578,1,1,0.5,None,None,0.3,16,0,-73.973419189453125,40.754283905029297,None,None,2,NY CITY CENTRAL PARK NY US,WBAN:94728,1,FM-15,None,None,None,None,None,None,None,None,None,None,None,None,-9999,-9999,None,None,None,-9999,-9999,None,None,None,None,None,None,None,None,None,None,None,None,None,None,None,None,None,None,None,None,None,None,None,None,-73.9669,40.7889,5,None,VRB,23,-4.7,10.00,29.89,30.04,FEW:02 43,43,3,None,0.00,None,8,-13.3,28,-2.2,30.06,39.6,2016-01-04 09:51,None,None,None,2142,1220,None,None,None,None,None,None,None,None,None,None,None,None,None,None,None,None
1.60,2016-01-04 09:18:48,2016-01-04 09:27:31,10.56,0,1.76,N,2016-12-31 00:00:00,2016-01-01 00:00:00,New York,10022,-74.016326904296875,40.714778900146484,1,1,0.5,-73.968,40.759,0.3,8,0,-74.001121520996094,40.721111297607422,New York,2,2,NY CITY CENTRAL PARK NY US,WBAN:94728,1,FM-15,None,None,None,None,None,None,None,None,None,None,None,None,-9999,-9999,None,None,None,-9999,-9999,None,None,None,None,None,None,None,None,None,None,None,None,None,None,None,None,None,None,None,None,None,None,None,None,-73.9669,40.7889,5,None,VRB,23,-4.7,10.00,29.89,30.04,FEW:02 43,43,3,None,0.00,None,8,-13.3,28,-2.2,30.06,39.6,2016-01-04 09:51,None,None,None,2142,1220,None,None,None,None,None,None,None,None,None,None,None,None,None,None,None,None
1.89,2016-01-04 09:18:48,2016-01-04 09:27:38,10.8,0,1,N,None,2016-01-01 20:00:00,New York,10013,-73.986923217773437,40.701061248779297,1,2,0.5,-74.0050159,40.7208412,0.3,9,0,-74.002799987792969,40.717830657958984,New York,0,2,NY CITY CENTRAL PARK NY US,WBAN:94728,1,FM-15,None,None,None,None,None,None,None,None,None,None,None,None,-9999,-9999,None,None,None,-9999,-9999,None,None,None,None,None,None,None,None,None,None,None,None,None,None,None,None,None,None,None,None,None,None,None,None,-73.9669,40.7889,5,None,VRB,23,-4.7,10.00,29.89,30.04,FEW:02 43,43,3,None,0.00,None,8,-13.3,28,-2.2,30.06,39.6,2016-01-04 09:51,None,None,None,2142,1220,None,None,None,None,None,None,None,None,None,None,None,None,None,None,None,None
2.10,2016-01-04 09:18:49,2016-01-04 09:42:25,19,0,2.7,N,None | None | None,2016-01-01 00:00:00 | 2016-01-01 00:00:00 | 2016-01-01 20:00:00,New York | New York | New York,None | None | 10013,-73.9586181640625,40.777938842773438,1,1,0.5,-74.0064 | -74.0064 | -74.0050159,40.7142 | 40.7142 | 40.7208412,0.3,15.5,0,-73.974983215332031,40.752761840820312,New York | New York | New York,1 | 1 | 0,1,NY CITY CENTRAL PARK NY US,WBAN:94728,1,FM-15,None,None,None,None,None,None,None,None,None,None,None,None,-9999,-9999,None,None,None,-9999,-9999,None,None,None,None,None,None,None,None,None,None,None,None,None,None,None,None,None,None,None,None,None,None,None,None,-73.9669,40.7889,5,None,VRB,23,-4.7,10.00,29.89,30.04,FEW:02 43,43,3,None,0.00,None,8,-13.3,28,-2.2,30.06,39.6,2016-01-04 09:51,None,None,None,2142,1220,None,None,None,None,None,None,None,None,None,None,None,None,None,None,None,None
3.20,2016-01-04 09:18:49,2016-01-04 09:46:10,20,0,1.2,N,None,None,None,None,-73.981613159179688,40.746574401855469,1,1,0.5,None,None,0.3,18,0,-73.953865051269531,40.779579162597656,None,None,1,NY CITY CENTRAL PARK NY US,WBAN:94728,1,FM-15,None,None,None,None,None,None,None,None,None,None,None,None,-9999,-9999,None,None,None,-9999,-9999,None,None,None,None,None,None,None,None,None,None,None,None,None,None,None,None,None,None,None,None,None,None,None,None,-73.9669,40.7889,5,None,VRB,23,-4.7,10.00,29.89,30.04,FEW:02 43,43,3,None,0.00,None,8,-13.3,28,-2.2,30.06,39.6,2016-01-04 09:51,None,None,None,2142,1220,None,None,None,None,None,None,None,None,None,None,None,None,None,None,None,None
.50,2016-01-04 09:18:49,2016-01-04 09:22:03,5.3,0,0,N,None,None,None,None,-73.984710693359375,40.754104614257813,2,2,0.5,None,None,0.3,4.5,0,-73.979393005371094,40.761604309082031,None,None,1,NY CITY CENTRAL PARK NY US,WBAN:94728,1,FM-15,None,None,None,None,None,None,None,None,None,None,None,None,-9999,-9999,None,None,None,-9999,-9999,None,None,None,None,None,None,None,None,None,None,None,None,None,None,None,None,None,None,None,None,None,None,None,None,-73.9669,40.7889,5,None,VRB,23,-4.7,10.00,29.89,30.04,FEW:02 43,43,3,None,0.00,None,8,-13.3,28,-2.2,30.06,39.6,2016-01-04 09:51,None,None,None,2142,1220,None,None,None,None,None,None,None,None,None,None,None,None,None,None,None,None
2.70,2016-01-04 09:18:50,2016-01-04 09:41:00,15.8,0,0,N,None | 2016-07-03 00:00:00,2016-01-01 00:00:00 | 2015-10-08 00:00:00,New York | New York,10019 | 10019,-73.98828125,40.749252319335938,2,1,0.5,-73.9803996 | -73.9844951,40.7656668 | 40.7632328,0.3,15,0,-73.989463806152344,40.773048400878906,New York | New York,1 | 2,1,NY CITY CENTRAL PARK NY US,WBAN:94728,1,FM-15,None,None,None,None,None,None,None,None,None,None,None,None,-9999,-9999,None,None,None,-9999,-9999,None,None,None,None,None,None,None,None,None,None,None,None,None,None,None,None,None,None,None,None,None,None,None,None,-73.9669,40.7889,5,None,VRB,23,-4.7,10.00,29.89,30.04,FEW:02 43,43,3,None,0.00,None,8,-13.3,28,-2.2,30.06,39.6,2016-01-04 09:51,None,None,None,2142,1220,None,None,None,None,None,None,None,None,None,None,None,None,None,None,None,None
1.60,2016-01-04 09:18:50,2016-01-04 09:27:47,9.8,0,0,N,None,None,None,None,-73.980873107910156,40.781730651855469,3,1,0.5,None,None,0.3,9,0,-73.967849731445312,40.801921844482422,None,None,1,NY CITY CENTRAL PARK NY US,WBAN:94728,1,FM-15,None,None,None,None,None,None,None,None,None,None,None,None,-9999,-9999,None,None,None,-9999,-9999,None,None,None,None,None,None,None,None,None,None,None,None,None,None,None,None,None,None,None,None,None,None,None,None,-73.9669,40.7889,5,None,VRB,23,-4.7,10.00,29.89,30.04,FEW:02 43,43,3,None,0.00,None,8,-13.3,28,-2.2,30.06,39.6,2016-01-04 09:51,None,None,None,2142,1220,None,None,None,None,None,None,None,None,None,None,None,None,None,None,None,None
.90,2016-01-04 09:18:50,2016-01-04 09:27:01,9,0,1.2,N,None,None,None,None,-73.976615905761719,40.750751495361328,1,1,0.5,None,None,0.3,7,0,-73.974899291992187,40.741756439208984,None,None,1,NY CITY CENTRAL PARK NY US,WBAN:94728,1,FM-15,None,None,None,None,None,None,None,None,None,None,None,None,-9999,-9999,None,None,None,-9999,-9999,None,None,None,None,None,None,None,None,None,None,None,None,None,None,None,None,None,None,None,None,None,None,None,None,-73.9669,40.7889,5,None,VRB,23,-4.7,10.00,29.89,30.04,FEW:02 43,43,3,None,0.00,None,8,-13.3,28,-2.2,30.06,39.6,2016-01-04 09:51,None,None,None,2142,1220,None,None,None,None,None,None,None,None,None,None,None,None,None,None,None,None
2.20,2016-01-04 09:18:50,2016-01-04 09:30:13,12.3,0,1,N,None,None,None,None,-73.998481750488281,40.725879669189453,1,1,0.5,None,None,0.3,10.5,0,-74.0078125,40.751537322998047,None,None,1,NY CITY CENTRAL PARK NY US,WBAN:94728,1,FM-15,None,None,None,None,None,None,None,None,None,None,None,None,-9999,-9999,None,None,None,-9999,-9999,None,None,None,None,None,None,None,None,None,None,None,None,None,None,None,None,None,None,None,None,None,None,None,None,-73.9669,40.7889,5,None,VRB,23,-4.7,10.00,29.89,30.04,FEW:02 43,43,3,None,0.00,None,8,-13.3,28,-2.2,30.06,39.6,2016-01-04 09:51,None,None,None,2142,1220,None,None,None,None,None,None,None,None,None,None,None,None,None,None,None,None
.85,2016-01-04 09:18:50,2016-01-04 09:27:17,7.8,0,0,N,None,None,None,None,-73.983428955078125,40.765159606933594,2,2,0.5,None,None,0.3,7,0,-73.974128723144531,40.762420654296875,None,None,2,NY CITY CENTRAL PARK NY US,WBAN:94728,1,FM-15,None,None,None,None,None,None,None,None,None,None,None,None,-9999,-9999,None,None,None,-9999,-9999,None,None,None,None,None,None,None,None,None,None,None,None,None,None,None,None,None,None,None,None,None,None,None,None,-73.9669,40.7889,5,None,VRB,23,-4.7,10.00,29.89,30.04,FEW:02 43,43,3,None,0.00,None,8,-13.3,28,-2.2,30.06,39.6,2016-01-04 09:51,None,None,None,2142,1220,None,None,None,None,None,None,None,None,None,None,None,None,None,None,None,None
1.27,2016-01-04 09:18:50,2016-01-04 09:27:13,8.3,0,0,N,None | 2016-12-31 00:00:00,2016-01-01 00:00:00 | 2016-01-01 00:00:00,New York | New York,10019 | 10022,-73.964302062988281,40.79718017578125,1,2,0.5,-73.9803996 | -73.968,40.7656668 | 40.759,0.3,7.5,0,-73.953514099121094,40.788307189941406,New York | New York,1 | 2,2,NY CITY CENTRAL PARK NY US,WBAN:94728,1,FM-15,None,None,None,None,None,None,None,None,None,None,None,None,-9999,-9999,None,None,None,-9999,-9999,None,None,None,None,None,None,None,None,None,None,None,None,None,None,None,None,None,None,None,None,None,None,None,None,-73.9669,40.7889,5,None,VRB,23,-4.7,10.00,29.89,30.04,FEW:02 43,43,3,None,0.00,None,8,-13.3,28,-2.2,30.06,39.6,2016-01-04 09:51,None,None,None,2142,1220,None,None,None,None,None,None,None,None,None,None,None,None,None,None,None,None
2.36,2016-01-04 09:18:50,2016-01-04 09:38:24,16.44,0,2.14,N,None,2016-01-01 12:00:00,New York,10029,-73.974288940429688,40.791240692138672,1,1,0.5,-73.9519050,40.7924950,0.3,13.5,0,-73.975753784179688,40.763763427734375,New York,0,2,NY CITY CENTRAL PARK NY US,WBAN:94728,1,FM-15,None,None,None,None,None,None,None,None,None,None,None,None,-9999,-9999,None,None,None,-9999,-9999,None,None,None,None,None,None,None,None,None,None,None,None,None,None,None,None,None,None,None,None,None,None,None,None,-73.9669,40.7889,5,None,VRB,23,-4.7,10.00,29.89,30.04,FEW:02 43,43,3,None,0.00,None,8,-13.3,28,-2.2,30.06,39.6,2016-01-04 09:51,None,None,None,2142,1220,None,None,None,None,None,None,None,None,None,None,None,None,None,None,None,None
3.01,2016-01-04 09:18:50,2016-01-04 09:43:10,17.8,0,0,N,None | 2016-07-03 00:00:00,2016-01-01 00:00:00 | 2015-10-08 00:00:00,New York | New York,10019 | 10019,-73.972442626953125,40.795982360839844,2,1,0.5,-73.9803996 | -73.9844951,40.7656668 | 40.7632328,0.3,17,0,-73.953147888183594,40.769161224365234,New York | New York,1 | 2,2,NY CITY CENTRAL PARK NY US,WBAN:94728,1,FM-15,None,None,None,None,None,None,None,None,None,None,None,None,-9999,-9999,None,None,None,-9999,-9999,None,None,None,None,None,None,None,None,None,None,None,None,None,None,None,None,None,None,None,None,None,None,None,None,-73.9669,40.7889,5,None,VRB,23,-4.7,10.00,29.89,30.04,FEW:02 43,43,3,None,0.00,None,8,-13.3,28,-2.2,30.06,39.6,2016-01-04 09:51,None,None,None,2142,1220,None,None,None,None,None,None,None,None,None,None,None,None,None,None,None,None
1.40,2016-01-04 09:18:51,2016-01-04 09:30:37,11.8,0,2,N,None,None,None,None,-73.981521606445313,40.721073150634766,1,1,0.5,None,None,0.3,9,0,-74.003227233886719,40.726963043212891,None,None,1,NY CITY CENTRAL PARK NY US,WBAN:94728,1,FM-15,None,None,None,None,None,None,None,None,None,None,None,None,-9999,-9999,None,None,None,-9999,-9999,None,None,None,None,None,None,None,None,None,None,None,None,None,None,None,None,None,None,None,None,None,None,None,None,-73.9669,40.7889,5,None,VRB,23,-4.7,10.00,29.89,30.04,FEW:02 43,43,3,None,0.00,None,8,-13.3,28,-2.2,30.06,39.6,2016-01-04 09:51,None,None,None,2142,1220,None,None,None,None,None,None,None,None,None,None,None,None,None,None,None,None
.90,2016-01-04 09:18:51,2016-01-04 09:27:26,10.8,0,3,N,None,2016-01-01 20:00:00,New York,10013,-73.972023010253906,40.762638092041016,1,1,0.5,-74.0050159,40.7208412,0.3,7,0,-73.970649719238281,40.754238128662109,New York,0,1,NY CITY CENTRAL PARK NY US,WBAN:94728,1,FM-15,None,None,None,None,None,None,None,None,None,None,None,None,-9999,-9999,None,None,None,-9999,-9999,None,None,None,None,None,None,None,None,None,None,None,None,None,None,None,None,None,None,None,None,None,None,None,None,-73.9669,40.7889,5,None,VRB,23,-4.7,10.00,29.89,30.04,FEW:02 43,43,3,None,0.00,None,8,-13.3,28,-2.2,30.06,39.6,2016-01-04 09:51,None,None,None,2142,1220,None,None,None,None,None,None,None,None,None,None,None,None,None,None,None,None
.32,2016-01-04 09:18:51,2016-01-04 09:21:30,4.3,0,0,N,2016-12-31 00:00:00,2016-01-01 00:00:00,New York,10022,-73.965286254882813,40.771648406982422,2,1,0.5,-73.968,40.759,0.3,3.5,0,-73.963470458984375,40.768669128417969,New York,2,2,NY CITY CENTRAL PARK NY US,WBAN:94728,1,FM-15,None,None,None,None,None,None,None,None,None,None,None,None,-9999,-9999,None,None,None,-9999,-9999,None,None,None,None,None,None,None,None,None,None,None,None,None,None,None,None,None,None,None,None,None,None,None,None,-73.9669,40.7889,5,None,VRB,23,-4.7,10.00,29.89,30.04,FEW:02 43,43,3,None,0.00,None,8,-13.3,28,-2.2,30.06,39.6,2016-01-04 09:51,None,None,None,2142,1220,None,None,None,None,None,None,None,None,None,None,None,None,None,None,None,None
1.85,2016-01-04 09:18:51,2016-01-04 09:37:13,13.3,0,0,N,2022-04-16 02:00:00,2016-01-01 00:00:00,New York,None,-73.988349914550781,40.769058227539062,2,1,0.5,-73.9651814,40.7745779,0.3,12.5,0,-73.993202209472656,40.747959136962891,New York,1,2,NY CITY CENTRAL PARK NY US,WBAN:94728,1,FM-15,None,None,None,None,None,None,None,None,None,None,None,None,-9999,-9999,None,None,None,-9999,-9999,None,None,None,None,None,None,None,None,None,None,None,None,None,None,None,None,None,None,None,None,None,None,None,None,-73.9669,40.7889,5,None,VRB,23,-4.7,10.00,29.89,30.04,FEW:02 43,43,3,None,0.00,None,8,-13.3,28,-2.2,30.06,39.6,2016-01-04 09:51,None,None,None,2142,1220,None,None,None,None,None,None,None,None,None,None,None,None,None,None,None,None
.90,2016-01-04 09:18:52,2016-01-04 09:25:36,8.76,0,1.46,N,None,None,None,None,-73.989608764648437,40.748710632324219,1,1,0.5,None,None,0.3,6.5,0,-73.976844787597656,40.748569488525391,None,None,1,NY CITY CENTRAL PARK NY US,WBAN:94728,1,FM-15,None,None,None,None,None,None,None,None,None,None,None,None,-9999,-9999,None,None,None,-9999,-9999,None,None,None,None,None,None,None,None,None,None,None,None,None,None,None,None,None,None,None,None,None,None,None,None,-73.9669,40.7889,5,None,VRB,23,-4.7,10.00,29.89,30.04,FEW:02 43,43,3,None,0.00,None,8,-13.3,28,-2.2,30.06,39.6,2016-01-04 09:51,None,None,None,2142,1220,None,None,None,None,None,None,None,None,None,None,None,None,None,None,None,None
.80,2016-01-04 09:18:52,2016-01-04 09:23:13,5.8,0,0,N,None,None,None,None,-73.961441040039063,40.777828216552734,2,1,0.5,None,None,0.3,5,0,-73.972427368164062,40.781227111816406,None,None,1,NY CITY CENTRAL PARK NY US,WBAN:94728,1,FM-15,None,None,None,None,None,None,None,None,None,None,None,None,-9999,-9999,None,None,None,-9999,-9999,None,None,None,None,None,None,None,None,None,None,None,None,None,None,None,None,None,None,None,None,None,None,None,None,-73.9669,40.7889,5,None,VRB,23,-4.7,10.00,29.89,30.04,FEW:02 43,43,3,None,0.00,None,8,-13.3,28,-2.2,30.06,39.6,2016-01-04 09:51,None,None,None,2142,1220,None,None,None,None,None,None,None,None,None,None,None,None,None,None,None,None
1.50,2016-01-04 09:18:52,2016-01-04 09:30:26,11.3,0,1,N,None,2016-01-01 00:00:00,New York,10028,-73.99029541015625,40.771915435791016,1,1,0.5,-73.9634699,40.7792134,0.3,9.5,0,-73.988655090332031,40.756664276123047,New York,2,1,NY CITY CENTRAL PARK NY US,WBAN:94728,1,FM-15,None,None,None,None,None,None,None,None,None,None,None,None,-9999,-9999,None,None,None,-9999,-9999,None,None,None,None,None,None,None,None,None,None,None,None,None,None,None,None,None,None,None,None,None,None,None,None,-73.9669,40.7889,5,None,VRB,23,-4.7,10.00,29.89,30.04,FEW:02 43,43,3,None,0.00,None,8,-13.3,28,-2.2,30.06,39.6,2016-01-04 09:51,None,None,None,2142,1220,None,None,None,None,None,None,None,None,None,None,None,None,None,None,None,None
.71,2016-01-04 09:18:52,2016-01-04 09:24:07,6.3,0,0,N,None,None,None,None,-73.976966857910156,40.7646484375,2,2,0.5,None,None,0.3,5.5,0,-73.981910705566406,40.772529602050781,None,None,2,NY CITY CENTRAL PARK NY US,WBAN:94728,1,FM-15,None,None,None,None,None,None,None,None,None,None,None,None,-9999,-9999,None,None,None,-9999,-9999,None,None,None,None,None,None,None,None,None,None,None,None,None,None,None,None,None,None,None,None,None,None,None,None,-73.9669,40.7889,5,None,VRB,23,-4.7,10.00,29.89,30.04,FEW:02 43,43,3,None,0.00,None,8,-13.3,28,-2.2,30.06,39.6,2016-01-04 09:51,None,None,None,2142,1220,None,None,None,None,None,None,None,None,None,None,None,None,None,None,None,None
1.55,2016-01-04 09:18:52,2016-01-04 09:35:29,14.16,0,2.36,N,None,2016-01-01 00:00:00,New York,10019,0,0,1,1,0.5,-73.9803996,40.7656668,0.3,11,0,0,0,New York,1,2,NY CITY CENTRAL PARK NY US,WBAN:94728,1,FM-15,None,None,None,None,None,None,None,None,None,None,None,None,-9999,-9999,None,None,None,-9999,-9999,None,None,None,None,None,None,None,None,None,None,None,None,None,None,None,None,None,None,None,None,None,None,None,None,-73.9669,40.7889,5,None,VRB,23,-4.7,10.00,29.89,30.04,FEW:02 43,43,3,None,0.00,None,8,-13.3,28,-2.2,30.06,39.6,2016-01-04 09:51,None,None,None,2142,1220,None,None,None,None,None,None,None,None,None,None,None,None,None,None,None,None
1.80,2016-01-04 09:18:53,2016-01-04 09:30:08,12.1,0,1.8,N,None,None,None,None,-73.97509765625,40.78753662109375,1,1,0.5,None,None,0.3,9.5,0,-73.948677062988281,40.786361694335938,None,None,1,NY CITY CENTRAL PARK NY US,WBAN:94728,1,FM-15,None,None,None,None,None,None,None,None,None,None,None,None,-9999,-9999,None,None,None,-9999,-9999,None,None,None,None,None,None,None,None,None,None,None,None,None,None,None,None,None,None,None,None,None,None,None,None,-73.9669,40.7889,5,None,VRB,23,-4.7,10.00,29.89,30.04,FEW:02 43,43,3,None,0.00,None,8,-13.3,28,-2.2,30.06,39.6,2016-01-04 09:51,None,None,None,2142,1220,None,None,None,None,None,None,None,None,None,None,None,None,None,None,None,None
1.30,2016-01-04 09:18:53,2016-01-04 09:29:17,11.6,0,2.3,N,None,2016-01-01 12:00:00,New York,10029,-73.991340637207031,40.74981689453125,1,1,0.5,-73.9519050,40.7924950,0.3,8.5,0,-73.978652954101563,40.758892059326172,New York,0,1,NY CITY CENTRAL PARK NY US,WBAN:94728,1,FM-15,None,None,None,None,None,None,None,None,None,None,None,None,-9999,-9999,None,None,None,-9999,-9999,None,None,None,None,None,None,None,None,None,None,None,None,None,None,None,None,None,None,None,None,None,None,None,None,-73.9669,40.7889,5,None,VRB,23,-4.7,10.00,29.89,30.04,FEW:02 43,43,3,None,0.00,None,8,-13.3,28,-2.2,30.06,39.6,2016-01-04 09:51,None,None,None,2142,1220,None,None,None,None,None,None,None,None,None,None,None,None,None,None,None,None
3.80,2016-01-04 09:18:53,2016-01-04 09:39:56,20.3,0,2,N,None | 2016-07-03 00:00:00,2016-01-01 00:00:00 | 2015-10-08 00:00:00,New York | New York,10019 | 10019,-73.987060546875,40.722305297851563,1,1,0.5,-73.9803996 | -73.9844951,40.7656668 | 40.7632328,0.3,17.5,0,-73.968971252441406,40.759075164794922,New York | New York,1 | 2,1,NY CITY CENTRAL PARK NY US,WBAN:94728,1,FM-15,None,None,None,None,None,None,None,None,None,None,None,None,-9999,-9999,None,None,None,-9999,-9999,None,None,None,None,None,None,None,None,None,None,None,None,None,None,None,None,None,None,None,None,None,None,None,None,-73.9669,40.7889,5,None,VRB,23,-4.7,10.00,29.89,30.04,FEW:02 43,43,3,None,0.00,None,8,-13.3,28,-2.2,30.06,39.6,2016-01-04 09:51,None,None,None,2142,1220,None,None,None,None,None,None,None,None,None,None,None,None,None,None,None,None
.97,2016-01-04 09:18:53,2016-01-04 09:24:05,8.19,0,1.89,N,2016-12-31 00:00:00,2016-01-01 00:00:00,New York,10022,-73.994422912597656,40.756656646728516,1,2,0.5,-73.968,40.759,0.3,5.5,0,-74.005691528320313,40.750835418701172,New York,2,2,NY CITY CENTRAL PARK NY US,WBAN:94728,1,FM-15,None,None,None,None,None,None,None,None,None,None,None,None,-9999,-9999,None,None,None,-9999,-9999,None,None,None,None,None,None,None,None,None,None,None,None,None,None,None,None,None,None,None,None,None,None,None,None,-73.9669,40.7889,5,None,VRB,23,-4.7,10.00,29.89,30.04,FEW:02 43,43,3,None,0.00,None,8,-13.3,28,-2.2,30.06,39.6,2016-01-04 09:51,None,None,None,2142,1220,None,None,None,None,None,None,None,None,None,None,None,None,None,None,None,None
4.35,2016-01-04 09:18:53,2016-01-04 09:46:09,22.8,0,1,N,None,None,None,None,-73.961456298828125,40.760246276855469,1,1,0.5,None,None,0.3,21,0,-73.998786926269531,40.738151550292969,None,None,2,NY CITY CENTRAL PARK NY US,WBAN:94728,1,FM-15,None,None,None,None,None,None,None,None,None,None,None,None,-9999,-9999,None,None,None,-9999,-9999,None,None,None,None,None,None,None,None,None,None,None,None,None,None,None,None,None,None,None,None,None,None,None,None,-73.9669,40.7889,5,None,VRB,23,-4.7,10.00,29.89,30.04,FEW:02 43,43,3,None,0.00,None,8,-13.3,28,-2.2,30.06,39.6,2016-01-04 09:51,None,None,None,2142,1220,None,None,None,None,None,None,None,None,None,None,None,None,None,None,None,None
2.71,2016-01-04 09:18:53,2016-01-04 09:34:14,15.96,0,2.66,N,None,None,None,None,-73.960952758789063,40.781089782714844,1,1,0.5,None,None,0.3,12.5,0,-73.960952758789063,40.781089782714844,None,None,2,NY CITY CENTRAL PARK NY US,WBAN:94728,1,FM-15,None,None,None,None,None,None,None,None,None,None,None,None,-9999,-9999,None,None,None,-9999,-9999,None,None,None,None,None,None,None,None,None,None,None,None,None,None,None,None,None,None,None,None,None,None,None,None,-73.9669,40.7889,5,None,VRB,23,-4.7,10.00,29.89,30.04,FEW:02 43,43,3,None,0.00,None,8,-13.3,28,-2.2,30.06,39.6,2016-01-04 09:51,None,None,None,2142,1220,None,None,None,None,None,None,None,None,None,None,None,None,None,None,None,None
4.90,2016-01-04 09:18:53,2016-01-04 09:47:19,26.16,0,4.36,N,None,2016-01-01 00:00:00,New York,10028,-73.98223876953125,40.7647705078125,1,1,0.5,-73.9634699,40.7792134,0.3,21,0,-74.014122009277344,40.712669372558594,New York,2,2,NY CITY CENTRAL PARK NY US,WBAN:94728,1,FM-15,None,None,None,None,None,None,None,None,None,None,None,None,-9999,-9999,None,None,None,-9999,-9999,None,None,None,None,None,None,None,None,None,None,None,None,None,None,None,None,None,None,None,None,None,None,None,None,-73.9669,40.7889,5,None,VRB,23,-4.7,10.00,29.89,30.04,FEW:02 43,43,3,None,0.00,None,8,-13.3,28,-2.2,30.06,39.6,2016-01-04 09:51,None,None,None,2142,1220,None,None,None,None,None,None,None,None,None,None,None,None,None,None,None,None
3.23,2016-01-04 09:18:53,2016-01-04 09:49:58,17.3,0,0,N,None | None | None,2016-01-01 00:00:00 | 2016-01-01 00:00:00 | 2016-01-01 02:00:00,New York | New York | New York,None | None | 10038,-73.983383178710938,40.738998413085938,2,1,0.5,-74.0064 | -74.0064 | -74.0081571,40.7142 | 40.7142 | 40.7090990,0.3,16.5,0,-73.998420715332031,40.757671356201172,New York | New York | New York,1 | 1 | 0,2,NY CITY CENTRAL PARK NY US,WBAN:94728,1,FM-15,None,None,None,None,None,None,None,None,None,None,None,None,-9999,-9999,None,None,None,-9999,-9999,None,None,None,None,None,None,None,None,None,None,None,None,None,None,None,None,None,None,None,None,None,None,None,None,-73.9669,40.7889,5,None,VRB,23,-4.7,10.00,29.89,30.04,FEW:02 43,43,3,None,0.00,None,8,-13.3,28,-2.2,30.06,39.6,2016-01-04 09:51,None,None,None,2142,1220,None,None,None,None,None,None,None,None,None,None,None,None,None,None,None,None
1.00,2016-01-04 09:18:54,2016-01-04 09:29:45,12.05,0,2.75,N,None,None,None,None,-73.996879577636719,40.737560272216797,1,1,0.5,None,None,0.3,8.5,0,-73.982742309570313,40.736156463623047,None,None,1,NY CITY CENTRAL PARK NY US,WBAN:94728,1,FM-15,None,None,None,None,None,None,None,None,None,None,None,None,-9999,-9999,None,None,None,-9999,-9999,None,None,None,None,None,None,None,None,None,None,None,None,None,None,None,None,None,None,None,None,None,None,None,None,-73.9669,40.7889,5,None,VRB,23,-4.7,10.00,29.89,30.04,FEW:02 43,43,3,None,0.00,None,8,-13.3,28,-2.2,30.06,39.6,2016-01-04 09:51,None,None,None,2142,1220,None,None,None,None,None,None,None,None,None,None,None,None,None,None,None,None
7.80,2016-01-04 09:18:54,2016-01-04 09:41:32,32.15,0,5.35,N,None,2016-01-01 09:00:00,New York,10003,-73.981590270996094,40.73248291015625,1,1,0.5,-73.9870210,40.7308580,0.3,26,0,-73.949752807617188,40.812110900878906,New York,0,1,NY CITY CENTRAL PARK NY US,WBAN:94728,1,FM-15,None,None,None,None,None,None,None,None,None,None,None,None,-9999,-9999,None,None,None,-9999,-9999,None,None,None,None,None,None,None,None,None,None,None,None,None,None,None,None,None,None,None,None,None,None,None,None,-73.9669,40.7889,5,None,VRB,23,-4.7,10.00,29.89,30.04,FEW:02 43,43,3,None,0.00,None,8,-13.3,28,-2.2,30.06,39.6,2016-01-04 09:51,None,None,None,2142,1220,None,None,None,None,None,None,None,None,None,None,None,None,None,None,None,None
1.92,2016-01-04 09:18:54,2016-01-04 09:28:31,8.8,0,0,N,None,None,None,None,-73.978019714355469,40.763908386230469,2,1,0.5,None,None,0.3,8,0,-73.966743469238281,40.770591735839844,None,None,2,NY CITY CENTRAL PARK NY US,WBAN:94728,1,FM-15,None,None,None,None,None,None,None,None,None,None,None,None,-9999,-9999,None,None,None,-9999,-9999,None,None,None,None,None,None,None,None,None,None,None,None,None,None,None,None,None,None,None,None,None,None,None,None,-73.9669,40.7889,5,None,VRB,23,-4.7,10.00,29.89,30.04,FEW:02 43,43,3,None,0.00,None,8,-13.3,28,-2.2,30.06,39.6,2016-01-04 09:51,None,None,None,2142,1220,None,None,None,None,None,None,None,None,None,None,None,None,None,None,None,None
12.93,2016-01-04 09:18:54,2016-01-04 10:08:47,62.81,5.54,10.47,N,2022-04-16 02:00:00,2016-01-01 00:00:00,New York,None,-74.000770568847656,40.762310028076172,1,2,0.5,-73.9651814,40.7745779,0.3,46,0,-73.865028381347656,40.770580291748047,New York,1,2,NY CITY CENTRAL PARK NY US,WBAN:94728,1,FM-15,None,None,None,None,None,None,None,None,None,None,None,None,-9999,-9999,None,None,None,-9999,-9999,None,None,None,None,None,None,None,None,None,None,None,None,None,None,None,None,None,None,None,None,None,None,None,None,-73.9669,40.7889,5,None,VRB,23,-4.7,10.00,29.89,30.04,FEW:02 43,43,3,None,0.00,None,8,-13.3,28,-2.2,30.06,39.6,2016-01-04 09:51,None,None,None,2142,1220,None,None,None,None,None,None,None,None,None,None,None,None,None,None,None,None
.60,2016-01-04 09:18:55,2016-01-04 09:29:30,9.3,0,1,N,None,None,None,None,-73.996627807617188,40.715206146240234,1,1,0.5,None,None,0.3,7.5,0,-73.992767333984375,40.723545074462891,None,None,1,NY CITY CENTRAL PARK NY US,WBAN:94728,1,FM-15,None,None,None,None,None,None,None,None,None,None,None,None,-9999,-9999,None,None,None,-9999,-9999,None,None,None,None,None,None,None,None,None,None,None,None,None,None,None,None,None,None,None,None,None,None,None,None,-73.9669,40.7889,5,None,VRB,23,-4.7,10.00,29.89,30.04,FEW:02 43,43,3,None,0.00,None,8,-13.3,28,-2.2,30.06,39.6,2016-01-04 09:51,None,None,None,2142,1220,None,None,None,None,None,None,None,None,None,None,None,None,None,None,None,None
.68,2016-01-04 09:18:55,2016-01-04 09:26:00,8.16,0,1.36,N,None,None,None,None,-73.989852905273438,40.756721496582031,1,5,0.5,None,None,0.3,6,0,-73.982696533203125,40.760932922363281,None,None,2,NY CITY CENTRAL PARK NY US,WBAN:94728,1,FM-15,None,None,None,None,None,None,None,None,None,None,None,None,-9999,-9999,None,None,None,-9999,-9999,None,None,None,None,None,None,None,None,None,None,None,None,None,None,None,None,None,None,None,None,None,None,None,None,-73.9669,40.7889,5,None,VRB,23,-4.7,10.00,29.89,30.04,FEW:02 43,43,3,None,0.00,None,8,-13.3,28,-2.2,30.06,39.6,2016-01-04 09:51,None,None,None,2142,1220,None,None,None,None,None,None,None,None,None,None,None,None,None,None,None,None
1.40,2016-01-04 09:18:56,2016-01-04 09:32:38,12.35,0,2.05,N,None | 2016-07-03 00:00:00,2016-01-01 00:00:00 | 2015-10-08 00:00:00,New York | New York,10019 | 10019,-73.994964599609375,40.733192443847656,1,1,0.5,-73.9803996 | -73.9844951,40.7656668 | 40.7632328,0.3,9.5,0,-73.976837158203125,40.739227294921875,New York | New York,1 | 2,1,NY CITY CENTRAL PARK NY US,WBAN:94728,1,FM-15,None,None,None,None,None,None,None,None,None,None,None,None,-9999,-9999,None,None,None,-9999,-9999,None,None,None,None,None,None,None,None,None,None,None,None,None,None,None,None,None,None,None,None,None,None,None,None,-73.9669,40.7889,5,None,VRB,23,-4.7,10.00,29.89,30.04,FEW:02 43,43,3,None,0.00,None,8,-13.3,28,-2.2,30.06,39.6,2016-01-04 09:51,None,None,None,2142,1220,None,None,None,None,None,None,None,None,None,None,None,None,None,None,None,None
1.90,2016-01-04 09:18:56,2016-01-04 09:38:43,16.3,0,2,N,None,None,None,None,-73.989410400390625,40.772724151611328,1,2,0.5,None,None,0.3,13.5,0,-73.979766845703125,40.75457763671875,None,None,1,NY CITY CENTRAL PARK NY US,WBAN:94728,1,FM-15,None,None,None,None,None,None,None,None,None,None,None,None,-9999,-9999,None,None,None,-9999,-9999,None,None,None,None,None,None,None,None,None,None,None,None,None,None,None,None,None,None,None,None,None,None,None,None,-73.9669,40.7889,5,None,VRB,23,-4.7,10.00,29.89,30.04,FEW:02 43,43,3,None,0.00,None,8,-13.3,28,-2.2,30.06,39.6,2016-01-04 09:51,None,None,None,2142,1220,None,None,None,None,None,None,None,None,None,None,None,None,None,None,None,None
.50,2016-01-04 09:18:56,2016-01-04 09:20:37,5.16,0,0.86,N,None,None,None,None,-73.957893371582031,40.780517578125,1,1,0.5,None,None,0.3,3.5,0,-73.963485717773438,40.777301788330078,None,None,2,NY CITY CENTRAL PARK NY US,WBAN:94728,1,FM-15,None,None,None,None,None,None,None,None,None,None,None,None,-9999,-9999,None,None,None,-9999,-9999,None,None,None,None,None,None,None,None,None,None,None,None,None,None,None,None,None,None,None,None,None,None,None,None,-73.9669,40.7889,5,None,VRB,23,-4.7,10.00,29.89,30.04,FEW:02 43,43,3,None,0.00,None,8,-13.3,28,-2.2,30.06,39.6,2016-01-04 09:51,None,None,None,2142,1220,None,None,None,None,None,None,None,None,None,None,None,None,None,None,None,None
3.87,2016-01-04 09:18:56,2016-01-04 09:41:07,18.3,0,0,N,2022-04-16 02:00:00 | None,2016-01-01 00:00:00 | 2016-01-01 00:00:00,New York | New York,None | 10028,-73.990531921386719,40.756221771240234,2,1,0.5,-73.9651814 | -73.9634699,40.7745779 | 40.7792134,0.3,17.5,0,-74.01129150390625,40.715240478515625,New York | New York,1 | 2,2,NY CITY CENTRAL PARK NY US,WBAN:94728,1,FM-15,None,None,None,None,None,None,None,None,None,None,None,None,-9999,-9999,None,None,None,-9999,-9999,None,None,None,None,None,None,None,None,None,None,None,None,None,None,None,None,None,None,None,None,None,None,None,None,-73.9669,40.7889,5,None,VRB,23,-4.7,10.00,29.89,30.04,FEW:02 43,43,3,None,0.00,None,8,-13.3,28,-2.2,30.06,39.6,2016-01-04 09:51,None,None,None,2142,1220,None,None,None,None,None,None,None,None,None,None,None,None,None,None,None,None
1.00,2016-01-04 09:18:56,2016-01-04 09:27:11,7.3,0,0,N,None | None | None,2016-01-01 00:00:00 | 2016-01-01 00:00:00 | 2016-01-01 02:00:00,New York | New York | New York,None | None | 10038,-74.004753112792969,40.717178344726562,2,1,0.5,-74.0064 | -74.0064 | -74.0081571,40.7142 | 40.7142 | 40.7090990,0.3,6.5,0,-74.007072448730469,40.729351043701172,New York | New York | New York,1 | 1 | 0,2,NY CITY CENTRAL PARK NY US,WBAN:94728,1,FM-15,None,None,None,None,None,None,None,None,None,None,None,None,-9999,-9999,None,None,None,-9999,-9999,None,None,None,None,None,None,None,None,None,None,None,None,None,None,None,None,None,None,None,None,None,None,None,None,-73.9669,40.7889,5,None,VRB,23,-4.7,10.00,29.89,30.04,FEW:02 43,43,3,None,0.00,None,8,-13.3,28,-2.2,30.06,39.6,2016-01-04 09:51,None,None,None,2142,1220,None,None,None,None,None,None,None,None,None,None,None,None,None,None,None,None
.90,2016-01-04 09:18:57,2016-01-04 09:29:23,8.8,0,0,N,None,None,None,None,-73.965232849121094,40.775123596191406,2,1,0.5,None,None,0.3,8,0,-73.966201782226563,40.765018463134766,None,None,1,NY CITY CENTRAL PARK NY US,WBAN:94728,1,FM-15,None,None,None,None,None,None,None,None,None,None,None,None,-9999,-9999,None,None,None,-9999,-9999,None,None,None,None,None,None,None,None,None,None,None,None,None,None,None,None,None,None,None,None,None,None,None,None,-73.9669,40.7889,5,None,VRB,23,-4.7,10.00,29.89,30.04,FEW:02 43,43,3,None,0.00,None,8,-13.3,28,-2.2,30.06,39.6,2016-01-04 09:51,None,None,None,2142,1220,None,None,None,None,None,None,None,None,None,None,None,None,None,None,None,None
1.10,2016-01-04 09:18:57,2016-01-04 09:23:46,8.5,0,1.7,N,2016-12-31 00:00:00,2016-01-01 00:00:00,New York,10022,-73.978240966796875,40.773113250732422,1,1,0.5,-73.968,40.759,0.3,6,0,-73.971488952636719,40.786403656005859,New York,2,1,NY CITY CENTRAL PARK NY US,WBAN:94728,1,FM-15,None,None,None,None,None,None,None,None,None,None,None,None,-9999,-9999,None,None,None,-9999,-9999,None,None,None,None,None,None,None,None,None,None,None,None,None,None,None,None,None,None,None,None,None,None,None,None,-73.9669,40.7889,5,None,VRB,23,-4.7,10.00,29.89,30.04,FEW:02 43,43,3,None,0.00,None,8,-13.3,28,-2.2,30.06,39.6,2016-01-04 09:51,None,None,None,2142,1220,None,None,None,None,None,None,None,None,None,None,None,None,None,None,None,None
1.10,2016-01-04 09:18:57,2016-01-04 09:31:48,12.85,0,2.55,N,None,None,None,None,-73.961441040039063,40.759956359863281,1,1,0.5,None,None,0.3,9.5,0,-73.971435546875,40.751991271972656,None,None,1,NY CITY CENTRAL PARK NY US,WBAN:94728,1,FM-15,None,None,None,None,None,None,None,None,None,None,None,None,-9999,-9999,None,None,None,-9999,-9999,None,None,None,None,None,None,None,None,None,None,None,None,None,None,None,None,None,None,None,None,None,None,None,None,-73.9669,40.7889,5,None,VRB,23,-4.7,10.00,29.89,30.04,FEW:02 43,43,3,None,0.00,None,8,-13.3,28,-2.2,30.06,39.6,2016-01-04 09:51,None,None,None,2142,1220,None,None,None,None,None,None,None,None,None,None,None,None,None,None,None,None
1.20,2016-01-04 09:18:57,2016-01-04 09:30:24,9.8,0,0,N,None,None,None,None,-73.982315063476563,40.747539520263672,2,1,0.5,None,None,0.3,9,0,-73.979393005371094,40.761451721191406,None,None,1,NY CITY CENTRAL PARK NY US,WBAN:94728,1,FM-15,None,None,None,None,None,None,None,None,None,None,None,None,-9999,-9999,None,None,None,-9999,-9999,None,None,None,None,None,None,None,None,None,None,None,None,None,None,None,None,None,None,None,None,None,None,None,None,-73.9669,40.7889,5,None,VRB,23,-4.7,10.00,29.89,30.04,FEW:02 43,43,3,None,0.00,None,8,-13.3,28,-2.2,30.06,39.6,2016-01-04 09:51,None,None,None,2142,1220,None,None,None,None,None,None,None,None,None,None,None,None,None,None,None,None
1.52,2016-01-04 09:18:57,2016-01-04 09:32:22,10.8,0,0,N,None | 2016-07-03 00:00:00,2016-01-01 00:00:00 | 2015-10-08 00:00:00,New York | New York,10019 | 10019,-73.960563659667969,40.766029357910156,2,1,0.5,-73.9803996 | -73.9844951,40.7656668 | 40.7632328,0.3,10,0,-73.974372863769531,40.746711730957031,New York | New York,1 | 2,2,NY CITY CENTRAL PARK NY US,WBAN:94728,1,FM-15,None,None,None,None,None,None,None,None,None,None,None,None,-9999,-9999,None,None,None,-9999,-9999,None,None,None,None,None,None,None,None,None,None,None,None,None,None,None,None,None,None,None,None,None,None,None,None,-73.9669,40.7889,5,None,VRB,23,-4.7,10.00,29.89,30.04,FEW:02 43,43,3,None,0.00,None,8,-13.3,28,-2.2,30.06,39.6,2016-01-04 09:51,None,None,None,2142,1220,None,None,None,None,None,None,None,None,None,None,None,None,None,None,None,None
1.33,2016-01-04 09:18:57,2016-01-04 09:24:45,7.3,0,0,N,None,None,None,None,-73.990127563476563,40.719329833984375,2,1,0.5,None,None,0.3,6.5,0,-73.980987548828125,40.733951568603516,None,None,2,NY CITY CENTRAL PARK NY US,WBAN:94728,1,FM-15,None,None,None,None,None,None,None,None,None,None,None,None,-9999,-9999,None,None,None,-9999,-9999,None,None,None,None,None,None,None,None,None,None,None,None,None,None,None,None,None,None,None,None,None,None,None,None,-73.9669,40.7889,5,None,VRB,23,-4.7,10.00,29.89,30.04,FEW:02 43,43,3,None,0.00,None,8,-13.3,28,-2.2,30.06,39.6,2016-01-04 09:51,None,None,None,2142,1220,None,None,None,None,None,None,None,None,None,None,None,None,None,None,None,None
2.80,2016-01-04 09:18:57,2016-01-04 09:41:34,19.56,0,3.26,N,None,2016-01-01 09:00:00,New York,10003,-73.970626831054687,40.788330078125,1,6,0.5,-73.9870210,40.7308580,0.3,15.5,0,-73.977447509765625,40.756729125976563,New York,0,2,NY CITY CENTRAL PARK NY US,WBAN:94728,1,FM-15,None,None,None,None,None,None,None,None,None,None,None,None,-9999,-9999,None,None,None,-9999,-9999,None,None,None,None,None,None,None,None,None,None,None,None,None,None,None,None,None,None,None,None,None,None,None,None,-73.9669,40.7889,5,None,VRB,23,-4.7,10.00,29.89,30.04,FEW:02 43,43,3,None,0.00,None,8,-13.3,28,-2.2,30.06,39.6,2016-01-04 09:51,None,None,None,2142,1220,None,None,None,None,None,None,None,None,None,None,None,None,None,None,None,None
1.46,2016-01-04 09:18:57,2016-01-04 09:36:37,13.8,0,1,N,None,None,None,None,-73.975837707519531,40.740680694580078,1,1,0.5,None,None,0.3,12,0,-73.969192504882813,40.7576904296875,None,None,2,NY CITY CENTRAL PARK NY US,WBAN:94728,1,FM-15,None,None,None,None,None,None,None,None,None,None,None,None,-9999,-9999,None,None,None,-9999,-9999,None,None,None,None,None,None,None,None,None,None,None,None,None,None,None,None,None,None,None,None,None,None,None,None,-73.9669,40.7889,5,None,VRB,23,-4.7,10.00,29.89,30.04,FEW:02 43,43,3,None,0.00,None,8,-13.3,28,-2.2,30.06,39.6,2016-01-04 09:51,None,None,None,2142,1220,None,None,None,None,None,None,None,None,None,None,None,None,None,None,None,None
.70,2016-01-04 09:18:58,2016-01-04 09:30:45,11.15,0,1.85,N,2016-12-31 00:00:00,2016-01-01 00:00:00,New York,10022,-73.975028991699219,40.741847991943359,1,1,0.5,-73.968,40.759,0.3,8.5,0,-73.973541259765625,40.750091552734375,New York,2,1,NY CITY CENTRAL PARK NY US,WBAN:94728,1,FM-15,None,None,None,None,None,None,None,None,None,None,None,None,-9999,-9999,None,None,None,-9999,-9999,None,None,None,None,None,None,None,None,None,None,None,None,None,None,None,None,None,None,None,None,None,None,None,None,-73.9669,40.7889,5,None,VRB,23,-4.7,10.00,29.89,30.04,FEW:02 43,43,3,None,0.00,None,8,-13.3,28,-2.2,30.06,39.6,2016-01-04 09:51,None,None,None,2142,1220,None,None,None,None,None,None,None,None,None,None,None,None,None,None,None,None
2.00,2016-01-04 09:18:58,2016-01-04 09:37:22,16.56,0,2.76,N,None,None,None,None,-73.990875244140625,40.734626770019531,1,1,0.5,None,None,0.3,13,0,-74.011634826660156,40.714996337890625,None,None,2,NY CITY CENTRAL PARK NY US,WBAN:94728,1,FM-15,None,None,None,None,None,None,None,None,None,None,None,None,-9999,-9999,None,None,None,-9999,-9999,None,None,None,None,None,None,None,None,None,None,None,None,None,None,None,None,None,None,None,None,None,None,None,None,-73.9669,40.7889,5,None,VRB,23,-4.7,10.00,29.89,30.04,FEW:02 43,43,3,None,0.00,None,8,-13.3,28,-2.2,30.06,39.6,2016-01-04 09:51,None,None,None,2142,1220,None,None,None,None,None,None,None,None,None,None,None,None,None,None,None,None
.89,2016-01-04 09:18:58,2016-01-04 09:32:53,13.39,0,3.09,N,None | None | None,2016-01-01 00:00:00 | 2016-01-01 00:00:00 | 2016-01-01 02:00:00,New York | New York | New York,None | None | 10038,-73.98388671875,40.744289398193359,1,1,0.5,-74.0064 | -74.0064 | -74.0081571,40.7142 | 40.7142 | 40.7090990,0.3,9.5,0,-73.986618041992188,40.753139495849609,New York | New York | New York,1 | 1 | 0,2,NY CITY CENTRAL PARK NY US,WBAN:94728,1,FM-15,None,None,None,None,None,None,None,None,None,None,None,None,-9999,-9999,None,None,None,-9999,-9999,None,None,None,None,None,None,None,None,None,None,None,None,None,None,None,None,None,None,None,None,None,None,None,None,-73.9669,40.7889,5,None,VRB,23,-4.7,10.00,29.89,30.04,FEW:02 43,43,3,None,0.00,None,8,-13.3,28,-2.2,30.06,39.6,2016-01-04 09:51,None,None,None,2142,1220,None,None,None,None,None,None,None,None,None,None,None,None,None,None,None,None
2.75,2016-01-04 09:18:59,2016-01-04 09:45:19,21.36,0,3.56,N,None,None,None,None,-73.980430603027344,40.782371520996094,1,1,0.5,None,None,0.3,17,0,-73.978141784667969,40.753768920898438,None,None,2,NY CITY CENTRAL PARK NY US,WBAN:94728,1,FM-15,None,None,None,None,None,None,None,None,None,None,None,None,-9999,-9999,None,None,None,-9999,-9999,None,None,None,None,None,None,None,None,None,None,None,None,None,None,None,None,None,None,None,None,None,None,None,None,-73.9669,40.7889,5,None,VRB,23,-4.7,10.00,29.89,30.04,FEW:02 43,43,3,None,0.00,None,8,-13.3,28,-2.2,30.06,39.6,2016-01-04 09:51,None,None,None,2142,1220,None,None,None,None,None,None,None,None,None,None,None,None,None,None,None,None
.45,2016-01-04 09:18:59,2016-01-04 09:29:55,10.56,0,1.76,N,None,None,None,None,-73.965766906738281,40.754417419433594,1,1,0.5,None,None,0.3,8,0,-73.968009948730469,40.758823394775391,None,None,2,NY CITY CENTRAL PARK NY US,WBAN:94728,1,FM-15,None,None,None,None,None,None,None,None,None,None,None,None,-9999,-9999,None,None,None,-9999,-9999,None,None,None,None,None,None,None,None,None,None,None,None,None,None,None,None,None,None,None,None,None,None,None,None,-73.9669,40.7889,5,None,VRB,23,-4.7,10.00,29.89,30.04,FEW:02 43,43,3,None,0.00,None,8,-13.3,28,-2.2,30.06,39.6,2016-01-04 09:51,None,None,None,2142,1220,None,None,None,None,None,None,None,None,None,None,None,None,None,None,None,None
1.10,2016-01-04 09:19:00,2016-01-04 09:27:37,9.35,0,1.55,N,2016-12-31 00:00:00,2016-01-01 00:00:00,New York,10022,-73.95697021484375,40.770603179931641,1,1,0.5,-73.968,40.759,0.3,7,0,-73.969940185546875,40.76275634765625,New York,2,1,NY CITY CENTRAL PARK NY US,WBAN:94728,1,FM-15,None,None,None,None,None,None,None,None,None,None,None,None,-9999,-9999,None,None,None,-9999,-9999,None,None,None,None,None,None,None,None,None,None,None,None,None,None,None,None,None,None,None,None,None,None,None,None,-73.9669,40.7889,5,None,VRB,23,-4.7,10.00,29.89,30.04,FEW:02 43,43,3,None,0.00,None,8,-13.3,28,-2.2,30.06,39.6,2016-01-04 09:51,None,None,None,2142,1220,None,None,None,None,None,None,None,None,None,None,None,None,None,None,None,None
2.10,2016-01-04 09:19:00,2016-01-04 09:40:12,17.75,0,2.95,N,2016-12-31 00:00:00,2016-01-01 00:00:00,New York,10022,-73.95928955078125,40.769149780273437,1,1,0.5,-73.968,40.759,0.3,14,0,-73.979408264160156,40.745418548583984,New York,2,1,NY CITY CENTRAL PARK NY US,WBAN:94728,1,FM-15,None,None,None,None,None,None,None,None,None,None,None,None,-9999,-9999,None,None,None,-9999,-9999,None,None,None,None,None,None,None,None,None,None,None,None,None,None,None,None,None,None,None,None,None,None,None,None,-73.9669,40.7889,5,None,VRB,23,-4.7,10.00,29.89,30.04,FEW:02 43,43,3,None,0.00,None,8,-13.3,28,-2.2,30.06,39.6,2016-01-04 09:51,None,None,None,2142,1220,None,None,None,None,None,None,None,None,None,None,None,None,None,None,None,None
4.95,2016-01-04 09:19:00,2016-01-04 09:51:54,24.8,0,0,N,None,None,None,None,-73.945724487304687,40.781906127929688,2,6,0.5,None,None,0.3,24,0,-73.990325927734375,40.740230560302734,None,None,2,NY CITY CENTRAL PARK NY US,WBAN:94728,1,FM-15,None,None,None,None,None,None,None,None,None,None,None,None,-9999,-9999,None,None,None,-9999,-9999,None,None,None,None,None,None,None,None,None,None,None,None,None,None,None,None,None,None,None,None,None,None,None,None,-73.9669,40.7889,5,None,VRB,23,-4.7,10.00,29.89,30.04,FEW:02 43,43,3,None,0.00,None,8,-13.3,28,-2.2,30.06,39.6,2016-01-04 09:51,None,None,None,2142,1220,None,None,None,None,None,None,None,None,None,None,None,None,None,None,None,None
.37,2016-01-04 09:19:00,2016-01-04 09:22:59,5.8,0,0.5,N,None,None,None,None,-73.999443054199219,40.733737945556641,1,1,0.5,None,None,0.3,4.5,0,-73.998329162597656,40.738037109375,None,None,2,NY CITY CENTRAL PARK NY US,WBAN:94728,1,FM-15,None,None,None,None,None,None,None,None,None,None,None,None,-9999,-9999,None,None,None,-9999,-9999,None,None,None,None,None,None,None,None,None,None,None,None,None,None,None,None,None,None,None,None,None,None,None,None,-73.9669,40.7889,5,None,VRB,23,-4.7,10.00,29.89,30.04,FEW:02 43,43,3,None,0.00,None,8,-13.3,28,-2.2,30.06,39.6,2016-01-04 09:51,None,None,None,2142,1220,None,None,None,None,None,None,None,None,None,None,None,None,None,None,None,None
.51,2016-01-04 09:19:00,2016-01-04 09:25:17,7.56,0,1.26,N,None,None,None,None,-73.985221862792969,40.731868743896484,1,1,0.5,None,None,0.3,5.5,0,-73.993659973144531,40.735126495361328,None,None,2,NY CITY CENTRAL PARK NY US,WBAN:94728,1,FM-15,None,None,None,None,None,None,None,None,None,None,None,None,-9999,-9999,None,None,None,-9999,-9999,None,None,None,None,None,None,None,None,None,None,None,None,None,None,None,None,None,None,None,None,None,None,None,None,-73.9669,40.7889,5,None,VRB,23,-4.7,10.00,29.89,30.04,FEW:02 43,43,3,None,0.00,None,8,-13.3,28,-2.2,30.06,39.6,2016-01-04 09:51,None,None,None,2142,1220,None,None,None,None,None,None,None,None,None,None,None,None,None,None,None,None
.50,2016-01-04 09:19:01,2016-01-04 09:20:41,5.15,0,0.85,N,None,2016-01-01 09:00:00,New York,10003,-73.978431701660156,40.772628784179688,1,1,0.5,-73.9870210,40.7308580,0.3,3.5,0,-73.97406005859375,40.778583526611328,New York,0,1,NY CITY CENTRAL PARK NY US,WBAN:94728,1,FM-15,None,None,None,None,None,None,None,None,None,None,None,None,-9999,-9999,None,None,None,-9999,-9999,None,None,None,None,None,None,None,None,None,None,None,None,None,None,None,None,None,None,None,None,None,None,None,None,-73.9669,40.7889,5,None,VRB,23,-4.7,10.00,29.89,30.04,FEW:02 43,43,3,None,0.00,None,8,-13.3,28,-2.2,30.06,39.6,2016-01-04 09:51,None,None,None,2142,1220,None,None,None,None,None,None,None,None,None,None,None,None,None,None,None,None
2.40,2016-01-04 09:19:01,2016-01-04 09:39:47,16.8,0,2,N,None,None,None,None,-73.950027465820312,40.784507751464844,1,1,0.5,None,None,0.3,14,0,-73.973381042480469,40.757556915283203,None,None,1,NY CITY CENTRAL PARK NY US,WBAN:94728,1,FM-15,None,None,None,None,None,None,None,None,None,None,None,None,-9999,-9999,None,None,None,-9999,-9999,None,None,None,None,None,None,None,None,None,None,None,None,None,None,None,None,None,None,None,None,None,None,None,None,-73.9669,40.7889,5,None,VRB,23,-4.7,10.00,29.89,30.04,FEW:02 43,43,3,None,0.00,None,8,-13.3,28,-2.2,30.06,39.6,2016-01-04 09:51,None,None,None,2142,1220,None,None,None,None,None,None,None,None,None,None,None,None,None,None,None,None
1.90,2016-01-04 09:19:01,2016-01-04 09:30:51,11.3,0,1,N,2016-12-31 00:00:00,2016-01-01 00:00:00,New York,10022,-73.981460571289063,40.764274597167969,1,1,0.5,-73.968,40.759,0.3,9.5,0,-73.980842590332031,40.745086669921875,New York,2,1,NY CITY CENTRAL PARK NY US,WBAN:94728,1,FM-15,None,None,None,None,None,None,None,None,None,None,None,None,-9999,-9999,None,None,None,-9999,-9999,None,None,None,None,None,None,None,None,None,None,None,None,None,None,None,None,None,None,None,None,None,None,None,None,-73.9669,40.7889,5,None,VRB,23,-4.7,10.00,29.89,30.04,FEW:02 43,43,3,None,0.00,None,8,-13.3,28,-2.2,30.06,39.6,2016-01-04 09:51,None,None,None,2142,1220,None,None,None,None,None,None,None,None,None,None,None,None,None,None,None,None
1.30,2016-01-04 09:19:01,2016-01-04 09:30:59,9.8,0,0,N,None,None,None,None,-73.986137390136719,40.762142181396484,2,2,0.5,None,None,0.3,9,0,-73.974143981933594,40.750617980957031,None,None,1,NY CITY CENTRAL PARK NY US,WBAN:94728,1,FM-15,None,None,None,None,None,None,None,None,None,None,None,None,-9999,-9999,None,None,None,-9999,-9999,None,None,None,None,None,None,None,None,None,None,None,None,None,None,None,None,None,None,None,None,None,None,None,None,-73.9669,40.7889,5,None,VRB,23,-4.7,10.00,29.89,30.04,FEW:02 43,43,3,None,0.00,None,8,-13.3,28,-2.2,30.06,39.6,2016-01-04 09:51,None,None,None,2142,1220,None,None,None,None,None,None,None,None,None,None,None,None,None,None,None,None
1.83,2016-01-04 09:19:01,2016-01-04 09:31:34,11.3,0,1,N,None,None,None,None,-73.981002807617187,40.76007080078125,1,5,0.5,None,None,0.3,9.5,0,-73.991912841796875,40.737918853759766,None,None,2,NY CITY CENTRAL PARK NY US,WBAN:94728,1,FM-15,None,None,None,None,None,None,None,None,None,None,None,None,-9999,-9999,None,None,None,-9999,-9999,None,None,None,None,None,None,None,None,None,None,None,None,None,None,None,None,None,None,None,None,None,None,None,None,-73.9669,40.7889,5,None,VRB,23,-4.7,10.00,29.89,30.04,FEW:02 43,43,3,None,0.00,None,8,-13.3,28,-2.2,30.06,39.6,2016-01-04 09:51,None,None,None,2142,1220,None,None,None,None,None,None,None,None,None,None,None,None,None,None,None,None
.50,2016-01-04 09:19:02,2016-01-04 09:22:07,5.75,0,0.95,N,None,None,None,None,-74.016403198242187,40.714752197265625,1,1,0.5,None,None,0.3,4,0,-74.00958251953125,40.718776702880859,None,None,1,NY CITY CENTRAL PARK NY US,WBAN:94728,1,FM-15,None,None,None,None,None,None,None,None,None,None,None,None,-9999,-9999,None,None,None,-9999,-9999,None,None,None,None,None,None,None,None,None,None,None,None,None,None,None,None,None,None,None,None,None,None,None,None,-73.9669,40.7889,5,None,VRB,23,-4.7,10.00,29.89,30.04,FEW:02 43,43,3,None,0.00,None,8,-13.3,28,-2.2,30.06,39.6,2016-01-04 09:51,None,None,None,2142,1220,None,None,None,None,None,None,None,None,None,None,None,None,None,None,None,None
2.30,2016-01-04 09:19:02,2016-01-04 09:47:13,22.85,0,4.55,N,None | None | None,2016-01-01 00:00:00 | 2016-01-01 00:00:00 | 2016-01-01 20:00:00,New York | New York | New York,None | None | 10013,-73.963623046875,40.758693695068359,1,1,0.5,-74.0064 | -74.0064 | -74.0050159,40.7142 | 40.7142 | 40.7208412,0.3,17.5,0,-73.991561889648438,40.749916076660156,New York | New York | New York,1 | 1 | 0,1,NY CITY CENTRAL PARK NY US,WBAN:94728,1,FM-15,None,None,None,None,None,None,None,None,None,None,None,None,-9999,-9999,None,None,None,-9999,-9999,None,None,None,None,None,None,None,None,None,None,None,None,None,None,None,None,None,None,None,None,None,None,None,None,-73.9669,40.7889,5,None,VRB,23,-4.7,10.00,29.89,30.04,FEW:02 43,43,3,None,0.00,None,8,-13.3,28,-2.2,30.06,39.6,2016-01-04 09:51,None,None,None,2142,1220,None,None,None,None,None,None,None,None,None,None,None,None,None,None,None,None
1.70,2016-01-04 09:19:02,2016-01-04 09:32:20,10.8,0,0,N,None,None,None,None,-73.975265502929688,40.751056671142578,2,1,0.5,None,None,0.3,10,0,-73.955780029296875,40.765964508056641,None,None,1,NY CITY CENTRAL PARK NY US,WBAN:94728,1,FM-15,None,None,None,None,None,None,None,None,None,None,None,None,-9999,-9999,None,None,None,-9999,-9999,None,None,None,None,None,None,None,None,None,None,None,None,None,None,None,None,None,None,None,None,None,None,None,None,-73.9669,40.7889,5,None,VRB,23,-4.7,10.00,29.89,30.04,FEW:02 43,43,3,None,0.00,None,8,-13.3,28,-2.2,30.06,39.6,2016-01-04 09:51,None,None,None,2142,1220,None,None,None,None,None,None,None,None,None,None,None,None,None,None,None,None
8.60,2016-01-04 09:19:02,2016-01-04 09:50:34,44.2,5.54,7.36,N,None,None,None,None,-73.870933532714844,40.773757934570313,1,1,0.5,None,None,0.3,30.5,0,-73.982757568359375,40.742805480957031,None,None,1,NY CITY CENTRAL PARK NY US,WBAN:94728,1,FM-15,None,None,None,None,None,None,None,None,None,None,None,None,-9999,-9999,None,None,None,-9999,-9999,None,None,None,None,None,None,None,None,None,None,None,None,None,None,None,None,None,None,None,None,None,None,None,None,-73.9669,40.7889,5,None,VRB,23,-4.7,10.00,29.89,30.04,FEW:02 43,43,3,None,0.00,None,8,-13.3,28,-2.2,30.06,39.6,2016-01-04 09:51,None,None,None,2142,1220,None,None,None,None,None,None,None,None,None,None,None,None,None,None,None,None
.72,2016-01-04 09:19:02,2016-01-04 09:22:25,5.3,0,0,N,None,None,None,None,-73.96221923828125,40.767578125,2,2,0.5,None,None,0.3,4.5,0,-73.955558776855469,40.776950836181641,None,None,2,NY CITY CENTRAL PARK NY US,WBAN:94728,1,FM-15,None,None,None,None,None,None,None,None,None,None,None,None,-9999,-9999,None,None,None,-9999,-9999,None,None,None,None,None,None,None,None,None,None,None,None,None,None,None,None,None,None,None,None,None,None,None,None,-73.9669,40.7889,5,None,VRB,23,-4.7,10.00,29.89,30.04,FEW:02 43,43,3,None,0.00,None,8,-13.3,28,-2.2,30.06,39.6,2016-01-04 09:51,None,None,None,2142,1220,None,None,None,None,None,None,None,None,None,None,None,None,None,None,None,None
.86,2016-01-04 09:19:02,2016-01-04 09:26:00,6.8,0,0,N,None,2016-01-01 00:00:00,New York,10028,-73.972389221191406,40.756881713867188,2,1,0.5,-73.9634699,40.7792134,0.3,6,0,-73.983619689941406,40.762191772460937,New York,2,2,NY CITY CENTRAL PARK NY US,WBAN:94728,1,FM-15,None,None,None,None,None,None,None,None,None,None,None,None,-9999,-9999,None,None,None,-9999,-9999,None,None,None,None,None,None,None,None,None,None,None,None,None,None,None,None,None,None,None,None,None,None,None,None,-73.9669,40.7889,5,None,VRB,23,-4.7,10.00,29.89,30.04,FEW:02 43,43,3,None,0.00,None,8,-13.3,28,-2.2,30.06,39.6,2016-01-04 09:51,None,None,None,2142,1220,None,None,None,None,None,None,None,None,None,None,None,None,None,None,None,None
.00,2016-01-04 09:19:02,2016-01-04 09:19:06,65.8,0,0,N,None | 2016-07-03 00:00:00,2016-01-01 00:00:00 | 2015-10-08 00:00:00,New York | New York,10019 | 10019,-74.005180358886719,40.706001281738281,2,1,0.5,-73.9803996 | -73.9844951,40.7656668 | 40.7632328,0.3,65,0,-74.005180358886719,40.705986022949219,New York | New York,1 | 2,2,NY CITY CENTRAL PARK NY US,WBAN:94728,5,FM-15,None,None,None,None,None,None,None,None,None,None,None,None,-9999,-9999,None,None,None,-9999,-9999,None,None,None,None,None,None,None,None,None,None,None,None,None,None,None,None,None,None,None,None,None,None,None,None,-73.9669,40.7889,5,None,VRB,23,-4.7,10.00,29.89,30.04,FEW:02 43,43,3,None,0.00,None,8,-13.3,28,-2.2,30.06,39.6,2016-01-04 09:51,None,None,None,2142,1220,None,None,None,None,None,None,None,None,None,None,None,None,None,None,None,None
1.72,2016-01-04 09:19:02,2016-01-04 09:36:21,15.36,0,2.56,N,None,2016-01-01 02:00:00,New York,10038,-73.945953369140625,40.775455474853516,1,6,0.5,-74.0081571,40.7090990,0.3,12,0,-73.966453552246094,40.764575958251953,New York,0,2,NY CITY CENTRAL PARK NY US,WBAN:94728,1,FM-15,None,None,None,None,None,None,None,None,None,None,None,None,-9999,-9999,None,None,None,-9999,-9999,None,None,None,None,None,None,None,None,None,None,None,None,None,None,None,None,None,None,None,None,None,None,None,None,-73.9669,40.7889,5,None,VRB,23,-4.7,10.00,29.89,30.04,FEW:02 43,43,3,None,0.00,None,8,-13.3,28,-2.2,30.06,39.6,2016-01-04 09:51,None,None,None,2142,1220,None,None,None,None,None,None,None,None,None,None,None,None,None,None,None,None
2.53,2016-01-04 09:19:02,2016-01-04 09:39:03,14.8,0,0,N,2016-12-31 00:00:00,2016-01-01 00:00:00,New York,10022,-73.99066162109375,40.756080627441406,2,2,0.5,-73.968,40.759,0.3,14,0,-73.958396911621094,40.764652252197266,New York,2,2,NY CITY CENTRAL PARK NY US,WBAN:94728,1,FM-15,None,None,None,None,None,None,None,None,None,None,None,None,-9999,-9999,None,None,None,-9999,-9999,None,None,None,None,None,None,None,None,None,None,None,None,None,None,None,None,None,None,None,None,None,None,None,None,-73.9669,40.7889,5,None,VRB,23,-4.7,10.00,29.89,30.04,FEW:02 43,43,3,None,0.00,None,8,-13.3,28,-2.2,30.06,39.6,2016-01-04 09:51,None,None,None,2142,1220,None,None,None,None,None,None,None,None,None,None,None,None,None,None,None,None
.54,2016-01-04 09:19:02,2016-01-04 09:23:48,6.96,0,1.16,N,None,None,None,None,-73.96630859375,40.765422821044922,1,1,0.5,None,None,0.3,5,0,-73.970390319824219,40.758312225341797,None,None,2,NY CITY CENTRAL PARK NY US,WBAN:94728,1,FM-15,None,None,None,None,None,None,None,None,None,None,None,None,-9999,-9999,None,None,None,-9999,-9999,None,None,None,None,None,None,None,None,None,None,None,None,None,None,None,None,None,None,None,None,None,None,None,None,-73.9669,40.7889,5,None,VRB,23,-4.7,10.00,29.89,30.04,FEW:02 43,43,3,None,0.00,None,8,-13.3,28,-2.2,30.06,39.6,2016-01-04 09:51,None,None,None,2142,1220,None,None,None,None,None,None,None,None,None,None,None,None,None,None,None,None
2.08,2016-01-04 09:19:02,2016-01-04 09:38:55,17.16,0,2.86,N,2016-12-31 00:00:00,2016-01-01 00:00:00,New York,10022,-73.953681945800781,40.766696929931641,1,1,0.5,-73.968,40.759,0.3,13.5,0,-73.981796264648437,40.763141632080078,New York,2,2,NY CITY CENTRAL PARK NY US,WBAN:94728,1,FM-15,None,None,None,None,None,None,None,None,None,None,None,None,-9999,-9999,None,None,None,-9999,-9999,None,None,None,None,None,None,None,None,None,None,None,None,None,None,None,None,None,None,None,None,None,None,None,None,-73.9669,40.7889,5,None,VRB,23,-4.7,10.00,29.89,30.04,FEW:02 43,43,3,None,0.00,None,8,-13.3,28,-2.2,30.06,39.6,2016-01-04 09:51,None,None,None,2142,1220,None,None,None,None,None,None,None,None,None,None,None,None,None,None,None,None
.82,2016-01-04 09:19:02,2016-01-04 09:26:20,7.3,0,0,N,None | 2016-07-03 00:00:00,2016-01-01 00:00:00 | 2015-10-08 00:00:00,New York | New York,10019 | 10019,-73.979034423828125,40.750995635986328,2,1,0.5,-73.9803996 | -73.9844951,40.7656668 | 40.7632328,0.3,6.5,0,-73.985771179199219,40.740734100341797,New York | New York,1 | 2,2,NY CITY CENTRAL PARK NY US,WBAN:94728,1,FM-15,None,None,None,None,None,None,None,None,None,None,None,None,-9999,-9999,None,None,None,-9999,-9999,None,None,None,None,None,None,None,None,None,None,None,None,None,None,None,None,None,None,None,None,None,None,None,None,-73.9669,40.7889,5,None,VRB,23,-4.7,10.00,29.89,30.04,FEW:02 43,43,3,None,0.00,None,8,-13.3,28,-2.2,30.06,39.6,2016-01-04 09:51,None,None,None,2142,1220,None,None,None,None,None,None,None,None,None,None,None,None,None,None,None,None
2.17,2016-01-04 09:19:02,2016-01-04 09:37:52,14.3,0,0,N,None,None,None,None,-73.9703369140625,40.783821105957031,2,1,0.5,None,None,0.3,13.5,0,-73.975364685058594,40.761039733886719,None,None,2,NY CITY CENTRAL PARK NY US,WBAN:94728,1,FM-15,None,None,None,None,None,None,None,None,None,None,None,None,-9999,-9999,None,None,None,-9999,-9999,None,None,None,None,None,None,None,None,None,None,None,None,None,None,None,None,None,None,None,None,None,None,None,None,-73.9669,40.7889,5,None,VRB,23,-4.7,10.00,29.89,30.04,FEW:02 43,43,3,None,0.00,None,8,-13.3,28,-2.2,30.06,39.6,2016-01-04 09:51,None,None,None,2142,1220,None,None,None,None,None,None,None,None,None,None,None,None,None,None,None,None
.70,2016-01-04 09:19:03,2016-01-04 09:22:20,5.3,0,0,N,None | 2016-12-31 00:00:00,2016-01-01 00:00:00 | 2016-01-01 00:00:00,New York | New York,10019 | 10022,-74.008804321289063,40.719463348388672,2,1,0.5,-73.9803996 | -73.968,40.7656668 | 40.759,0.3,4.5,0,-74.007095336914063,40.728633880615234,New York | New York,1 | 2,1,NY CITY CENTRAL PARK NY US,WBAN:94728,1,FM-15,None,None,None,None,None,None,None,None,None,None,None,None,-9999,-9999,None,None,None,-9999,-9999,None,None,None,None,None,None,None,None,None,None,None,None,None,None,None,None,None,None,None,None,None,None,None,None,-73.9669,40.7889,5,None,VRB,23,-4.7,10.00,29.89,30.04,FEW:02 43,43,3,None,0.00,None,8,-13.3,28,-2.2,30.06,39.6,2016-01-04 09:51,None,None,None,2142,1220,None,None,None,None,None,None,None,None,None,None,None,None,None,None,None,None
2.00,2016-01-04 09:19:03,2016-01-04 09:25:55,9.3,0,0,N,None,None,None,None,-73.872802734375,40.773834228515625,2,1,0.5,None,None,0.3,8.5,0,-73.906646728515625,40.770034790039063,None,None,1,NY CITY CENTRAL PARK NY US,WBAN:94728,1,FM-15,None,None,None,None,None,None,None,None,None,None,None,None,-9999,-9999,None,None,None,-9999,-9999,None,None,None,None,None,None,None,None,None,None,None,None,None,None,None,None,None,None,None,None,None,None,None,None,-73.9669,40.7889,5,None,VRB,23,-4.7,10.00,29.89,30.04,FEW:02 43,43,3,None,0.00,None,8,-13.3,28,-2.2,30.06,39.6,2016-01-04 09:51,None,None,None,2142,1220,None,None,None,None,None,None,None,None,None,None,None,None,None,None,None,None
1.60,2016-01-04 09:19:03,2016-01-04 09:29:44,11.75,0,1.95,N,None,None,None,None,-73.967666625976562,40.802829742431641,1,1,0.5,None,None,0.3,9,0,-73.981246948242188,40.781215667724609,None,None,1,NY CITY CENTRAL PARK NY US,WBAN:94728,1,FM-15,None,None,None,None,None,None,None,None,None,None,None,None,-9999,-9999,None,None,None,-9999,-9999,None,None,None,None,None,None,None,None,None,None,None,None,None,None,None,None,None,None,None,None,None,None,None,None,-73.9669,40.7889,5,None,VRB,23,-4.7,10.00,29.89,30.04,FEW:02 43,43,3,None,0.00,None,8,-13.3,28,-2.2,30.06,39.6,2016-01-04 09:51,None,None,None,2142,1220,None,None,None,None,None,None,None,None,None,None,None,None,None,None,None,None
1.70,2016-01-04 09:19:03,2016-01-04 09:29:34,12.35,0,2.05,N,None,None,None,None,-74.006233215332031,40.748584747314453,1,1,0.5,None,None,0.3,9.5,0,-74.005035400390625,40.728992462158203,None,None,1,NY CITY CENTRAL PARK NY US,WBAN:94728,1,FM-15,None,None,None,None,None,None,None,None,None,None,None,None,-9999,-9999,None,None,None,-9999,-9999,None,None,None,None,None,None,None,None,None,None,None,None,None,None,None,None,None,None,None,None,None,None,None,None,-73.9669,40.7889,5,None,VRB,23,-4.7,10.00,29.89,30.04,FEW:02 43,43,3,None,0.00,None,8,-13.3,28,-2.2,30.06,39.6,2016-01-04 09:51,None,None,None,2142,1220,None,None,None,None,None,None,None,None,None,None,None,None,None,None,None,None
4.76,2016-01-04 09:19:03,2016-01-04 09:35:13,17.8,0,0,N,None,None,None,None,-73.970069885253906,40.752681732177734,2,2,0.5,None,None,0.3,17,0,-74.005950927734375,40.706108093261719,None,None,2,NY CITY CENTRAL PARK NY US,WBAN:94728,1,FM-15,None,None,None,None,None,None,None,None,None,None,None,None,-9999,-9999,None,None,None,-9999,-9999,None,None,None,None,None,None,None,None,None,None,None,None,None,None,None,None,None,None,None,None,None,None,None,None,-73.9669,40.7889,5,None,VRB,23,-4.7,10.00,29.89,30.04,FEW:02 43,43,3,None,0.00,None,8,-13.3,28,-2.2,30.06,39.6,2016-01-04 09:51,None,None,None,2142,1220,None,None,None,None,None,None,None,None,None,None,None,None,None,None,None,None
4.18,2016-01-04 09:19:03,2016-01-04 09:35:13,16.3,0,0,N,None,2016-01-01 02:00:00,New York,10038,-73.967460632324219,40.803230285644531,2,4,0.5,-74.0081571,40.7090990,0.3,15.5,0,-74.00396728515625,40.7589111328125,New York,0,2,NY CITY CENTRAL PARK NY US,WBAN:94728,1,FM-15,None,None,None,None,None,None,None,None,None,None,None,None,-9999,-9999,None,None,None,-9999,-9999,None,None,None,None,None,None,None,None,None,None,None,None,None,None,None,None,None,None,None,None,None,None,None,None,-73.9669,40.7889,5,None,VRB,23,-4.7,10.00,29.89,30.04,FEW:02 43,43,3,None,0.00,None,8,-13.3,28,-2.2,30.06,39.6,2016-01-04 09:51,None,None,None,2142,1220,None,None,None,None,None,None,None,None,None,None,None,None,None,None,None,None
1.10,2016-01-05 00:00:00,2016-01-05 00:00:00,8.8,0,0,N,None,None,None,None,-73.990371704101563,40.734695434570313,2,2,0.5,None,None,0.3,7.5,0.5,-73.981842041015625,40.732406616210937,None,None,2,NY CITY CENTRAL PARK NY US,WBAN:94728,1,FM-15,None,None,None,None,None,None,None,None,None,None,None,None,-9999,-9999,None,None,None,-9999,-9999,None,None,None,None,None,None,None,None,None,None,None,None,None,None,None,None,None,None,None,None,None,None,None,None,-73.9669,40.7889,14,24,VRB,10,-12.0,10.00,30.23,30.39,CLR:00,54,1,None,0.00,None,-1,-18.3,13,-10.6,30.40,39.6,2016-01-05 00:51,None,None,None,2143,1220,None,None,None,None,None,None,None,None,None,None,None,None,None,None,None,None
4.90,2016-01-05 00:00:00,2016-01-05 00:00:00,19.3,0,0,N,,,,,-73.980781555175781,40.729911804199219,1,5,0.5,,,0.3,18,0.5,-73.944473266601563,40.716678619384766,,,2,NY CITY CENTRAL PARK NY US,WBAN:94728,1,FM-15,None,None,None,None,None,None,None,None,None,None,None,None,-9999,-9999,None,None,None,-9999,-9999,None,None,None,None,None,None,None,None,None,None,None,None,None,None,None,None,None,None,None,None,None,None,None,None,-73.9669,40.7889,14,24,VRB,10,-12.0,10.00,30.23,30.39,CLR:00,54,1,None,0.00,None,-1,-18.3,13,-10.6,30.40,39.6,2016-01-05 00:51,None,None,None,2143,1220,None,None,None,None,None,None,None,None,None,None,None,None,None,None,None,None
10.54,2016-01-05 00:00:00,2016-01-05 00:00:00,34.3,0,0,N,None,2016-01-01 09:00:00,New York,10003,-73.984550476074219,40.6795654296875,1,1,0.5,-73.9870210,40.7308580,0.3,33,0.5,-73.950271606445313,40.788925170898438,New York,0,2,NY CITY CENTRAL PARK NY US,WBAN:94728,1,FM-15,None,None,None,None,None,None,None,None,None,None,None,None,-9999,-9999,None,None,None,-9999,-9999,None,None,None,None,None,None,None,None,None,None,None,None,None,None,None,None,None,None,None,None,None,None,None,None,-73.9669,40.7889,14,24,VRB,10,-12.0,10.00,30.23,30.39,CLR:00,54,1,None,0.00,None,-1,-18.3,13,-10.6,30.40,39.6,2016-01-05 00:51,None,None,None,2143,1220,None,None,None,None,None,None,None,None,None,None,None,None,None,None,None,None
4.75,2016-01-05 00:00:00,2016-01-05 00:00:00,17.3,0,0,N,None,None,None,None,-73.99346923828125,40.718990325927734,2,1,0.5,None,None,0.3,16.5,0,-73.962242126464844,40.657333374023437,None,None,2,NY CITY CENTRAL PARK NY US,WBAN:94728,1,FM-15,None,None,None,None,None,None,None,None,None,None,None,None,-9999,-9999,None,None,None,-9999,-9999,None,None,None,None,None,None,None,None,None,None,None,None,None,None,None,None,None,None,None,None,None,None,None,None,-73.9669,40.7889,14,24,VRB,10,-12.0,10.00,30.23,30.39,CLR:00,54,1,None,0.00,None,-1,-18.3,13,-10.6,30.40,39.6,2016-01-05 00:51,None,None,None,2143,1220,None,None,None,None,None,None,None,None,None,None,None,None,None,None,None,None
1.76,2016-01-05 00:00:00,2016-01-05 00:00:00,8.8,0,0,N,None,2016-01-01 12:00:00,New York,10029,-73.960624694824219,40.781330108642578,2,3,0.5,-73.9519050,40.7924950,0.3,8,0,-73.977264404296875,40.758514404296875,New York,0,2,NY CITY CENTRAL PARK NY US,WBAN:94728,1,FM-15,None,None,None,None,None,None,None,None,None,None,None,None,-9999,-9999,None,None,None,-9999,-9999,None,None,None,None,None,None,None,None,None,None,None,None,None,None,None,None,None,None,None,None,None,None,None,None,-73.9669,40.7889,14,24,VRB,10,-12.0,10.00,30.23,30.39,CLR:00,54,1,None,0.00,None,-1,-18.3,13,-10.6,30.40,39.6,2016-01-05 00:51,None,None,None,2143,1220,None,None,None,None,None,None,None,None,None,None,None,None,None,None,None,None
5.52,2016-01-05 00:00:00,2016-01-05 00:18:30,20.3,0,0,N,None,None,None,None,-73.980117797851563,40.743049621582031,2,2,0.5,None,None,0.3,19,0.5,-73.913490295410156,40.763141632080078,None,None,2,NY CITY CENTRAL PARK NY US,WBAN:94728,1,FM-15,None,None,None,None,None,None,None,None,None,None,None,None,-9999,-9999,None,None,None,-9999,-9999,None,None,None,None,None,None,None,None,None,None,None,None,None,None,None,None,None,None,None,None,None,None,None,None,-73.9669,40.7889,14,24,VRB,10,-12.0,10.00,30.23,30.39,CLR:00,54,1,None,0.00,None,-1,-18.3,13,-10.6,30.40,39.6,2016-01-05 00:51,None,None,None,2143,1220,None,None,None,None,None,None,None,None,None,None,None,None,None,None,None,None
7.45,2016-01-05 00:00:00,2016-01-05 00:26:45,27.3,0,0,N,2016-12-31 00:00:00 | 2016-07-03 00:00:00,2016-01-01 00:00:00 | 2015-10-08 00:00:00,New York | New York,10022 | 10019,-73.994056701660156,40.719989776611328,2,2,0.5,-73.968 | -73.9844951,40.759 | 40.7632328,0.3,26,0.5,-73.966361999511719,40.789871215820313,New York | New York,2 | 2,2,NY CITY CENTRAL PARK NY US,WBAN:94728,1,FM-15,None,None,None,None,None,None,None,None,None,None,None,None,-9999,-9999,None,None,None,-9999,-9999,None,None,None,None,None,None,None,None,None,None,None,None,None,None,None,None,None,None,None,None,None,None,None,None,-73.9669,40.7889,14,24,VRB,10,-12.0,10.00,30.23,30.39,CLR:00,54,1,None,0.00,None,-1,-18.3,13,-10.6,30.40,39.6,2016-01-05 00:51,None,None,None,2143,1220,None,None,None,None,None,None,None,None,None,None,None,None,None,None,None,None
1.20,2016-01-05 00:00:01,2016-01-05 00:11:55,10.3,0,0,N,None,None,None,None,-73.979423522949219,40.744613647460938,2,1,0.5,None,None,0.3,9,0.5,-73.992034912109375,40.753944396972656,None,None,1,NY CITY CENTRAL PARK NY US,WBAN:94728,1,FM-15,None,None,None,None,None,None,None,None,None,None,None,None,-9999,-9999,None,None,None,-9999,-9999,None,None,None,None,None,None,None,None,None,None,None,None,None,None,None,None,None,None,None,None,None,None,None,None,-73.9669,40.7889,14,24,VRB,10,-12.0,10.00,30.23,30.39,CLR:00,54,1,None,0.00,None,-1,-18.3,13,-10.6,30.40,39.6,2016-01-05 00:51,None,None,None,2143,1220,None,None,None,None,None,None,None,None,None,None,None,None,None,None,None,None
6.00,2016-01-05 00:00:02,2016-01-05 00:11:14,19.3,0,0,N,None,None,None,None,-73.947151184082031,40.791046142578125,2,1,0.5,None,None,0.3,18,0.5,-73.920768737792969,40.865577697753906,None,None,1,NY CITY CENTRAL PARK NY US,WBAN:94728,1,FM-15,None,None,None,None,None,None,None,None,None,None,None,None,-9999,-9999,None,None,None,-9999,-9999,None,None,None,None,None,None,None,None,None,None,None,None,None,None,None,None,None,None,None,None,None,None,None,None,-73.9669,40.7889,14,24,VRB,10,-12.0,10.00,30.23,30.39,CLR:00,54,1,None,0.00,None,-1,-18.3,13,-10.6,30.40,39.6,2016-01-05 00:51,None,None,None,2143,1220,None,None,None,None,None,None,None,None,None,None,None,None,None,None,None,None
3.21,2016-01-05 00:00:02,2016-01-05 00:11:08,12.8,0,0,N,None,None,None,None,-73.998344421386719,40.723896026611328,2,1,0.5,None,None,0.3,11.5,0.5,-73.995849609375,40.688400268554688,None,None,2,NY CITY CENTRAL PARK NY US,WBAN:94728,1,FM-15,None,None,None,None,None,None,None,None,None,None,None,None,-9999,-9999,None,None,None,-9999,-9999,None,None,None,None,None,None,None,None,None,None,None,None,None,None,None,None,None,None,None,None,None,None,None,None,-73.9669,40.7889,14,24,VRB,10,-12.0,10.00,30.23,30.39,CLR:00,54,1,None,0.00,None,-1,-18.3,13,-10.6,30.40,39.6,2016-01-05 00:51,None,None,None,2143,1220,None,None,None,None,None,None,None,None,None,None,None,None,None,None,None,None
.79,2016-01-05 00:00:03,2016-01-05 00:06:19,7.3,0,0,N,None,None,None,None,-74.006149291992188,40.744918823242188,2,1,0.5,None,None,0.3,6,0.5,-73.993797302246094,40.741439819335938,None,None,2,NY CITY CENTRAL PARK NY US,WBAN:94728,1,FM-15,None,None,None,None,None,None,None,None,None,None,None,None,-9999,-9999,None,None,None,-9999,-9999,None,None,None,None,None,None,None,None,None,None,None,None,None,None,None,None,None,None,None,None,None,None,None,None,-73.9669,40.7889,14,24,VRB,10,-12.0,10.00,30.23,30.39,CLR:00,54,1,None,0.00,None,-1,-18.3,13,-10.6,30.40,39.6,2016-01-05 00:51,None,None,None,2143,1220,None,None,None,None,None,None,None,None,None,None,None,None,None,None,None,None
2.43,2016-01-05 00:00:03,2016-01-05 00:15:49,17.29,0,3.99,N,None,None,None,None,-73.969329833984375,40.763538360595703,1,6,0.5,None,None,0.3,12,0.5,-73.995689392089844,40.744251251220703,None,None,2,NY CITY CENTRAL PARK NY US,WBAN:94728,1,FM-15,None,None,None,None,None,None,None,None,None,None,None,None,-9999,-9999,None,None,None,-9999,-9999,None,None,None,None,None,None,None,None,None,None,None,None,None,None,None,None,None,None,None,None,None,None,None,None,-73.9669,40.7889,14,24,VRB,10,-12.0,10.00,30.23,30.39,CLR:00,54,1,None,0.00,None,-1,-18.3,13,-10.6,30.40,39.6,2016-01-05 00:51,None,None,None,2143,1220,None,None,None,None,None,None,None,None,None,None,None,None,None,None,None,None
.01,2016-01-05 00:00:03,2016-01-05 00:00:11,3.8,0,0,N,None,None,None,None,-73.989021301269531,40.721538543701172,2,4,0.5,None,None,0.3,2.5,0.5,-73.988960266113281,40.721698760986328,None,None,2,NY CITY CENTRAL PARK NY US,WBAN:94728,1,FM-15,None,None,None,None,None,None,None,None,None,None,None,None,-9999,-9999,None,None,None,-9999,-9999,None,None,None,None,None,None,None,None,None,None,None,None,None,None,None,None,None,None,None,None,None,None,None,None,-73.9669,40.7889,14,24,VRB,10,-12.0,10.00,30.23,30.39,CLR:00,54,1,None,0.00,None,-1,-18.3,13,-10.6,30.40,39.6,2016-01-05 00:51,None,None,None,2143,1220,None,None,None,None,None,None,None,None,None,None,None,None,None,None,None,None
3.70,2016-01-05 00:00:04,2016-01-05 00:14:32,18.35,0,3.05,N,None,None,None,None,-74.004302978515625,40.742240905761719,1,1,0.5,None,None,0.3,14,0.5,-74.007362365722656,40.706935882568359,None,None,1,NY CITY CENTRAL PARK NY US,WBAN:94728,1,FM-15,None,None,None,None,None,None,None,None,None,None,None,None,-9999,-9999,None,None,None,-9999,-9999,None,None,None,None,None,None,None,None,None,None,None,None,None,None,None,None,None,None,None,None,None,None,None,None,-73.9669,40.7889,14,24,VRB,10,-12.0,10.00,30.23,30.39,CLR:00,54,1,None,0.00,None,-1,-18.3,13,-10.6,30.40,39.6,2016-01-05 00:51,None,None,None,2143,1220,None,None,None,None,None,None,None,None,None,None,None,None,None,None,None,None
2.20,2016-01-05 00:00:05,2016-01-05 00:14:27,13.8,0,1.5,N,None | None,2016-01-01 03:00:00 | 2016-01-01 11:00:00,New York | New York,10002 | 10002,-73.991996765136719,40.718578338623047,1,2,0.5,-73.9847 | -73.9847,40.7182 | 40.7182,0.3,11,0.5,-74.005134582519531,40.739944458007813,New York | New York,0 | 0,1,NY CITY CENTRAL PARK NY US,WBAN:94728,1,FM-15,None,None,None,None,None,None,None,None,None,None,None,None,-9999,-9999,None,None,None,-9999,-9999,None,None,None,None,None,None,None,None,None,None,None,None,None,None,None,None,None,None,None,None,None,None,None,None,-73.9669,40.7889,14,24,VRB,10,-12.0,10.00,30.23,30.39,CLR:00,54,1,None,0.00,None,-1,-18.3,13,-10.6,30.40,39.6,2016-01-05 00:51,None,None,None,2143,1220,None,None,None,None,None,None,None,None,None,None,None,None,None,None,None,None
.54,2016-01-05 00:00:05,2016-01-05 00:07:17,7.3,0,0,N,None,2016-01-01 02:00:00,New York,10038,-73.985160827636719,40.768951416015625,2,1,0.5,-74.0081571,40.7090990,0.3,6,0.5,-73.990226745605469,40.761730194091797,New York,0,2,NY CITY CENTRAL PARK NY US,WBAN:94728,1,FM-15,None,None,None,None,None,None,None,None,None,None,None,None,-9999,-9999,None,None,None,-9999,-9999,None,None,None,None,None,None,None,None,None,None,None,None,None,None,None,None,None,None,None,None,None,None,None,None,-73.9669,40.7889,14,24,VRB,10,-12.0,10.00,30.23,30.39,CLR:00,54,1,None,0.00,None,-1,-18.3,13,-10.6,30.40,39.6,2016-01-05 00:51,None,None,None,2143,1220,None,None,None,None,None,None,None,None,None,None,None,None,None,None,None,None
1.92,2016-01-05 00:00:05,2016-01-05 00:07:14,8.8,0,0,N,None,None,None,None,-73.973091125488281,40.795360565185547,2,1,0.5,None,None,0.3,7.5,0.5,-73.978370666503906,40.773151397705078,None,None,2,NY CITY CENTRAL PARK NY US,WBAN:94728,1,FM-15,None,None,None,None,None,None,None,None,None,None,None,None,-9999,-9999,None,None,None,-9999,-9999,None,None,None,None,None,None,None,None,None,None,None,None,None,None,None,None,None,None,None,None,None,None,None,None,-73.9669,40.7889,14,24,VRB,10,-12.0,10.00,30.23,30.39,CLR:00,54,1,None,0.00,None,-1,-18.3,13,-10.6,30.40,39.6,2016-01-05 00:51,None,None,None,2143,1220,None,None,None,None,None,None,None,None,None,None,None,None,None,None,None,None
1.70,2016-01-05 00:00:06,2016-01-05 00:04:44,9.95,0,1.65,Y,2016-07-03 00:00:00,2015-10-08 00:00:00,New York,10019,-73.982101440429688,40.774696350097656,1,1,0.5,-73.9844951,40.7632328,0.3,7,0.5,-73.970939636230469,40.796707153320313,New York,2,1,NY CITY CENTRAL PARK NY US,WBAN:94728,1,FM-15,None,None,None,None,None,None,None,None,None,None,None,None,-9999,-9999,None,None,None,-9999,-9999,None,None,None,None,None,None,None,None,None,None,None,None,None,None,None,None,None,None,None,None,None,None,None,None,-73.9669,40.7889,14,24,VRB,10,-12.0,10.00,30.23,30.39,CLR:00,54,1,None,0.00,None,-1,-18.3,13,-10.6,30.40,39.6,2016-01-05 00:51,None,None,None,2143,1220,None,None,None,None,None,None,None,None,None,None,None,None,None,None,None,None
1.38,2016-01-05 00:00:06,2016-01-05 00:07:14,9.96,0,1.66,N,None,None,None,None,-73.994842529296875,40.718498229980469,1,1,0.5,None,None,0.3,7,0.5,-73.98980712890625,40.734230041503906,None,None,2,NY CITY CENTRAL PARK NY US,WBAN:94728,1,FM-15,None,None,None,None,None,None,None,None,None,None,None,None,-9999,-9999,None,None,None,-9999,-9999,None,None,None,None,None,None,None,None,None,None,None,None,None,None,None,None,None,None,None,None,None,None,None,None,-73.9669,40.7889,14,24,VRB,10,-12.0,10.00,30.23,30.39,CLR:00,54,1,None,0.00,None,-1,-18.3,13,-10.6,30.40,39.6,2016-01-05 00:51,None,None,None,2143,1220,None,None,None,None,None,None,None,None,None,None,None,None,None,None,None,None
4.90,2016-01-05 00:00:07,2016-01-05 00:20:35,24.36,0,4.06,N,None,None,None,None,-73.953033447265625,40.672115325927734,1,2,0.5,None,None,0.3,19,0.5,-73.986572265625,40.710594177246094,None,None,1,NY CITY CENTRAL PARK NY US,WBAN:94728,1,FM-15,None,None,None,None,None,None,None,None,None,None,None,None,-9999,-9999,None,None,None,-9999,-9999,None,None,None,None,None,None,None,None,None,None,None,None,None,None,None,None,None,None,None,None,None,None,None,None,-73.9669,40.7889,14,24,VRB,10,-12.0,10.00,30.23,30.39,CLR:00,54,1,None,0.00,None,-1,-18.3,13,-10.6,30.40,39.6,2016-01-05 00:51,None,None,None,2143,1220,None,None,None,None,None,None,None,None,None,None,None,None,None,None,None,None
1.80,2016-01-05 00:00:07,2016-01-05 00:09:49,10.3,0,0,N,None,2016-01-01 09:00:00,New York,10003,-73.989166259765625,40.726589202880859,2,1,0.5,-73.9870210,40.7308580,0.3,9,0.5,-74.009483337402344,40.715072631835938,New York,0,1,NY CITY CENTRAL PARK NY US,WBAN:94728,1,FM-15,None,None,None,None,None,None,None,None,None,None,None,None,-9999,-9999,None,None,None,-9999,-9999,None,None,None,None,None,None,None,None,None,None,None,None,None,None,None,None,None,None,None,None,None,None,None,None,-73.9669,40.7889,14,24,VRB,10,-12.0,10.00,30.23,30.39,CLR:00,54,1,None,0.00,None,-1,-18.3,13,-10.6,30.40,39.6,2016-01-05 00:51,None,None,None,2143,1220,None,None,None,None,None,None,None,None,None,None,None,None,None,None,None,None
3.09,2016-01-05 00:00:08,2016-01-05 00:18:51,15.8,0,0,N,None,None,None,None,-73.999069213867188,40.720172882080078,2,1,0.5,None,None,0.3,14.5,0.5,-73.973388671875,40.756561279296875,None,None,2,NY CITY CENTRAL PARK NY US,WBAN:94728,1,FM-15,None,None,None,None,None,None,None,None,None,None,None,None,-9999,-9999,None,None,None,-9999,-9999,None,None,None,None,None,None,None,None,None,None,None,None,None,None,None,None,None,None,None,None,None,None,None,None,-73.9669,40.7889,14,24,VRB,10,-12.0,10.00,30.23,30.39,CLR:00,54,1,None,0.00,None,-1,-18.3,13,-10.6,30.40,39.6,2016-01-05 00:51,None,None,None,2143,1220,None,None,None,None,None,None,None,None,None,None,None,None,None,None,None,None
.72,2016-01-05 00:00:08,2016-01-05 00:04:37,6.3,0,0,N,None | None | None | None,2016-01-01 00:00:00 | 2016-01-01 00:00:00 | 2016-01-01 20:00:00 | 2016-01-01 02:00:00,New York | New York | New York | New York,None | None | 10013 | 10038,-73.997138977050781,40.747219085693359,2,1,0.5,-74.0064 | -74.0064 | -74.0050159 | -74.0081571,40.7142 | 40.7142 | 40.7208412 | 40.7090990,0.3,5,0.5,-74.004486083984375,40.751796722412109,New York | New York | New York | New York,1 | 1 | 0 | 0,2,NY CITY CENTRAL PARK NY US,WBAN:94728,1,FM-15,None,None,None,None,None,None,None,None,None,None,None,None,-9999,-9999,None,None,None,-9999,-9999,None,None,None,None,None,None,None,None,None,None,None,None,None,None,None,None,None,None,None,None,None,None,None,None,-73.9669,40.7889,14,24,VRB,10,-12.0,10.00,30.23,30.39,CLR:00,54,1,None,0.00,None,-1,-18.3,13,-10.6,30.40,39.6,2016-01-05 00:51,None,None,None,2143,1220,None,None,None,None,None,None,None,None,None,None,None,None,None,None,None,None
.69,2016-01-05 00:00:08,2016-01-05 00:03:24,5.8,0,0,N,2016-12-31 00:00:00,2016-01-01 00:00:00,New York,10022,-73.997413635253906,40.736675262451172,2,1,0.5,-73.968,40.759,0.3,4.5,0.5,-73.985664367675781,40.732681274414063,New York,2,2,NY CITY CENTRAL PARK NY US,WBAN:94728,1,FM-15,None,None,None,None,None,None,None,None,None,None,None,None,-9999,-9999,None,None,None,-9999,-9999,None,None,None,None,None,None,None,None,None,None,None,None,None,None,None,None,None,None,None,None,None,None,None,None,-73.9669,40.7889,14,24,VRB,10,-12.0,10.00,30.23,30.39,CLR:00,54,1,None,0.00,None,-1,-18.3,13,-10.6,30.40,39.6,2016-01-05 00:51,None,None,None,2143,1220,None,None,None,None,None,None,None,None,None,None,None,None,None,None,None,None
5.30,2016-01-05 00:00:09,2016-01-05 00:19:03,23.15,0,3.85,N,None,None,None,None,-73.99713134765625,40.736961364746094,1,3,0.5,None,None,0.3,18,0.5,-73.928421020507813,40.755580902099609,None,None,1,NY CITY CENTRAL PARK NY US,WBAN:94728,1,FM-15,None,None,None,None,None,None,None,None,None,None,None,None,-9999,-9999,None,None,None,-9999,-9999,None,None,None,None,None,None,None,None,None,None,None,None,None,None,None,None,None,None,None,None,None,None,None,None,-73.9669,40.7889,14,24,VRB,10,-12.0,10.00,30.23,30.39,CLR:00,54,1,None,0.00,None,-1,-18.3,13,-10.6,30.40,39.6,2016-01-05 00:51,None,None,None,2143,1220,None,None,None,None,None,None,None,None,None,None,None,None,None,None,None,None
1.20,2016-01-05 00:00:09,2016-01-05 00:07:18,8.3,0,0,N,None,2016-01-01 09:00:00,New York,10003,-73.963912963867188,40.712173461914062,2,2,0.5,-73.9870210,40.7308580,0.3,7,0.5,-73.951332092285156,40.712200164794922,New York,0,1,NY CITY CENTRAL PARK NY US,WBAN:94728,1,FM-15,None,None,None,None,None,None,None,None,None,None,None,None,-9999,-9999,None,None,None,-9999,-9999,None,None,None,None,None,None,None,None,None,None,None,None,None,None,None,None,None,None,None,None,None,None,None,None,-73.9669,40.7889,14,24,VRB,10,-12.0,10.00,30.23,30.39,CLR:00,54,1,None,0.00,None,-1,-18.3,13,-10.6,30.40,39.6,2016-01-05 00:51,None,None,None,2143,1220,None,None,None,None,None,None,None,None,None,None,None,None,None,None,None,None
.97,2016-01-05 00:00:10,2016-01-05 00:06:15,7.3,0,0,N,None,None,None,None,-73.999397277832031,40.743900299072266,2,2,0.5,None,None,0.3,6,0.5,-73.988876342773438,40.745319366455078,None,None,2,NY CITY CENTRAL PARK NY US,WBAN:94728,1,FM-15,None,None,None,None,None,None,None,None,None,None,None,None,-9999,-9999,None,None,None,-9999,-9999,None,None,None,None,None,None,None,None,None,None,None,None,None,None,None,None,None,None,None,None,None,None,None,None,-73.9669,40.7889,14,24,VRB,10,-12.0,10.00,30.23,30.39,CLR:00,54,1,None,0.00,None,-1,-18.3,13,-10.6,30.40,39.6,2016-01-05 00:51,None,None,None,2143,1220,None,None,None,None,None,None,None,None,None,None,None,None,None,None,None,None
.87,2016-01-05 00:00:10,2016-01-05 00:02:20,5.8,0,0,N,None,None,None,None,-73.95440673828125,40.778068542480469,2,1,0.5,None,None,0.3,4.5,0.5,-73.948928833007813,40.788581848144531,None,None,2,NY CITY CENTRAL PARK NY US,WBAN:94728,1,FM-15,None,None,None,None,None,None,None,None,None,None,None,None,-9999,-9999,None,None,None,-9999,-9999,None,None,None,None,None,None,None,None,None,None,None,None,None,None,None,None,None,None,None,None,None,None,None,None,-73.9669,40.7889,14,24,VRB,10,-12.0,10.00,30.23,30.39,CLR:00,54,1,None,0.00,None,-1,-18.3,13,-10.6,30.40,39.6,2016-01-05 00:51,None,None,None,2143,1220,None,None,None,None,None,None,None,None,None,None,None,None,None,None,None,None
.13,2016-01-05 00:00:12,2016-01-05 00:01:17,4.3,0,0,N,None,None,None,None,-73.991653442382813,40.754558563232422,2,1,0.5,None,None,0.3,3,0.5,-73.9906005859375,40.756118774414063,None,None,2,NY CITY CENTRAL PARK NY US,WBAN:94728,1,FM-15,None,None,None,None,None,None,None,None,None,None,None,None,-9999,-9999,None,None,None,-9999,-9999,None,None,None,None,None,None,None,None,None,None,None,None,None,None,None,None,None,None,None,None,None,None,None,None,-73.9669,40.7889,14,24,VRB,10,-12.0,10.00,30.23,30.39,CLR:00,54,1,None,0.00,None,-1,-18.3,13,-10.6,30.40,39.6,2016-01-05 00:51,None,None,None,2143,1220,None,None,None,None,None,None,None,None,None,None,None,None,None,None,None,None
2.40,2016-01-05 00:00:14,2016-01-05 00:13:02,15.35,0,3.05,N,None,2016-01-01 12:00:00,New York,10029,-73.995597839355469,40.744239807128906,1,1,0.5,-73.9519050,40.7924950,0.3,11,0.5,-73.985458374023438,40.768711090087891,New York,0,1,NY CITY CENTRAL PARK NY US,WBAN:94728,1,FM-15,None,None,None,None,None,None,None,None,None,None,None,None,-9999,-9999,None,None,None,-9999,-9999,None,None,None,None,None,None,None,None,None,None,None,None,None,None,None,None,None,None,None,None,None,None,None,None,-73.9669,40.7889,14,24,VRB,10,-12.0,10.00,30.23,30.39,CLR:00,54,1,None,0.00,None,-1,-18.3,13,-10.6,30.40,39.6,2016-01-05 00:51,None,None,None,2143,1220,None,None,None,None,None,None,None,None,None,None,None,None,None,None,None,None
.44,2016-01-05 00:00:14,2016-01-05 00:02:38,6.36,0,1.06,N,None,None,None,None,-73.990272521972656,40.772010803222656,1,2,0.5,None,None,0.3,4,0.5,-73.995040893554687,40.769771575927734,None,None,2,NY CITY CENTRAL PARK NY US,WBAN:94728,1,FM-15,None,None,None,None,None,None,None,None,None,None,None,None,-9999,-9999,None,None,None,-9999,-9999,None,None,None,None,None,None,None,None,None,None,None,None,None,None,None,None,None,None,None,None,None,None,None,None,-73.9669,40.7889,14,24,VRB,10,-12.0,10.00,30.23,30.39,CLR:00,54,1,None,0.00,None,-1,-18.3,13,-10.6,30.40,39.6,2016-01-05 00:51,None,None,None,2143,1220,None,None,None,None,None,None,None,None,None,None,None,None,None,None,None,None
1.56,2016-01-05 00:00:15,2016-01-05 00:06:31,8.8,0,0,N,None | 2016-07-03 00:00:00,2016-01-01 00:00:00 | 2015-10-08 00:00:00,New York | New York,10019 | 10019,-73.940109252929687,40.751152038574219,2,1,0.5,-73.9803996 | -73.9844951,40.7656668 | 40.7632328,0.3,7.5,0.5,-73.930023193359375,40.767051696777344,New York | New York,1 | 2,2,NY CITY CENTRAL PARK NY US,WBAN:94728,1,FM-15,None,None,None,None,None,None,None,None,None,None,None,None,-9999,-9999,None,None,None,-9999,-9999,None,None,None,None,None,None,None,None,None,None,None,None,None,None,None,None,None,None,None,None,None,None,None,None,-73.9669,40.7889,14,24,VRB,10,-12.0,10.00,30.23,30.39,CLR:00,54,1,None,0.00,None,-1,-18.3,13,-10.6,30.40,39.6,2016-01-05 00:51,None,None,None,2143,1220,None,None,None,None,None,None,None,None,None,None,None,None,None,None,None,None
2.90,2016-01-05 00:00:16,2016-01-05 00:33:00,21.8,0,0,N,None,None,None,None,-73.982154846191406,40.774879455566406,2,2,0.5,None,None,0.3,20.5,0.5,-73.981361389160156,40.744113922119141,None,None,1,NY CITY CENTRAL PARK NY US,WBAN:94728,1,FM-15,None,None,None,None,None,None,None,None,None,None,None,None,-9999,-9999,None,None,None,-9999,-9999,None,None,None,None,None,None,None,None,None,None,None,None,None,None,None,None,None,None,None,None,None,None,None,None,-73.9669,40.7889,14,24,VRB,10,-12.0,10.00,30.23,30.39,CLR:00,54,1,None,0.00,None,-1,-18.3,13,-10.6,30.40,39.6,2016-01-05 00:51,None,None,None,2143,1220,None,None,None,None,None,None,None,None,None,None,None,None,None,None,None,None
1.20,2016-01-05 00:00:17,2016-01-05 00:19:14,13.8,0,0,N,None,None,None,None,-74.008064270019531,40.742069244384766,3,1,0.5,None,None,0.3,12.5,0.5,-74.002288818359375,40.742164611816406,None,None,1,NY CITY CENTRAL PARK NY US,WBAN:94728,1,FM-15,None,None,None,None,None,None,None,None,None,None,None,None,-9999,-9999,None,None,None,-9999,-9999,None,None,None,None,None,None,None,None,None,None,None,None,None,None,None,None,None,None,None,None,None,None,None,None,-73.9669,40.7889,14,24,VRB,10,-12.0,10.00,30.23,30.39,CLR:00,54,1,None,0.00,None,-1,-18.3,13,-10.6,30.40,39.6,2016-01-05 00:51,None,None,None,2143,1220,None,None,None,None,None,None,None,None,None,None,None,None,None,None,None,None
1.50,2016-01-05 00:00:17,2016-01-05 00:13:59,14.65,0,3.35,N,None,None,None,None,-74.002677917480469,40.730636596679688,1,1,0.5,None,None,0.3,10,0.5,-73.980422973632813,40.726211547851563,None,None,1,NY CITY CENTRAL PARK NY US,WBAN:94728,1,FM-15,None,None,None,None,None,None,None,None,None,None,None,None,-9999,-9999,None,None,None,-9999,-9999,None,None,None,None,None,None,None,None,None,None,None,None,None,None,None,None,None,None,None,None,None,None,None,None,-73.9669,40.7889,14,24,VRB,10,-12.0,10.00,30.23,30.39,CLR:00,54,1,None,0.00,None,-1,-18.3,13,-10.6,30.40,39.6,2016-01-05 00:51,None,None,None,2143,1220,None,None,None,None,None,None,None,None,None,None,None,None,None,None,None,None
2.32,2016-01-05 00:00:17,2016-01-05 00:42:23,20.3,0,0,N,None,None,None,None,-73.981658935546875,40.773738861083984,2,1,0.5,None,None,0.3,19,0.5,-73.995964050292969,40.753837585449219,None,None,2,NY CITY CENTRAL PARK NY US,WBAN:94728,1,FM-15,None,None,None,None,None,None,None,None,None,None,None,None,-9999,-9999,None,None,None,-9999,-9999,None,None,None,None,None,None,None,None,None,None,None,None,None,None,None,None,None,None,None,None,None,None,None,None,-73.9669,40.7889,14,24,VRB,10,-12.0,10.00,30.23,30.39,CLR:00,54,1,None,0.00,None,-1,-18.3,13,-10.6,30.40,39.6,2016-01-05 00:51,None,None,None,2143,1220,None,None,None,None,None,None,None,None,None,None,None,None,None,None,None,None
9.63,2016-01-05 00:00:17,2016-01-05 00:14:26,36.79,0,8.49,N,None,2016-01-01 09:00:00,New York,10003,-73.981742858886719,40.719158172607422,1,5,0.5,-73.9870210,40.7308580,0.3,27,0.5,-73.938827514648438,40.829181671142578,New York,0,2,NY CITY CENTRAL PARK NY US,WBAN:94728,1,FM-15,None,None,None,None,None,None,None,None,None,None,None,None,-9999,-9999,None,None,None,-9999,-9999,None,None,None,None,None,None,None,None,None,None,None,None,None,None,None,None,None,None,None,None,None,None,None,None,-73.9669,40.7889,14,24,VRB,10,-12.0,10.00,30.23,30.39,CLR:00,54,1,None,0.00,None,-1,-18.3,13,-10.6,30.40,39.6,2016-01-05 00:51,None,None,None,2143,1220,None,None,None,None,None,None,None,None,None,None,None,None,None,None,None,None
1.17,2016-01-05 00:00:18,2016-01-05 00:05:44,7.3,0,0,N,None,None,None,None,-73.963058471679688,40.775016784667969,2,5,0.5,None,None,0.3,6,0.5,-73.951744079589844,40.778800964355469,None,None,2,NY CITY CENTRAL PARK NY US,WBAN:94728,1,FM-15,None,None,None,None,None,None,None,None,None,None,None,None,-9999,-9999,None,None,None,-9999,-9999,None,None,None,None,None,None,None,None,None,None,None,None,None,None,None,None,None,None,None,None,None,None,None,None,-73.9669,40.7889,14,24,VRB,10,-12.0,10.00,30.23,30.39,CLR:00,54,1,None,0.00,None,-1,-18.3,13,-10.6,30.40,39.6,2016-01-05 00:51,None,None,None,2143,1220,None,None,None,None,None,None,None,None,None,None,None,None,None,None,None,None
3.40,2016-01-05 00:00:19,2016-01-05 00:19:33,15.8,0,0,N,None,None,None,None,0,0,2,1,0.5,None,None,0.3,14.5,0.5,0,0,None,None,1,NY CITY CENTRAL PARK NY US,WBAN:94728,1,FM-15,None,None,None,None,None,None,None,None,None,None,None,None,-9999,-9999,None,None,None,-9999,-9999,None,None,None,None,None,None,None,None,None,None,None,None,None,None,None,None,None,None,None,None,None,None,None,None,-73.9669,40.7889,14,24,VRB,10,-12.0,10.00,30.23,30.39,CLR:00,54,1,None,0.00,None,-1,-18.3,13,-10.6,30.40,39.6,2016-01-05 00:51,None,None,None,2143,1220,None,None,None,None,None,None,None,None,None,None,None,None,None,None,None,None
1.32,2016-01-05 00:00:19,2016-01-05 00:06:31,7.8,0,0,N,None,None,None,None,-73.961257934570313,40.796199798583984,2,3,0.5,None,None,0.3,6.5,0.5,-73.950050354003906,40.787311553955078,None,None,2,NY CITY CENTRAL PARK NY US,WBAN:94728,1,FM-15,None,None,None,None,None,None,None,None,None,None,None,None,-9999,-9999,None,None,None,-9999,-9999,None,None,None,None,None,None,None,None,None,None,None,None,None,None,None,None,None,None,None,None,None,None,None,None,-73.9669,40.7889,14,24,VRB,10,-12.0,10.00,30.23,30.39,CLR:00,54,1,None,0.00,None,-1,-18.3,13,-10.6,30.40,39.6,2016-01-05 00:51,None,None,None,2143,1220,None,None,None,None,None,None,None,None,None,None,None,None,None,None,None,None
13.00,2016-01-05 00:00:20,2016-01-05 00:29:05,37.8,0,0,N,None,None,None,None,-73.98223876953125,40.757701873779297,2,1,0.5,None,None,0.3,36.5,0.5,-73.909309387207031,40.862049102783203,None,None,1,NY CITY CENTRAL PARK NY US,WBAN:94728,1,FM-15,None,None,None,None,None,None,None,None,None,None,None,None,-9999,-9999,None,None,None,-9999,-9999,None,None,None,None,None,None,None,None,None,None,None,None,None,None,None,None,None,None,None,None,None,None,None,None,-73.9669,40.7889,14,24,VRB,10,-12.0,10.00,30.23,30.39,CLR:00,54,1,None,0.00,None,-1,-18.3,13,-10.6,30.40,39.6,2016-01-05 00:51,None,None,None,2143,1220,None,None,None,None,None,None,None,None,None,None,None,None,None,None,None,None
.70,2016-01-05 00:00:21,2016-01-05 00:17:30,12.3,0,0,Y,None,2016-01-01 12:00:00,New York,10029,-73.894126892089844,40.636573791503906,2,1,0.5,-73.9519050,40.7924950,0.3,11,0.5,-73.892501831054687,40.634834289550781,New York,0,1,NY CITY CENTRAL PARK NY US,WBAN:94728,1,FM-15,None,None,None,None,None,None,None,None,None,None,None,None,-9999,-9999,None,None,None,-9999,-9999,None,None,None,None,None,None,None,None,None,None,None,None,None,None,None,None,None,None,None,None,None,None,None,None,-73.9669,40.7889,14,24,VRB,10,-12.0,10.00,30.23,30.39,CLR:00,54,1,None,0.00,None,-1,-18.3,13,-10.6,30.40,39.6,2016-01-05 00:51,None,None,None,2143,1220,None,None,None,None,None,None,None,None,None,None,None,None,None,None,None,None
5.40,2016-01-05 00:00:21,2016-01-05 00:32:09,25.8,0,0,N,None,None,None,None,-73.946418762207031,40.789138793945313,2,1,0.5,None,None,0.3,24.5,0.5,-73.915901184082031,40.851547241210937,None,None,1,NY CITY CENTRAL PARK NY US,WBAN:94728,1,FM-15,None,None,None,None,None,None,None,None,None,None,None,None,-9999,-9999,None,None,None,-9999,-9999,None,None,None,None,None,None,None,None,None,None,None,None,None,None,None,None,None,None,None,None,None,None,None,None,-73.9669,40.7889,14,24,VRB,10,-12.0,10.00,30.23,30.39,CLR:00,54,1,None,0.00,None,-1,-18.3,13,-10.6,30.40,39.6,2016-01-05 00:51,None,None,None,2143,1220,None,None,None,None,None,None,None,None,None,None,None,None,None,None,None,None
3.30,2016-01-05 00:00:22,2016-01-05 00:12:12,15.96,0,2.66,N,None,None,None,None,-73.975677490234375,40.749099731445313,1,1,0.5,None,None,0.3,12,0.5,-73.973648071289063,40.78369140625,None,None,2,NY CITY CENTRAL PARK NY US,WBAN:94728,1,FM-15,None,None,None,None,None,None,None,None,None,None,None,None,-9999,-9999,None,None,None,-9999,-9999,None,None,None,None,None,None,None,None,None,None,None,None,None,None,None,None,None,None,None,None,None,None,None,None,-73.9669,40.7889,14,24,VRB,10,-12.0,10.00,30.23,30.39,CLR:00,54,1,None,0.00,None,-1,-18.3,13,-10.6,30.40,39.6,2016-01-05 00:51,None,None,None,2143,1220,None,None,None,None,None,None,None,None,None,None,None,None,None,None,None,None
2.94,2016-01-05 00:00:22,2016-01-05 00:13:37,13.3,0,0,N,None,None,None,None,-73.949691772460938,40.784618377685547,2,6,0.5,None,None,0.3,12,0.5,-73.971031188964844,40.751018524169922,None,None,2,NY CITY CENTRAL PARK NY US,WBAN:94728,1,FM-15,None,None,None,None,None,None,None,None,None,None,None,None,-9999,-9999,None,None,None,-9999,-9999,None,None,None,None,None,None,None,None,None,None,None,None,None,None,None,None,None,None,None,None,None,None,None,None,-73.9669,40.7889,14,24,VRB,10,-12.0,10.00,30.23,30.39,CLR:00,54,1,None,0.00,None,-1,-18.3,13,-10.6,30.40,39.6,2016-01-05 00:51,None,None,None,2143,1220,None,None,None,None,None,None,None,None,None,None,None,None,None,None,None,None
5.23,2016-01-05 00:00:22,2016-01-05 00:13:58,18.8,0,0,N,None,None,None,None,-73.981849670410156,40.716880798339844,2,2,0.5,None,None,0.3,17.5,0.5,-73.969329833984375,40.769378662109375,None,None,2,NY CITY CENTRAL PARK NY US,WBAN:94728,1,FM-15,None,None,None,None,None,None,None,None,None,None,None,None,-9999,-9999,None,None,None,-9999,-9999,None,None,None,None,None,None,None,None,None,None,None,None,None,None,None,None,None,None,None,None,None,None,None,None,-73.9669,40.7889,14,24,VRB,10,-12.0,10.00,30.23,30.39,CLR:00,54,1,None,0.00,None,-1,-18.3,13,-10.6,30.40,39.6,2016-01-05 00:51,None,None,None,2143,1220,None,None,None,None,None,None,None,None,None,None,None,None,None,None,None,None
1.30,2016-01-05 00:00:26,2016-01-05 00:07:41,10.55,0,1.75,N,None,None,None,None,-73.96588134765625,40.688564300537109,1,1,0.5,None,None,0.3,7.5,0.5,-73.962692260742187,40.671928405761719,None,None,1,NY CITY CENTRAL PARK NY US,WBAN:94728,1,FM-15,None,None,None,None,None,None,None,None,None,None,None,None,-9999,-9999,None,None,None,-9999,-9999,None,None,None,None,None,None,None,None,None,None,None,None,None,None,None,None,None,None,None,None,None,None,None,None,-73.9669,40.7889,14,24,VRB,10,-12.0,10.00,30.23,30.39,CLR:00,54,1,None,0.00,None,-1,-18.3,13,-10.6,30.40,39.6,2016-01-05 00:51,None,None,None,2143,1220,None,None,None,None,None,None,None,None,None,None,None,None,None,None,None,None
4.70,2016-01-05 00:00:27,2016-01-05 00:17:41,20.3,0,2,N,2022-04-16 02:00:00,2016-01-01 00:00:00,New York,None,-73.995864868164063,40.767772674560547,1,1,0.5,-73.9651814,40.7745779,0.3,17,0.5,-74.009605407714844,40.709926605224609,New York,1,1,NY CITY CENTRAL PARK NY US,WBAN:94728,1,FM-15,None,None,None,None,None,None,None,None,None,None,None,None,-9999,-9999,None,None,None,-9999,-9999,None,None,None,None,None,None,None,None,None,None,None,None,None,None,None,None,None,None,None,None,None,None,None,None,-73.9669,40.7889,14,24,VRB,10,-12.0,10.00,30.23,30.39,CLR:00,54,1,None,0.00,None,-1,-18.3,13,-10.6,30.40,39.6,2016-01-05 00:51,None,None,None,2143,1220,None,None,None,None,None,None,None,None,None,None,None,None,None,None,None,None
.83,2016-01-05 00:00:27,2016-01-05 00:08:40,8.3,0,0,N,None,None,None,None,-73.978767395019531,40.745105743408203,2,1,0.5,None,None,0.3,7,0.5,-73.992210388183594,40.749309539794922,None,None,2,NY CITY CENTRAL PARK NY US,WBAN:94728,1,FM-15,None,None,None,None,None,None,None,None,None,None,None,None,-9999,-9999,None,None,None,-9999,-9999,None,None,None,None,None,None,None,None,None,None,None,None,None,None,None,None,None,None,None,None,None,None,None,None,-73.9669,40.7889,14,24,VRB,10,-12.0,10.00,30.23,30.39,CLR:00,54,1,None,0.00,None,-1,-18.3,13,-10.6,30.40,39.6,2016-01-05 00:51,None,None,None,2143,1220,None,None,None,None,None,None,None,None,None,None,None,None,None,None,None,None
15.40,2016-01-05 00:00:28,2016-01-05 00:22:51,51.35,0,8.55,N,None | None | None,2016-01-01 00:00:00 | 2016-01-01 00:00:00 | 2016-01-01 02:00:00,New York | New York | New York,None | None | 10038,-73.97650146484375,40.733562469482422,1,1,0.5,-74.0064 | -74.0064 | -74.0081571,40.7142 | 40.7142 | 40.7090990,0.3,41.5,0.5,-73.854263305664062,40.891788482666016,New York | New York | New York,1 | 1 | 0,1,NY CITY CENTRAL PARK NY US,WBAN:94728,1,FM-15,None,None,None,None,None,None,None,None,None,None,None,None,-9999,-9999,None,None,None,-9999,-9999,None,None,None,None,None,None,None,None,None,None,None,None,None,None,None,None,None,None,None,None,None,None,None,None,-73.9669,40.7889,14,24,VRB,10,-12.0,10.00,30.23,30.39,CLR:00,54,1,None,0.00,None,-1,-18.3,13,-10.6,30.40,39.6,2016-01-05 00:51,None,None,None,2143,1220,None,None,None,None,None,None,None,None,None,None,None,None,None,None,None,None
1.64,2016-01-05 00:00:29,2016-01-05 00:08:45,9.8,0,0,N,None,None,None,None,-73.969375610351562,40.785236358642578,1,3,0.5,None,None,0.3,8.5,0.5,-73.945564270019531,40.777980804443359,None,None,2,NY CITY CENTRAL PARK NY US,WBAN:94728,1,FM-15,None,None,None,None,None,None,None,None,None,None,None,None,-9999,-9999,None,None,None,-9999,-9999,None,None,None,None,None,None,None,None,None,None,None,None,None,None,None,None,None,None,None,None,None,None,None,None,-73.9669,40.7889,14,24,VRB,10,-12.0,10.00,30.23,30.39,CLR:00,54,1,None,0.00,None,-1,-18.3,13,-10.6,30.40,39.6,2016-01-05 00:51,None,None,None,2143,1220,None,None,None,None,None,None,None,None,None,None,None,None,None,None,None,None
5.10,2016-01-05 00:00:30,2016-01-05 00:15:47,21.62,0,2.82,N,None,None,None,None,-73.990585327148438,40.745880126953125,1,1,0.5,None,None,0.3,17.5,0.5,-73.969886779785156,40.801265716552734,None,None,1,NY CITY CENTRAL PARK NY US,WBAN:94728,1,FM-15,None,None,None,None,None,None,None,None,None,None,None,None,-9999,-9999,None,None,None,-9999,-9999,None,None,None,None,None,None,None,None,None,None,None,None,None,None,None,None,None,None,None,None,None,None,None,None,-73.9669,40.7889,14,24,VRB,10,-12.0,10.00,30.23,30.39,CLR:00,54,1,None,0.00,None,-1,-18.3,13,-10.6,30.40,39.6,2016-01-05 00:51,None,None,None,2143,1220,None,None,None,None,None,None,None,None,None,None,None,None,None,None,None,None
1.10,2016-01-05 00:00:30,2016-01-05 00:18:25,12.8,0,0,N,None,None,None,None,-73.974342346191406,40.756660461425781,2,1,0.5,None,None,0.3,11.5,0.5,-73.981483459472656,40.753715515136719,None,None,2,NY CITY CENTRAL PARK NY US,WBAN:94728,1,FM-15,None,None,None,None,None,None,None,None,None,None,None,None,-9999,-9999,None,None,None,-9999,-9999,None,None,None,None,None,None,None,None,None,None,None,None,None,None,None,None,None,None,None,None,None,None,None,None,-73.9669,40.7889,14,24,VRB,10,-12.0,10.00,30.23,30.39,CLR:00,54,1,None,0.00,None,-1,-18.3,13,-10.6,30.40,39.6,2016-01-05 00:51,None,None,None,2143,1220,None,None,None,None,None,None,None,None,None,None,None,None,None,None,None,None
.35,2016-01-05 00:00:30,2016-01-05 00:03:06,6.89,0,1.59,N,None,None,None,None,-73.992347717285156,40.743438720703125,1,1,0.5,None,None,0.3,4,0.5,-73.996421813964844,40.746063232421875,None,None,2,NY CITY CENTRAL PARK NY US,WBAN:94728,1,FM-15,None,None,None,None,None,None,None,None,None,None,None,None,-9999,-9999,None,None,None,-9999,-9999,None,None,None,None,None,None,None,None,None,None,None,None,None,None,None,None,None,None,None,None,None,None,None,None,-73.9669,40.7889,14,24,VRB,10,-12.0,10.00,30.23,30.39,CLR:00,54,1,None,0.00,None,-1,-18.3,13,-10.6,30.40,39.6,2016-01-05 00:51,None,None,None,2143,1220,None,None,None,None,None,None,None,None,None,None,None,None,None,None,None,None
1.30,2016-01-05 00:00:31,2016-01-05 00:03:57,6.8,0,0,N,None,None,None,None,-73.933525085449219,40.802928924560547,2,1,0.5,None,None,0.3,5.5,0.5,-73.945671081542969,40.785984039306641,None,None,1,NY CITY CENTRAL PARK NY US,WBAN:94728,1,FM-15,None,None,None,None,None,None,None,None,None,None,None,None,-9999,-9999,None,None,None,-9999,-9999,None,None,None,None,None,None,None,None,None,None,None,None,None,None,None,None,None,None,None,None,None,None,None,None,-73.9669,40.7889,14,24,VRB,10,-12.0,10.00,30.23,30.39,CLR:00,54,1,None,0.00,None,-1,-18.3,13,-10.6,30.40,39.6,2016-01-05 00:51,None,None,None,2143,1220,None,None,None,None,None,None,None,None,None,None,None,None,None,None,None,None
7.25,2016-01-05 00:00:32,2016-01-05 00:27:02,27.3,0,0,N,None,None,None,None,-73.972953796386719,40.755718231201172,2,5,0.5,None,None,0.3,26,0.5,-73.978813171386719,40.684551239013672,None,None,2,NY CITY CENTRAL PARK NY US,WBAN:94728,1,FM-15,None,None,None,None,None,None,None,None,None,None,None,None,-9999,-9999,None,None,None,-9999,-9999,None,None,None,None,None,None,None,None,None,None,None,None,None,None,None,None,None,None,None,None,None,None,None,None,-73.9669,40.7889,14,24,VRB,10,-12.0,10.00,30.23,30.39,CLR:00,54,1,None,0.00,None,-1,-18.3,13,-10.6,30.40,39.6,2016-01-05 00:51,None,None,None,2143,1220,None,None,None,None,None,None,None,None,None,None,None,None,None,None,None,None
3.60,2016-01-05 00:00:32,2016-01-05 00:13:20,17.76,0,2.96,N,None,None,None,None,-73.9969482421875,40.720500946044922,1,5,0.5,None,None,0.3,13.5,0.5,-73.958183288574219,40.721790313720703,None,None,2,NY CITY CENTRAL PARK NY US,WBAN:94728,1,FM-15,None,None,None,None,None,None,None,None,None,None,None,None,-9999,-9999,None,None,None,-9999,-9999,None,None,None,None,None,None,None,None,None,None,None,None,None,None,None,None,None,None,None,None,None,None,None,None,-73.9669,40.7889,14,24,VRB,10,-12.0,10.00,30.23,30.39,CLR:00,54,1,None,0.00,None,-1,-18.3,13,-10.6,30.40,39.6,2016-01-05 00:51,None,None,None,2143,1220,None,None,None,None,None,None,None,None,None,None,None,None,None,None,None,None
.32,2016-01-05 00:00:32,2016-01-05 00:09:37,8.3,0,0,N,None,None,None,None,-73.993759155273438,40.751621246337891,1,6,0.5,None,None,0.3,7,0.5,-73.990867614746094,40.756088256835937,None,None,2,NY CITY CENTRAL PARK NY US,WBAN:94728,1,FM-15,None,None,None,None,None,None,None,None,None,None,None,None,-9999,-9999,None,None,None,-9999,-9999,None,None,None,None,None,None,None,None,None,None,None,None,None,None,None,None,None,None,None,None,None,None,None,None,-73.9669,40.7889,14,24,VRB,10,-12.0,10.00,30.23,30.39,CLR:00,54,1,None,0.00,None,-1,-18.3,13,-10.6,30.40,39.6,2016-01-05 00:51,None,None,None,2143,1220,None,None,None,None,None,None,None,None,None,None,None,None,None,None,None,None
3.70,2016-01-05 00:00:34,2016-01-05 00:10:36,20,0,5.7,N,None,None,None,None,-73.978317260742188,40.763179779052734,1,1,0.5,None,None,0.3,13,0.5,-73.921607971191406,40.741374969482422,None,None,1,NY CITY CENTRAL PARK NY US,WBAN:94728,1,FM-15,None,None,None,None,None,None,None,None,None,None,None,None,-9999,-9999,None,None,None,-9999,-9999,None,None,None,None,None,None,None,None,None,None,None,None,None,None,None,None,None,None,None,None,None,None,None,None,-73.9669,40.7889,14,24,VRB,10,-12.0,10.00,30.23,30.39,CLR:00,54,1,None,0.00,None,-1,-18.3,13,-10.6,30.40,39.6,2016-01-05 00:51,None,None,None,2143,1220,None,None,None,None,None,None,None,None,None,None,None,None,None,None,None,None
1.61,2016-01-05 00:00:36,2016-01-05 00:10:02,9.8,0,0,N,None,None,None,None,-73.963752746582031,40.771160125732422,2,1,0.5,None,None,0.3,8.5,0.5,-73.975601196289063,40.752738952636719,None,None,2,NY CITY CENTRAL PARK NY US,WBAN:94728,1,FM-15,None,None,None,None,None,None,None,None,None,None,None,None,-9999,-9999,None,None,None,-9999,-9999,None,None,None,None,None,None,None,None,None,None,None,None,None,None,None,None,None,None,None,None,None,None,None,None,-73.9669,40.7889,14,24,VRB,10,-12.0,10.00,30.23,30.39,CLR:00,54,1,None,0.00,None,-1,-18.3,13,-10.6,30.40,39.6,2016-01-05 00:51,None,None,None,2143,1220,None,None,None,None,None,None,None,None,None,None,None,None,None,None,None,None
1.20,2016-01-05 00:00:37,2016-01-05 00:06:01,10.1,0,2.3,N,None,None,None,None,-73.976020812988281,40.744560241699219,1,1,0.5,None,None,0.3,6.5,0.5,-73.96649169921875,40.753662109375,None,None,1,NY CITY CENTRAL PARK NY US,WBAN:94728,1,FM-15,None,None,None,None,None,None,None,None,None,None,None,None,-9999,-9999,None,None,None,-9999,-9999,None,None,None,None,None,None,None,None,None,None,None,None,None,None,None,None,None,None,None,None,None,None,None,None,-73.9669,40.7889,14,24,VRB,10,-12.0,10.00,30.23,30.39,CLR:00,54,1,None,0.00,None,-1,-18.3,13,-10.6,30.40,39.6,2016-01-05 00:51,None,None,None,2143,1220,None,None,None,None,None,None,None,None,None,None,None,None,None,None,None,None
8.80,2016-01-05 00:00:38,2016-01-05 00:17:25,32.75,0,5.45,N,None,None,None,None,-73.976791381835938,40.733699798583984,1,1,0.5,None,None,0.3,26,0.5,-73.892143249511719,40.750724792480469,None,None,1,NY CITY CENTRAL PARK NY US,WBAN:94728,1,FM-15,None,None,None,None,None,None,None,None,None,None,None,None,-9999,-9999,None,None,None,-9999,-9999,None,None,None,None,None,None,None,None,None,None,None,None,None,None,None,None,None,None,None,None,None,None,None,None,-73.9669,40.7889,14,24,VRB,10,-12.0,10.00,30.23,30.39,CLR:00,54,1,None,0.00,None,-1,-18.3,13,-10.6,30.40,39.6,2016-01-05 00:51,None,None,None,2143,1220,None,None,None,None,None,None,None,None,None,None,None,None,None,None,None,None
14.04,2016-01-05 00:00:38,2016-01-05 00:34:04,43.3,0,0,N,2016-12-31 00:00:00,2016-01-01 00:00:00,New York,10022,-73.984283447265625,40.748058319091797,2,1,0.5,-73.968,40.759,0.3,42,0.5,-73.992088317871094,40.609176635742187,New York,2,2,NY CITY CENTRAL PARK NY US,WBAN:94728,1,FM-15,None,None,None,None,None,None,None,None,None,None,None,None,-9999,-9999,None,None,None,-9999,-9999,None,None,None,None,None,None,None,None,None,None,None,None,None,None,None,None,None,None,None,None,None,None,None,None,-73.9669,40.7889,14,24,VRB,10,-12.0,10.00,30.23,30.39,CLR:00,54,1,None,0.00,None,-1,-18.3,13,-10.6,30.40,39.6,2016-01-05 00:51,None,None,None,2143,1220,None,None,None,None,None,None,None,None,None,None,None,None,None,None,None,None
2.20,2016-01-05 00:00:39,2016-01-05 00:08:41,10.3,0,0,N,None,None,None,None,-73.969871520996094,40.768508911132813,2,1,0.5,None,None,0.3,9,0.5,-73.949348449707031,40.787765502929688,None,None,1,NY CITY CENTRAL PARK NY US,WBAN:94728,1,FM-15,None,None,None,None,None,None,None,None,None,None,None,None,-9999,-9999,None,None,None,-9999,-9999,None,None,None,None,None,None,None,None,None,None,None,None,None,None,None,None,None,None,None,None,None,None,None,None,-73.9669,40.7889,14,24,VRB,10,-12.0,10.00,30.23,30.39,CLR:00,54,1,None,0.00,None,-1,-18.3,13,-10.6,30.40,39.6,2016-01-05 00:51,None,None,None,2143,1220,None,None,None,None,None,None,None,None,None,None,None,None,None,None,None,None
4.30,2016-01-05 00:00:40,2016-01-05 00:14:03,16.8,0,0,N,None,None,None,None,-73.966178894042969,40.762222290039063,2,1,0.5,None,None,0.3,15.5,0.5,-73.897758483886719,40.743141174316406,None,None,1,NY CITY CENTRAL PARK NY US,WBAN:94728,1,FM-15,None,None,None,None,None,None,None,None,None,None,None,None,-9999,-9999,None,None,None,-9999,-9999,None,None,None,None,None,None,None,None,None,None,None,None,None,None,None,None,None,None,None,None,None,None,None,None,-73.9669,40.7889,14,24,VRB,10,-12.0,10.00,30.23,30.39,CLR:00,54,1,None,0.00,None,-1,-18.3,13,-10.6,30.40,39.6,2016-01-05 00:51,None,None,None,2143,1220,None,None,None,None,None,None,None,None,None,None,None,None,None,None,None,None
1.30,2016-01-05 00:00:40,2016-01-05 00:11:05,10.8,0,1,N,None,2016-01-01 12:00:00,New York,10029,-74.004379272460937,40.742252349853516,1,2,0.5,-73.9519050,40.7924950,0.3,8.5,0.5,-73.984222412109375,40.738197326660156,New York,0,1,NY CITY CENTRAL PARK NY US,WBAN:94728,1,FM-15,None,None,None,None,None,None,None,None,None,None,None,None,-9999,-9999,None,None,None,-9999,-9999,None,None,None,None,None,None,None,None,None,None,None,None,None,None,None,None,None,None,None,None,None,None,None,None,-73.9669,40.7889,14,24,VRB,10,-12.0,10.00,30.23,30.39,CLR:00,54,1,None,0.00,None,-1,-18.3,13,-10.6,30.40,39.6,2016-01-05 00:51,None,None,None,2143,1220,None,None,None,None,None,None,None,None,None,None,None,None,None,None,None,None
1.03,2016-01-05 00:00:40,2016-01-05 00:07:33,7.8,0,0,N,None,None,None,None,-73.9913330078125,40.723892211914063,2,1,0.5,None,None,0.3,6.5,0.5,-73.983688354492187,40.721515655517578,None,None,2,NY CITY CENTRAL PARK NY US,WBAN:94728,1,FM-15,None,None,None,None,None,None,None,None,None,None,None,None,-9999,-9999,None,None,None,-9999,-9999,None,None,None,None,None,None,None,None,None,None,None,None,None,None,None,None,None,None,None,None,None,None,None,None,-73.9669,40.7889,14,24,VRB,10,-12.0,10.00,30.23,30.39,CLR:00,54,1,None,0.00,None,-1,-18.3,13,-10.6,30.40,39.6,2016-01-05 00:51,None,None,None,2143,1220,None,None,None,None,None,None,None,None,None,None,None,None,None,None,None,None
.00,2016-01-05 00:00:41,2016-01-05 00:00:46,20.8,0,0,N,None,None,None,None,0,0,2,5,0,None,None,0.3,20,0.5,0,0,None,None,2,NY CITY CENTRAL PARK NY US,WBAN:94728,3,FM-15,None,None,None,None,None,None,None,None,None,None,None,None,-9999,-9999,None,None,None,-9999,-9999,None,None,None,None,None,None,None,None,None,None,None,None,None,None,None,None,None,None,None,None,None,None,None,None,-73.9669,40.7889,14,24,VRB,10,-12.0,10.00,30.23,30.39,CLR:00,54,1,None,0.00,None,-1,-18.3,13,-10.6,30.40,39.6,2016-01-05 00:51,None,None,None,2143,1220,None,None,None,None,None,None,None,None,None,None,None,None,None,None,None,None
1.10,2016-01-05 00:00:44,2016-01-05 00:05:15,8.3,0,1,N,None | None,2016-01-01 03:00:00 | 2016-01-01 11:00:00,New York | New York,10002 | 10002,-73.974159240722656,40.795730590820313,1,1,0.5,-73.9847 | -73.9847,40.7182 | 40.7182,0.3,6,0.5,-73.962516784667969,40.804931640625,New York | New York,0 | 0,2,NY CITY CENTRAL PARK NY US,WBAN:94728,1,FM-15,None,None,None,None,None,None,None,None,None,None,None,None,-9999,-9999,None,None,None,-9999,-9999,None,None,None,None,None,None,None,None,None,None,None,None,None,None,None,None,None,None,None,None,None,None,None,None,-73.9669,40.7889,14,24,VRB,10,-12.0,10.00,30.23,30.39,CLR:00,54,1,None,0.00,None,-1,-18.3,13,-10.6,30.40,39.6,2016-01-05 00:51,None,None,None,2143,1220,None,None,None,None,None,None,None,None,None,None,None,None,None,None,None,None
1.85,2016-01-05 00:00:45,2016-01-05 00:09:17,9.8,0,0,N,None,None,None,None,-73.99420166015625,40.726470947265625,2,6,0.5,None,None,0.3,8.5,0.5,-74.014747619628906,40.716201782226563,None,None,2,NY CITY CENTRAL PARK NY US,WBAN:94728,1,FM-15,None,None,None,None,None,None,None,None,None,None,None,None,-9999,-9999,None,None,None,-9999,-9999,None,None,None,None,None,None,None,None,None,None,None,None,None,None,None,None,None,None,None,None,None,None,None,None,-73.9669,40.7889,14,24,VRB,10,-12.0,10.00,30.23,30.39,CLR:00,54,1,None,0.00,None,-1,-18.3,13,-10.6,30.40,39.6,2016-01-05 00:51,None,None,None,2143,1220,None,None,None,None,None,None,None,None,None,None,None,None,None,None,None,None
1.43,2016-01-05 00:00:47,2016-01-05 00:12:38,8.8,0,0,N,None,None,None,None,-73.989639282226563,40.734397888183594,2,1,0.5,None,None,0.3,7.5,0.5,-73.978790283203125,40.724113464355469,None,None,2,NY CITY CENTRAL PARK NY US,WBAN:94728,1,FM-15,None,None,None,None,None,None,None,None,None,None,None,None,-9999,-9999,None,None,None,-9999,-9999,None,None,None,None,None,None,None,None,None,None,None,None,None,None,None,None,None,None,None,None,None,None,None,None,-73.9669,40.7889,14,24,VRB,10,-12.0,10.00,30.23,30.39,CLR:00,54,1,None,0.00,None,-1,-18.3,13,-10.6,30.40,39.6,2016-01-05 00:51,None,None,None,2143,1220,None,None,None,None,None,None,None,None,None,None,None,None,None,None,None,None
4.93,2016-01-05 00:00:47,2016-01-05 00:18:25,22.56,0,3.76,N,None | None,2016-01-01 00:00:00 | 2016-01-01 00:00:00,New York | New York,None | None,-74.001480102539063,40.727439880371094,1,1,0.5,-74.0064 | -74.0064,40.7142 | 40.7142,0.3,17.5,0.5,-73.956451416015625,40.768150329589844,New York | New York,1 | 1,2,NY CITY CENTRAL PARK NY US,WBAN:94728,1,FM-15,None,None,None,None,None,None,None,None,None,None,None,None,-9999,-9999,None,None,None,-9999,-9999,None,None,None,None,None,None,None,None,None,None,None,None,None,None,None,None,None,None,None,None,None,None,None,None,-73.9669,40.7889,14,24,VRB,10,-12.0,10.00,30.23,30.39,CLR:00,54,1,None,0.00,None,-1,-18.3,13,-10.6,30.40,39.6,2016-01-05 00:51,None,None,None,2143,1220,None,None,None,None,None,None,None,None,None,None,None,None,None,None,None,None
.80,2016-01-05 00:00:48,2016-01-05 00:03:38,7.25,0,1.45,N,None,None,None,None,-73.979156494140625,40.740509033203125,1,1,0.5,None,None,0.3,4.5,0.5,-73.988525390625,40.734645843505859,None,None,1,NY CITY CENTRAL PARK NY US,WBAN:94728,1,FM-15,None,None,None,None,None,None,None,None,None,None,None,None,-9999,-9999,None,None,None,-9999,-9999,None,None,None,None,None,None,None,None,None,None,None,None,None,None,None,None,None,None,None,None,None,None,None,None,-73.9669,40.7889,14,24,VRB,10,-12.0,10.00,30.23,30.39,CLR:00,54,1,None,0.00,None,-1,-18.3,13,-10.6,30.40,39.6,2016-01-05 00:51,None,None,None,2143,1220,None,None,None,None,None,None,None,None,None,None,None,None,None,None,None,None
8.70,2016-01-05 00:00:49,2016-01-05 00:13:15,26.3,0,0,N,None,None,None,None,-73.953926086425781,40.766944885253906,1,2,0.5,None,None,0.3,25,0.5,-73.924461364746094,40.861392974853516,None,None,1,NY CITY CENTRAL PARK NY US,WBAN:94728,1,FM-15,None,None,None,None,None,None,None,None,None,None,None,None,-9999,-9999,None,None,None,-9999,-9999,None,None,None,None,None,None,None,None,None,None,None,None,None,None,None,None,None,None,None,None,None,None,None,None,-73.9669,40.7889,14,24,VRB,10,-12.0,10.00,30.23,30.39,CLR:00,54,1,None,0.00,None,-1,-18.3,13,-10.6,30.40,39.6,2016-01-05 00:51,None,None,None,2143,1220,None,None,None,None,None,None,None,None,None,None,None,None,None,None,None,None
1.22,2016-01-05 00:00:49,2016-01-05 00:09:01,8.8,0,0,N,None,2016-01-01 09:00:00,New York,10003,-73.982139587402344,40.771686553955078,2,1,0.5,-73.9870210,40.7308580,0.3,7.5,0.5,-73.974456787109375,40.762485504150391,New York,0,2,NY CITY CENTRAL PARK NY US,WBAN:94728,1,FM-15,None,None,None,None,None,None,None,None,None,None,None,None,-9999,-9999,None,None,None,-9999,-9999,None,None,None,None,None,None,None,None,None,None,None,None,None,None,None,None,None,None,None,None,None,None,None,None,-73.9669,40.7889,14,24,VRB,10,-12.0,10.00,30.23,30.39,CLR:00,54,1,None,0.00,None,-1,-18.3,13,-10.6,30.40,39.6,2016-01-05 00:51,None,None,None,2143,1220,None,None,None,None,None,None,None,None,None,None,None,None,None,None,None,None
11.87,2016-01-05 00:00:50,2016-01-05 00:19:47,42.88,0,8.58,N,None,None,None,None,-73.78082275390625,40.645183563232422,1,2,0.5,None,None,0.3,33,0.5,-73.890846252441406,40.743007659912109,None,None,2,NY CITY CENTRAL PARK NY US,WBAN:94728,1,FM-15,None,None,None,None,None,None,None,None,None,None,None,None,-9999,-9999,None,None,None,-9999,-9999,None,None,None,None,None,None,None,None,None,None,None,None,None,None,None,None,None,None,None,None,None,None,None,None,-73.9669,40.7889,14,24,VRB,10,-12.0,10.00,30.23,30.39,CLR:00,54,1,None,0.00,None,-1,-18.3,13,-10.6,30.40,39.6,2016-01-05 00:51,None,None,None,2143,1220,None,None,None,None,None,None,None,None,None,None,None,None,None,None,None,None
.72,2016-01-05 00:00:50,2016-01-05 00:06:29,8.16,0,1.36,N,None | 2016-12-31 00:00:00,2016-01-01 00:00:00 | 2016-01-01 00:00:00,New York | New York,10019 | 10022,-73.997398376464844,40.720748901367188,1,6,0.5,-73.9803996 | -73.968,40.7656668 | 40.759,0.3,5.5,0.5,-73.999183654785156,40.7279052734375,New York | New York,1 | 2,2,NY CITY CENTRAL PARK NY US,WBAN:94728,1,FM-15,None,None,None,None,None,None,None,None,None,None,None,None,-9999,-9999,None,None,None,-9999,-9999,None,None,None,None,None,None,None,None,None,None,None,None,None,None,None,None,None,None,None,None,None,None,None,None,-73.9669,40.7889,14,24,VRB,10,-12.0,10.00,30.23,30.39,CLR:00,54,1,None,0.00,None,-1,-18.3,13,-10.6,30.40,39.6,2016-01-05 00:51,None,None,None,2143,1220,None,None,None,None,None,None,None,None,None,None,None,None,None,None,None,None
3.10,2016-01-05 00:00:52,2016-01-05 00:29:50,24.95,0,4.15,N,None,None,None,None,-73.984046936035156,40.755279541015625,1,2,0.5,None,None,0.3,19.5,0.5,-73.995147705078125,40.720634460449219,None,None,1,NY CITY CENTRAL PARK NY US,WBAN:94728,1,FM-15,None,None,None,None,None,None,None,None,None,None,None,None,-9999,-9999,None,None,None,-9999,-9999,None,None,None,None,None,None,None,None,None,None,None,None,None,None,None,None,None,None,None,None,None,None,None,None,-73.9669,40.7889,14,24,VRB,10,-12.0,10.00,30.23,30.39,CLR:00,54,1,None,0.00,None,-1,-18.3,13,-10.6,30.40,39.6,2016-01-05 00:51,None,None,None,2143,1220,None,None,None,None,None,None,None,None,None,None,None,None,None,None,None,None
1.80,2016-01-05 00:00:52,2016-01-05 00:08:00,9.3,0,0,N,None,None,None,None,-73.983871459960937,40.742408752441406,2,3,0.5,None,None,0.3,8,0.5,-74.002365112304687,40.726348876953125,None,None,1,NY CITY CENTRAL PARK NY US,WBAN:94728,1,FM-15,None,None,None,None,None,None,None,None,None,None,None,None,-9999,-9999,None,None,None,-9999,-9999,None,None,None,None,None,None,None,None,None,None,None,None,None,None,None,None,None,None,None,None,None,None,None,None,-73.9669,40.7889,14,24,VRB,10,-12.0,10.00,30.23,30.39,CLR:00,54,1,None,0.00,None,-1,-18.3,13,-10.6,30.40,39.6,2016-01-05 00:51,None,None,None,2143,1220,None,None,None,None,None,None,None,None,None,None,None,None,None,None,None,None
2.50,2016-01-05 00:00:52,2016-01-05 00:11:18,11.8,0,0,N,None,None,None,None,-73.995750427246094,40.744091033935547,2,1,0.5,None,None,0.3,10.5,0.5,-74.009750366210937,40.712760925292969,None,None,2,NY CITY CENTRAL PARK NY US,WBAN:94728,1,FM-15,None,None,None,None,None,None,None,None,None,None,None,None,-9999,-9999,None,None,None,-9999,-9999,None,None,None,None,None,None,None,None,None,None,None,None,None,None,None,None,None,None,None,None,None,None,None,None,-73.9669,40.7889,14,24,VRB,10,-12.0,10.00,30.23,30.39,CLR:00,54,1,None,0.00,None,-1,-18.3,13,-10.6,30.40,39.6,2016-01-05 00:51,None,None,None,2143,1220,None,None,None,None,None,None,None,None,None,None,None,None,None,None,None,None
4.90,2016-01-05 00:00:53,2016-01-05 00:22:27,22,0,1.7,N,None,2016-01-01 20:00:00,New York,10013,-73.985084533691406,40.747165679931641,1,1,0.5,-74.0050159,40.7208412,0.3,19,0.5,-73.958038330078125,40.717491149902344,New York,0,1,NY CITY CENTRAL PARK NY US,WBAN:94728,1,FM-15,None,None,None,None,None,None,None,None,None,None,None,None,-9999,-9999,None,None,None,-9999,-9999,None,None,None,None,None,None,None,None,None,None,None,None,None,None,None,None,None,None,None,None,None,None,None,None,-73.9669,40.7889,14,24,VRB,10,-12.0,10.00,30.23,30.39,CLR:00,54,1,None,0.00,None,-1,-18.3,13,-10.6,30.40,39.6,2016-01-05 00:51,None,None,None,2143,1220,None,None,None,None,None,None,None,None,None,None,None,None,None,None,None,None
1.53,2016-01-05 00:00:54,2016-01-05 00:08:43,11.16,0,1.86,N,None | None | None,2016-01-01 00:00:00 | 2016-01-01 00:00:00 | 2016-01-01 02:00:00,New York | New York | New York,None | None | 10038,-73.971000671386719,40.797641754150391,1,1,0.5,-74.0064 | -74.0064 | -74.0081571,40.7142 | 40.7142 | 40.7090990,0.3,8,0.5,-73.953697204589844,40.785129547119141,New York | New York | New York,1 | 1 | 0,2,NY CITY CENTRAL PARK NY US,WBAN:94728,1,FM-15,None,None,None,None,None,None,None,None,None,None,None,None,-9999,-9999,None,None,None,-9999,-9999,None,None,None,None,None,None,None,None,None,None,None,None,None,None,None,None,None,None,None,None,None,None,None,None,-73.9669,40.7889,14,24,VRB,10,-12.0,10.00,30.23,30.39,CLR:00,54,1,None,0.00,None,-1,-18.3,13,-10.6,30.40,39.6,2016-01-05 00:51,None,None,None,2143,1220,None,None,None,None,None,None,None,None,None,None,None,None,None,None,None,None
1.10,2016-01-05 00:00:55,2016-01-05 00:17:14,12.3,0,0,N,None,None,None,None,-73.984153747558594,40.764858245849609,2,1,0.5,None,None,0.3,11,0.5,-73.97802734375,40.762935638427734,None,None,1,NY CITY CENTRAL PARK NY US,WBAN:94728,1,FM-15,None,None,None,None,None,None,None,None,None,None,None,None,-9999,-9999,None,None,None,-9999,-9999,None,None,None,None,None,None,None,None,None,None,None,None,None,None,None,None,None,None,None,None,None,None,None,None,-73.9669,40.7889,14,24,VRB,10,-12.0,10.00,30.23,30.39,CLR:00,54,1,None,0.00,None,-1,-18.3,13,-10.6,30.40,39.6,2016-01-05 00:51,None,None,None,2143,1220,None,None,None,None,None,None,None,None,None,None,None,None,None,None,None,None
15.64,2016-01-05 00:00:55,2016-01-05 00:28:34,45.3,0,0,N,None,None,None,None,-73.787139892578125,40.644050598144531,2,4,0.5,None,None,0.3,44,0.5,-73.94842529296875,40.730735778808594,None,None,2,NY CITY CENTRAL PARK NY US,WBAN:94728,1,FM-15,None,None,None,None,None,None,None,None,None,None,None,None,-9999,-9999,None,None,None,-9999,-9999,None,None,None,None,None,None,None,None,None,None,None,None,None,None,None,None,None,None,None,None,None,None,None,None,-73.9669,40.7889,14,24,VRB,10,-12.0,10.00,30.23,30.39,CLR:00,54,1,None,0.00,None,-1,-18.3,13,-10.6,30.40,39.6,2016-01-05 00:51,None,None,None,2143,1220,None,None,None,None,None,None,None,None,None,None,None,None,None,None,None,None
5.70,2016-01-05 00:00:56,2016-01-05 00:17:24,37.8,10.5,8,N,None | 2016-07-03 00:00:00,2016-01-01 00:00:00 | 2015-10-08 00:00:00,New York | New York,10019 | 10019,-73.987724304199219,40.750568389892578,1,1,0.5,-73.9803996 | -73.9844951,40.7656668 | 40.7632328,0.3,18,0.5,-74.035568237304688,40.713573455810547,New York | New York,1 | 2,1,NY CITY CENTRAL PARK NY US,WBAN:94728,1,FM-15,None,None,None,None,None,None,None,None,None,None,None,None,-9999,-9999,None,None,None,-9999,-9999,None,None,None,None,None,None,None,None,None,None,None,None,None,None,None,None,None,None,None,None,None,None,None,None,-73.9669,40.7889,14,24,VRB,10,-12.0,10.00,30.23,30.39,CLR:00,54,1,None,0.00,None,-1,-18.3,13,-10.6,30.40,39.6,2016-01-05 00:51,None,None,None,2143,1220,None,None,None,None,None,None,None,None,None,None,None,None,None,None,None,None
2.56,2016-01-05 00:00:57,2016-01-05 00:10:48,14.16,0,2.36,N,None,None,None,None,-73.979652404785156,40.776119232177734,1,6,0.5,None,None,0.3,10.5,0.5,-73.964683532714844,40.806755065917969,None,None,2,NY CITY CENTRAL PARK NY US,WBAN:94728,1,FM-15,None,None,None,None,None,None,None,None,None,None,None,None,-9999,-9999,None,None,None,-9999,-9999,None,None,None,None,None,None,None,None,None,None,None,None,None,None,None,None,None,None,None,None,None,None,None,None,-73.9669,40.7889,14,24,VRB,10,-12.0,10.00,30.23,30.39,CLR:00,54,1,None,0.00,None,-1,-18.3,13,-10.6,30.40,39.6,2016-01-05 00:51,None,None,None,2143,1220,None,None,None,None,None,None,None,None,None,None,None,None,None,None,None,None
15.25,2016-01-05 00:01:00,2016-01-05 00:18:06,41.8,0,0,N,None,None,None,None,-73.781806945800781,40.644863128662109,1,3,0.5,None,None,0.3,40.5,0.5,-73.937973022460938,40.726325988769531,None,None,2,NY CITY CENTRAL PARK NY US,WBAN:94728,1,FM-15,None,None,None,None,None,None,None,None,None,None,None,None,-9999,-9999,None,None,None,-9999,-9999,None,None,None,None,None,None,None,None,None,None,None,None,None,None,None,None,None,None,None,None,None,None,None,None,-73.9669,40.7889,14,24,VRB,10,-12.0,10.00,30.23,30.39,CLR:00,54,1,None,0.00,None,-1,-18.3,13,-10.6,30.40,39.6,2016-01-05 00:51,None,None,None,2143,1220,None,None,None,None,None,None,None,None,None,None,None,None,None,None,None,None
1.65,2016-01-05 00:01:01,2016-01-05 00:07:49,8.8,0,0,N,None,None,None,None,-73.965278625488281,40.801040649414063,2,5,0.5,None,None,0.3,7.5,0.5,-73.947479248046875,40.815170288085937,None,None,2,NY CITY CENTRAL PARK NY US,WBAN:94728,1,FM-15,None,None,None,None,None,None,None,None,None,None,None,None,-9999,-9999,None,None,None,-9999,-9999,None,None,None,None,None,None,None,None,None,None,None,None,None,None,None,None,None,None,None,None,None,None,None,None,-73.9669,40.7889,14,24,VRB,10,-12.0,10.00,30.23,30.39,CLR:00,54,1,None,0.00,None,-1,-18.3,13,-10.6,30.40,39.6,2016-01-05 00:51,None,None,None,2143,1220,None,None,None,None,None,None,None,None,None,None,None,None,None,None,None,None
7.85,2016-01-05 00:01:01,2016-01-05 00:13:08,35.21,5.54,5.87,N,None,None,None,None,-73.979629516601563,40.743255615234375,1,6,0.5,None,None,0.3,22.5,0.5,-73.911872863769531,40.764629364013672,None,None,2,NY CITY CENTRAL PARK NY US,WBAN:94728,1,FM-15,None,None,None,None,None,None,None,None,None,None,None,None,-9999,-9999,None,None,None,-9999,-9999,None,None,None,None,None,None,None,None,None,None,None,None,None,None,None,None,None,None,None,None,None,None,None,None,-73.9669,40.7889,14,24,VRB,10,-12.0,10.00,30.23,30.39,CLR:00,54,1,None,0.00,None,-1,-18.3,13,-10.6,30.40,39.6,2016-01-05 00:51,None,None,None,2143,1220,None,None,None,None,None,None,None,None,None,None,None,None,None,None,None,None
1.28,2016-01-05 00:01:03,2016-01-05 00:20:29,12.8,0,0,N,None,None,None,None,-73.984420776367188,40.767238616943359,2,2,0.5,None,None,0.3,11.5,0.5,-73.978599548339844,40.754261016845703,None,None,2,NY CITY CENTRAL PARK NY US,WBAN:94728,1,FM-15,None,None,None,None,None,None,None,None,None,None,None,None,-9999,-9999,None,None,None,-9999,-9999,None,None,None,None,None,None,None,None,None,None,None,None,None,None,None,None,None,None,None,None,None,None,None,None,-73.9669,40.7889,14,24,VRB,10,-12.0,10.00,30.23,30.39,CLR:00,54,1,None,0.00,None,-1,-18.3,13,-10.6,30.40,39.6,2016-01-05 00:51,None,None,None,2143,1220,None,None,None,None,None,None,None,None,None,None,None,None,None,None,None,None
3.18,2016-01-05 00:01:06,2016-01-05 00:26:34,18.3,0,0,N,None,None,None,None,-74.010993957519531,40.708873748779297,2,1,0.5,None,None,0.3,17,0.5,-73.988052368164063,40.749320983886719,None,None,2,NY CITY CENTRAL PARK NY US,WBAN:94728,1,FM-15,None,None,None,None,None,None,None,None,None,None,None,None,-9999,-9999,None,None,None,-9999,-9999,None,None,None,None,None,None,None,None,None,None,None,None,None,None,None,None,None,None,None,None,None,None,None,None,-73.9669,40.7889,14,24,VRB,10,-12.0,10.00,30.23,30.39,CLR:00,54,1,None,0.00,None,-1,-18.3,13,-10.6,30.40,39.6,2016-01-05 00:51,None,None,None,2143,1220,None,None,None,None,None,None,None,None,None,None,None,None,None,None,None,None
.56,2016-01-05 00:01:06,2016-01-05 00:04:38,5.8,0,0,N,None,None,None,None,-73.980743408203125,40.746910095214844,2,1,0.5,None,None,0.3,4.5,0.5,-73.990867614746094,40.75115966796875,None,None,2,NY CITY CENTRAL PARK NY US,WBAN:94728,1,FM-15,None,None,None,None,None,None,None,None,None,None,None,None,-9999,-9999,None,None,None,-9999,-9999,None,None,None,None,None,None,None,None,None,None,None,None,None,None,None,None,None,None,None,None,None,None,None,None,-73.9669,40.7889,14,24,VRB,10,-12.0,10.00,30.23,30.39,CLR:00,54,1,None,0.00,None,-1,-18.3,13,-10.6,30.40,39.6,2016-01-05 00:51,None,None,None,2143,1220,None,None,None,None,None,None,None,None,None,None,None,None,None,None,None,None
.94,2016-01-05 00:01:07,2016-01-05 00:05:04,6.3,0,0,N,None,None,None,None,-73.991973876953125,40.726478576660156,2,2,0.5,None,None,0.3,5,0.5,-74.003082275390625,40.722049713134766,None,None,2,NY CITY CENTRAL PARK NY US,WBAN:94728,1,FM-15,None,None,None,None,None,None,None,None,None,None,None,None,-9999,-9999,None,None,None,-9999,-9999,None,None,None,None,None,None,None,None,None,None,None,None,None,None,None,None,None,None,None,None,None,None,None,None,-73.9669,40.7889,14,24,VRB,10,-12.0,10.00,30.23,30.39,CLR:00,54,1,None,0.00,None,-1,-18.3,13,-10.6,30.40,39.6,2016-01-05 00:51,None,None,None,2143,1220,None,None,None,None,None,None,None,None,None,None,None,None,None,None,None,None
3.20,2016-01-05 00:01:08,2016-01-05 00:19:36,18.95,0,3.15,N,None,None,None,None,-74.00213623046875,40.760639190673828,1,1,0.5,None,None,0.3,14.5,0.5,-73.972892761230469,40.743450164794922,None,None,1,NY CITY CENTRAL PARK NY US,WBAN:94728,1,FM-15,None,None,None,None,None,None,None,None,None,None,None,None,-9999,-9999,None,None,None,-9999,-9999,None,None,None,None,None,None,None,None,None,None,None,None,None,None,None,None,None,None,None,None,None,None,None,None,-73.9669,40.7889,14,24,VRB,10,-12.0,10.00,30.23,30.39,CLR:00,54,1,None,0.00,None,-1,-18.3,13,-10.6,30.40,39.6,2016-01-05 00:51,None,None,None,2143,1220,None,None,None,None,None,None,None,None,None,None,None,None,None,None,None,None
2.70,2016-01-05 00:01:08,2016-01-05 00:17:13,18.55,0,4.25,N,None,2016-01-01 20:00:00,New York,10013,-73.994972229003906,40.760234832763672,1,1,0.5,-74.0050159,40.7208412,0.3,13,0.5,-74.00152587890625,40.735855102539063,New York,0,1,NY CITY CENTRAL PARK NY US,WBAN:94728,1,FM-15,None,None,None,None,None,None,None,None,None,None,None,None,-9999,-9999,None,None,None,-9999,-9999,None,None,None,None,None,None,None,None,None,None,None,None,None,None,None,None,None,None,None,None,None,None,None,None,-73.9669,40.7889,14,24,VRB,10,-12.0,10.00,30.23,30.39,CLR:00,54,1,None,0.00,None,-1,-18.3,13,-10.6,30.40,39.6,2016-01-05 00:51,None,None,None,2143,1220,None,None,None,None,None,None,None,None,None,None,None,None,None,None,None,None
5.00,2016-01-05 00:01:08,2016-01-05 00:23:22,25.3,0,4.5,N,None,None,None,None,-74.002265930175781,40.730369567871094,1,1,0.5,None,None,0.3,19.5,0.5,-73.951683044433594,40.77349853515625,None,None,1,NY CITY CENTRAL PARK NY US,WBAN:94728,1,FM-15,None,None,None,None,None,None,None,None,None,None,None,None,-9999,-9999,None,None,None,-9999,-9999,None,None,None,None,None,None,None,None,None,None,None,None,None,None,None,None,None,None,None,None,None,None,None,None,-73.9669,40.7889,14,24,VRB,10,-12.0,10.00,30.23,30.39,CLR:00,54,1,None,0.00,None,-1,-18.3,13,-10.6,30.40,39.6,2016-01-05 00:51,None,None,None,2143,1220,None,None,None,None,None,None,None,None,None,None,None,None,None,None,None,None
1.60,2016-01-05 00:01:09,2016-01-05 00:06:37,9.35,0,1.55,N,None,None,None,None,-73.980827331542969,40.779640197753906,1,2,0.5,None,None,0.3,6.5,0.5,-73.971412658691406,40.798587799072266,None,None,1,NY CITY CENTRAL PARK NY US,WBAN:94728,1,FM-15,None,None,None,None,None,None,None,None,None,None,None,None,-9999,-9999,None,None,None,-9999,-9999,None,None,None,None,None,None,None,None,None,None,None,None,None,None,None,None,None,None,None,None,None,None,None,None,-73.9669,40.7889,14,24,VRB,10,-12.0,10.00,30.23,30.39,CLR:00,54,1,None,0.00,None,-1,-18.3,13,-10.6,30.40,39.6,2016-01-05 00:51,None,None,None,2143,1220,None,None,None,None,None,None,None,None,None,None,None,None,None,None,None,None
.58,2016-01-05 00:01:09,2016-01-05 00:05:23,7.56,0,1.26,N,None,None,None,None,-73.998077392578125,40.737968444824219,1,1,0.5,None,None,0.3,5,0.5,-74.004127502441406,40.742790222167969,None,None,2,NY CITY CENTRAL PARK NY US,WBAN:94728,1,FM-15,None,None,None,None,None,None,None,None,None,None,None,None,-9999,-9999,None,None,None,-9999,-9999,None,None,None,None,None,None,None,None,None,None,None,None,None,None,None,None,None,None,None,None,None,None,None,None,-73.9669,40.7889,14,24,VRB,10,-12.0,10.00,30.23,30.39,CLR:00,54,1,None,0.00,None,-1,-18.3,13,-10.6,30.40,39.6,2016-01-05 00:51,None,None,None,2143,1220,None,None,None,None,None,None,None,None,None,None,None,None,None,None,None,None
6.00,2016-01-05 00:01:10,2016-01-05 00:36:55,32.16,0,5.36,N,None,None,None,None,-73.999443054199219,40.729835510253906,1,2,0.5,None,None,0.3,25.5,0.5,-73.964179992675781,40.803153991699219,None,None,1,NY CITY CENTRAL PARK NY US,WBAN:94728,1,FM-15,None,None,None,None,None,None,None,None,None,None,None,None,-9999,-9999,None,None,None,-9999,-9999,None,None,None,None,None,None,None,None,None,None,None,None,None,None,None,None,None,None,None,None,None,None,None,None,-73.9669,40.7889,14,24,VRB,10,-12.0,10.00,30.23,30.39,CLR:00,54,1,None,0.00,None,-1,-18.3,13,-10.6,30.40,39.6,2016-01-05 00:51,None,None,None,2143,1220,None,None,None,None,None,None,None,None,None,None,None,None,None,None,None,None
2.51,2016-01-05 00:01:10,2016-01-05 00:08:00,10.8,0,0,N,None,None,None,None,-73.932708740234375,40.752861022949219,2,5,0.5,None,None,0.3,9.5,0.5,-73.963615417480469,40.757640838623047,None,None,2,NY CITY CENTRAL PARK NY US,WBAN:94728,1,FM-15,None,None,None,None,None,None,None,None,None,None,None,None,-9999,-9999,None,None,None,-9999,-9999,None,None,None,None,None,None,None,None,None,None,None,None,None,None,None,None,None,None,None,None,None,None,None,None,-73.9669,40.7889,14,24,VRB,10,-12.0,10.00,30.23,30.39,CLR:00,54,1,None,0.00,None,-1,-18.3,13,-10.6,30.40,39.6,2016-01-05 00:51,None,None,None,2143,1220,None,None,None,None,None,None,None,None,None,None,None,None,None,None,None,None
1.24,2016-01-05 00:01:10,2016-01-05 00:24:39,15.8,0,0,N,None,None,None,None,-73.981689453125,40.768390655517578,2,4,0.5,None,None,0.3,14.5,0.5,-73.979751586914063,40.755538940429688,None,None,2,NY CITY CENTRAL PARK NY US,WBAN:94728,1,FM-15,None,None,None,None,None,None,None,None,None,None,None,None,-9999,-9999,None,None,None,-9999,-9999,None,None,None,None,None,None,None,None,None,None,None,None,None,None,None,None,None,None,None,None,None,None,None,None,-73.9669,40.7889,14,24,VRB,10,-12.0,10.00,30.23,30.39,CLR:00,54,1,None,0.00,None,-1,-18.3,13,-10.6,30.40,39.6,2016-01-05 00:51,None,None,None,2143,1220,None,None,None,None,None,None,None,None,None,None,None,None,None,None,None,None
1.50,2016-01-05 00:01:11,2016-01-05 00:08:06,11,0,2.2,N,2016-12-31 00:00:00,2016-01-01 00:00:00,New York,10022,-74.003486633300781,40.741569519042969,1,1,0.5,-73.968,40.759,0.3,7.5,0.5,-74.002357482910156,40.726341247558594,New York,2,1,NY CITY CENTRAL PARK NY US,WBAN:94728,1,FM-15,None,None,None,None,None,None,None,None,None,None,None,None,-9999,-9999,None,None,None,-9999,-9999,None,None,None,None,None,None,None,None,None,None,None,None,None,None,None,None,None,None,None,None,None,None,None,None,-73.9669,40.7889,14,24,VRB,10,-12.0,10.00,30.23,30.39,CLR:00,54,1,None,0.00,None,-1,-18.3,13,-10.6,30.40,39.6,2016-01-05 00:51,None,None,None,2143,1220,None,None,None,None,None,None,None,None,None,None,None,None,None,None,None,None
1.40,2016-01-05 00:01:11,2016-01-05 00:07:04,10.75,0,2.45,N,None,None,None,None,-73.977943420410156,40.783676147460938,1,2,0.5,None,None,0.3,7,0.5,-73.955589294433594,40.773441314697266,None,None,1,NY CITY CENTRAL PARK NY US,WBAN:94728,1,FM-15,None,None,None,None,None,None,None,None,None,None,None,None,-9999,-9999,None,None,None,-9999,-9999,None,None,None,None,None,None,None,None,None,None,None,None,None,None,None,None,None,None,None,None,None,None,None,None,-73.9669,40.7889,14,24,VRB,10,-12.0,10.00,30.23,30.39,CLR:00,54,1,None,0.00,None,-1,-18.3,13,-10.6,30.40,39.6,2016-01-05 00:51,None,None,None,2143,1220,None,None,None,None,None,None,None,None,None,None,None,None,None,None,None,None
1.89,2016-01-05 00:01:11,2016-01-05 00:11:15,10.3,0,0,N,None,2016-01-01 20:00:00,New York,10013,-73.992568969726563,40.739616394042969,2,1,0.5,-74.0050159,40.7208412,0.3,9,0.5,-73.995315551757812,40.721817016601563,New York,0,2,NY CITY CENTRAL PARK NY US,WBAN:94728,1,FM-15,None,None,None,None,None,None,None,None,None,None,None,None,-9999,-9999,None,None,None,-9999,-9999,None,None,None,None,None,None,None,None,None,None,None,None,None,None,None,None,None,None,None,None,None,None,None,None,-73.9669,40.7889,14,24,VRB,10,-12.0,10.00,30.23,30.39,CLR:00,54,1,None,0.00,None,-1,-18.3,13,-10.6,30.40,39.6,2016-01-05 00:51,None,None,None,2143,1220,None,None,None,None,None,None,None,None,None,None,None,None,None,None,None,None
2.15,2016-01-05 00:01:12,2016-01-05 00:18:49,17.16,0,2.86,N,None,None,None,None,-73.977760314941406,40.752281188964844,1,1,0.5,None,None,0.3,13,0.5,-73.956825256347656,40.768070220947266,None,None,2,NY CITY CENTRAL PARK NY US,WBAN:94728,1,FM-15,None,None,None,None,None,None,None,None,None,None,None,None,-9999,-9999,None,None,None,-9999,-9999,None,None,None,None,None,None,None,None,None,None,None,None,None,None,None,None,None,None,None,None,None,None,None,None,-73.9669,40.7889,14,24,VRB,10,-12.0,10.00,30.23,30.39,CLR:00,54,1,None,0.00,None,-1,-18.3,13,-10.6,30.40,39.6,2016-01-05 00:51,None,None,None,2143,1220,None,None,None,None,None,None,None,None,None,None,None,None,None,None,None,None
2.50,2016-01-05 00:01:13,2016-01-05 00:22:09,15.8,0,0,N,None,None,None,None,-73.994255065917969,40.73199462890625,2,1,0.5,None,None,0.3,14.5,0.5,-73.9786376953125,40.751388549804688,None,None,1,NY CITY CENTRAL PARK NY US,WBAN:94728,1,FM-15,None,None,None,None,None,None,None,None,None,None,None,None,-9999,-9999,None,None,None,-9999,-9999,None,None,None,None,None,None,None,None,None,None,None,None,None,None,None,None,None,None,None,None,None,None,None,None,-73.9669,40.7889,14,24,VRB,10,-12.0,10.00,30.23,30.39,CLR:00,54,1,None,0.00,None,-1,-18.3,13,-10.6,30.40,39.6,2016-01-05 00:51,None,None,None,2143,1220,None,None,None,None,None,None,None,None,None,None,None,None,None,None,None,None
1.89,2016-01-05 00:01:13,2016-01-05 00:09:57,10.8,0,1,N,None,None,None,None,-73.985160827636719,40.744529724121094,1,5,0.5,None,None,0.3,8.5,0.5,-73.965461730957031,40.762851715087891,None,None,2,NY CITY CENTRAL PARK NY US,WBAN:94728,1,FM-15,None,None,None,None,None,None,None,None,None,None,None,None,-9999,-9999,None,None,None,-9999,-9999,None,None,None,None,None,None,None,None,None,None,None,None,None,None,None,None,None,None,None,None,None,None,None,None,-73.9669,40.7889,14,24,VRB,10,-12.0,10.00,30.23,30.39,CLR:00,54,1,None,0.00,None,-1,-18.3,13,-10.6,30.40,39.6,2016-01-05 00:51,None,None,None,2143,1220,None,None,None,None,None,None,None,None,None,None,None,None,None,None,None,None
.60,2016-01-05 00:01:14,2016-01-05 00:05:54,6.3,0,0,N,None,None,None,None,-73.982292175292969,40.751331329345703,1,1,0.5,None,None,0.3,5,0.5,-73.991340637207031,40.750339508056641,None,None,1,NY CITY CENTRAL PARK NY US,WBAN:94728,1,FM-15,None,None,None,None,None,None,None,None,None,None,None,None,-9999,-9999,None,None,None,-9999,-9999,None,None,None,None,None,None,None,None,None,None,None,None,None,None,None,None,None,None,None,None,None,None,None,None,-73.9669,40.7889,14,24,VRB,10,-12.0,10.00,30.23,30.39,CLR:00,54,1,None,0.00,None,-1,-18.3,13,-10.6,30.40,39.6,2016-01-05 00:51,None,None,None,2143,1220,None,None,None,None,None,None,None,None,None,None,None,None,None,None,None,None
24.00,2016-01-05 00:01:14,2016-01-05 00:38:19,185.75,14.5,30.95,N,2016-12-31 00:00:00,2016-01-01 00:00:00,New York,10022,-73.992301940917969,40.749290466308594,1,1,0,-73.968,40.759,0.3,140,0,-74.320327758789063,40.720523834228516,New York,2,1,NY CITY CENTRAL PARK NY US,WBAN:94728,5,FM-15,None,None,None,None,None,None,None,None,None,None,None,None,-9999,-9999,None,None,None,-9999,-9999,None,None,None,None,None,None,None,None,None,None,None,None,None,None,None,None,None,None,None,None,None,None,None,None,-73.9669,40.7889,14,24,VRB,10,-12.0,10.00,30.23,30.39,CLR:00,54,1,None,0.00,None,-1,-18.3,13,-10.6,30.40,39.6,2016-01-05 00:51,None,None,None,2143,1220,None,None,None,None,None,None,None,None,None,None,None,None,None,None,None,None
2.34,2016-01-05 00:01:14,2016-01-05 00:09:01,10.8,0,0,N,None,None,None,None,-73.934318542480469,40.751483917236328,2,1,0.5,None,None,0.3,9.5,0.5,-73.972511291503906,40.764915466308594,None,None,2,NY CITY CENTRAL PARK NY US,WBAN:94728,1,FM-15,None,None,None,None,None,None,None,None,None,None,None,None,-9999,-9999,None,None,None,-9999,-9999,None,None,None,None,None,None,None,None,None,None,None,None,None,None,None,None,None,None,None,None,None,None,None,None,-73.9669,40.7889,14,24,VRB,10,-12.0,10.00,30.23,30.39,CLR:00,54,1,None,0.00,None,-1,-18.3,13,-10.6,30.40,39.6,2016-01-05 00:51,None,None,None,2143,1220,None,None,None,None,None,None,None,None,None,None,None,None,None,None,None,None
13.64,2016-01-05 00:01:14,2016-01-05 00:31:34,40.3,0,0,N,None,None,None,None,-73.78192138671875,40.644760131835938,2,1,0.5,None,None,0.3,39,0.5,-73.979248046875,40.661869049072266,None,None,2,NY CITY CENTRAL PARK NY US,WBAN:94728,1,FM-15,None,None,None,None,None,None,None,None,None,None,None,None,-9999,-9999,None,None,None,-9999,-9999,None,None,None,None,None,None,None,None,None,None,None,None,None,None,None,None,None,None,None,None,None,None,None,None,-73.9669,40.7889,14,24,VRB,10,-12.0,10.00,30.23,30.39,CLR:00,54,1,None,0.00,None,-1,-18.3,13,-10.6,30.40,39.6,2016-01-05 00:51,None,None,None,2143,1220,None,None,None,None,None,None,None,None,None,None,None,None,None,None,None,None
3.44,2016-01-05 00:01:15,2016-01-05 00:34:37,22.8,0,0,N,None | 2016-12-31 00:00:00,2016-01-01 00:00:00 | 2016-01-01 00:00:00,New York | New York,10019 | 10022,-73.95953369140625,40.782745361328125,2,5,0.5,-73.9803996 | -73.968,40.7656668 | 40.759,0.3,21.5,0.5,-73.993759155273438,40.745582580566406,New York | New York,1 | 2,2,NY CITY CENTRAL PARK NY US,WBAN:94728,1,FM-15,None,None,None,None,None,None,None,None,None,None,None,None,-9999,-9999,None,None,None,-9999,-9999,None,None,None,None,None,None,None,None,None,None,None,None,None,None,None,None,None,None,None,None,None,None,None,None,-73.9669,40.7889,14,24,VRB,10,-12.0,10.00,30.23,30.39,CLR:00,54,1,None,0.00,None,-1,-18.3,13,-10.6,30.40,39.6,2016-01-05 00:51,None,None,None,2143,1220,None,None,None,None,None,None,None,None,None,None,None,None,None,None,None,None
7.04,2016-01-05 00:01:15,2016-01-05 00:13:15,27.25,0,5.45,N,None,None,None,None,-73.952644348144531,40.776496887207031,1,1,0.5,None,None,0.3,20.5,0.5,-74.005638122558594,40.709121704101563,None,None,2,NY CITY CENTRAL PARK NY US,WBAN:94728,1,FM-15,None,None,None,None,None,None,None,None,None,None,None,None,-9999,-9999,None,None,None,-9999,-9999,None,None,None,None,None,None,None,None,None,None,None,None,None,None,None,None,None,None,None,None,None,None,None,None,-73.9669,40.7889,14,24,VRB,10,-12.0,10.00,30.23,30.39,CLR:00,54,1,None,0.00,None,-1,-18.3,13,-10.6,30.40,39.6,2016-01-05 00:51,None,None,None,2143,1220,None,None,None,None,None,None,None,None,None,None,None,None,None,None,None,None
.20,2016-01-05 00:01:16,2016-01-05 00:03:52,4.8,0,0,N,None,None,None,None,-73.995613098144531,40.764671325683594,2,1,0.5,None,None,0.3,3.5,0.5,-73.992149353027344,40.764148712158203,None,None,1,NY CITY CENTRAL PARK NY US,WBAN:94728,1,FM-15,None,None,None,None,None,None,None,None,None,None,None,None,-9999,-9999,None,None,None,-9999,-9999,None,None,None,None,None,None,None,None,None,None,None,None,None,None,None,None,None,None,None,None,None,None,None,None,-73.9669,40.7889,14,24,VRB,10,-12.0,10.00,30.23,30.39,CLR:00,54,1,None,0.00,None,-1,-18.3,13,-10.6,30.40,39.6,2016-01-05 00:51,None,None,None,2143,1220,None,None,None,None,None,None,None,None,None,None,None,None,None,None,None,None
.90,2016-01-05 00:01:16,2016-01-05 00:13:16,9.8,0,0,N,None | None | None,2016-01-01 00:00:00 | 2016-01-01 00:00:00 | 2016-01-01 02:00:00,New York | New York | New York,None | None | 10038,-73.977432250976563,40.758316040039063,2,1,0.5,-74.0064 | -74.0064 | -74.0081571,40.7142 | 40.7142 | 40.7090990,0.3,8.5,0.5,-73.983444213867188,40.766860961914062,New York | New York | New York,1 | 1 | 0,1,NY CITY CENTRAL PARK NY US,WBAN:94728,1,FM-15,None,None,None,None,None,None,None,None,None,None,None,None,-9999,-9999,None,None,None,-9999,-9999,None,None,None,None,None,None,None,None,None,None,None,None,None,None,None,None,None,None,None,None,None,None,None,None,-73.9669,40.7889,14,24,VRB,10,-12.0,10.00,30.23,30.39,CLR:00,54,1,None,0.00,None,-1,-18.3,13,-10.6,30.40,39.6,2016-01-05 00:51,None,None,None,2143,1220,None,None,None,None,None,None,None,None,None,None,None,None,None,None,None,None
2.00,2016-01-05 00:01:17,2016-01-05 00:11:08,13.5,0,2.7,N,2016-07-03 00:00:00,2015-10-08 00:00:00,New York,10019,-73.927742004394531,40.697872161865234,1,1,0.5,-73.9844951,40.7632328,0.3,9.5,0.5,-73.961212158203125,40.698276519775391,New York,2,1,NY CITY CENTRAL PARK NY US,WBAN:94728,1,FM-15,None,None,None,None,None,None,None,None,None,None,None,None,-9999,-9999,None,None,None,-9999,-9999,None,None,None,None,None,None,None,None,None,None,None,None,None,None,None,None,None,None,None,None,None,None,None,None,-73.9669,40.7889,14,24,VRB,10,-12.0,10.00,30.23,30.39,CLR:00,54,1,None,0.00,None,-1,-18.3,13,-10.6,30.40,39.6,2016-01-05 00:51,None,None,None,2143,1220,None,None,None,None,None,None,None,None,None,None,None,None,None,None,None,None
.30,2016-01-05 00:01:19,2016-01-05 00:03:00,6,0,1.2,N,None | 2016-07-03 00:00:00,2016-01-01 00:00:00 | 2015-10-08 00:00:00,New York | New York,10019 | 10019,-73.966590881347656,40.757587432861328,1,1,0.5,-73.9803996 | -73.9844951,40.7656668 | 40.7632328,0.3,3.5,0.5,-73.965774536132813,40.754348754882813,New York | New York,1 | 2,1,NY CITY CENTRAL PARK NY US,WBAN:94728,1,FM-15,None,None,None,None,None,None,None,None,None,None,None,None,-9999,-9999,None,None,None,-9999,-9999,None,None,None,None,None,None,None,None,None,None,None,None,None,None,None,None,None,None,None,None,None,None,None,None,-73.9669,40.7889,14,24,VRB,10,-12.0,10.00,30.23,30.39,CLR:00,54,1,None,0.00,None,-1,-18.3,13,-10.6,30.40,39.6,2016-01-05 00:51,None,None,None,2143,1220,None,None,None,None,None,None,None,None,None,None,None,None,None,None,None,None
1.80,2016-01-05 00:01:19,2016-01-05 00:15:00,11.8,0,0,N,None,None,None,None,-73.954742431640625,40.765506744384766,1,1,0.5,None,None,0.3,10.5,0.5,-73.981918334960938,40.766231536865234,None,None,1,NY CITY CENTRAL PARK NY US,WBAN:94728,1,FM-15,None,None,None,None,None,None,None,None,None,None,None,None,-9999,-9999,None,None,None,-9999,-9999,None,None,None,None,None,None,None,None,None,None,None,None,None,None,None,None,None,None,None,None,None,None,None,None,-73.9669,40.7889,14,24,VRB,10,-12.0,10.00,30.23,30.39,CLR:00,54,1,None,0.00,None,-1,-18.3,13,-10.6,30.40,39.6,2016-01-05 00:51,None,None,None,2143,1220,None,None,None,None,None,None,None,None,None,None,None,None,None,None,None,None
.37,2016-01-05 00:01:19,2016-01-05 00:03:12,4.8,0,0,N,2016-12-31 00:00:00,2016-01-01 00:00:00,New York,10022,-73.997695922851562,40.737659454345703,2,2,0.5,-73.968,40.759,0.3,3.5,0.5,-73.991241455078125,40.734981536865234,New York,2,2,NY CITY CENTRAL PARK NY US,WBAN:94728,1,FM-15,None,None,None,None,None,None,None,None,None,None,None,None,-9999,-9999,None,None,None,-9999,-9999,None,None,None,None,None,None,None,None,None,None,None,None,None,None,None,None,None,None,None,None,None,None,None,None,-73.9669,40.7889,14,24,VRB,10,-12.0,10.00,30.23,30.39,CLR:00,54,1,None,0.00,None,-1,-18.3,13,-10.6,30.40,39.6,2016-01-05 00:51,None,None,None,2143,1220,None,None,None,None,None,None,None,None,None,None,None,None,None,None,None,None
1.00,2016-01-05 00:01:20,2016-01-05 00:07:24,8.75,0,1.45,N,None | 2016-07-03 00:00:00,2016-01-01 00:00:00 | 2015-10-08 00:00:00,New York | New York,10019 | 10019,-73.967552185058594,40.756858825683594,1,2,0.5,-73.9803996 | -73.9844951,40.7656668 | 40.7632328,0.3,6,0.5,-73.978309631347656,40.748611450195313,New York | New York,1 | 2,1,NY CITY CENTRAL PARK NY US,WBAN:94728,1,FM-15,None,None,None,None,None,None,None,None,None,None,None,None,-9999,-9999,None,None,None,-9999,-9999,None,None,None,None,None,None,None,None,None,None,None,None,None,None,None,None,None,None,None,None,None,None,None,None,-73.9669,40.7889,14,24,VRB,10,-12.0,10.00,30.23,30.39,CLR:00,54,1,None,0.00,None,-1,-18.3,13,-10.6,30.40,39.6,2016-01-05 00:51,None,None,None,2143,1220,None,None,None,None,None,None,None,None,None,None,None,None,None,None,None,None
5.10,2016-01-05 00:01:20,2016-01-05 00:14:39,18.3,0,0,N,None,2016-01-01 09:00:00,New York,10003,-73.964698791503906,40.796798706054688,2,1,0.5,-73.9870210,40.7308580,0.3,17,0.5,-74.002204895019531,40.749237060546875,New York,0,1,NY CITY CENTRAL PARK NY US,WBAN:94728,1,FM-15,None,None,None,None,None,None,None,None,None,None,None,None,-9999,-9999,None,None,None,-9999,-9999,None,None,None,None,None,None,None,None,None,None,None,None,None,None,None,None,None,None,None,None,None,None,None,None,-73.9669,40.7889,14,24,VRB,10,-12.0,10.00,30.23,30.39,CLR:00,54,1,None,0.00,None,-1,-18.3,13,-10.6,30.40,39.6,2016-01-05 00:51,None,None,None,2143,1220,None,None,None,None,None,None,None,None,None,None,None,None,None,None,None,None
1.80,2016-01-05 00:01:20,2016-01-05 00:13:36,12.8,0,2,N,None,None,None,None,-73.970108032226563,40.759799957275391,1,1,0.5,None,None,0.3,9.5,0.5,-73.989356994628906,40.742988586425781,None,None,1,NY CITY CENTRAL PARK NY US,WBAN:94728,1,FM-15,None,None,None,None,None,None,None,None,None,None,None,None,-9999,-9999,None,None,None,-9999,-9999,None,None,None,None,None,None,None,None,None,None,None,None,None,None,None,None,None,None,None,None,None,None,None,None,-73.9669,40.7889,14,24,VRB,10,-12.0,10.00,30.23,30.39,CLR:00,54,1,None,0.00,None,-1,-18.3,13,-10.6,30.40,39.6,2016-01-05 00:51,None,None,None,2143,1220,None,None,None,None,None,None,None,None,None,None,None,None,None,None,None,None
2.25,2016-01-05 00:01:21,2016-01-05 00:12:57,14.16,0,2.36,N,None,None,None,None,-74.001899719238281,40.739406585693359,1,1,0.5,None,None,0.3,10.5,0.5,-73.974868774414063,40.744388580322266,None,None,2,NY CITY CENTRAL PARK NY US,WBAN:94728,1,FM-15,None,None,None,None,None,None,None,None,None,None,None,None,-9999,-9999,None,None,None,-9999,-9999,None,None,None,None,None,None,None,None,None,None,None,None,None,None,None,None,None,None,None,None,None,None,None,None,-73.9669,40.7889,14,24,VRB,10,-12.0,10.00,30.23,30.39,CLR:00,54,1,None,0.00,None,-1,-18.3,13,-10.6,30.40,39.6,2016-01-05 00:51,None,None,None,2143,1220,None,None,None,None,None,None,None,None,None,None,None,None,None,None,None,None
.87,2016-01-05 00:01:21,2016-01-05 00:06:40,6.8,0,0,N,None,None,None,None,-73.955223083496094,40.804378509521484,2,1,0.5,None,None,0.3,5.5,0.5,-73.963699340820313,40.798000335693359,None,None,2,NY CITY CENTRAL PARK NY US,WBAN:94728,1,FM-15,None,None,None,None,None,None,None,None,None,None,None,None,-9999,-9999,None,None,None,-9999,-9999,None,None,None,None,None,None,None,None,None,None,None,None,None,None,None,None,None,None,None,None,None,None,None,None,-73.9669,40.7889,14,24,VRB,10,-12.0,10.00,30.23,30.39,CLR:00,54,1,None,0.00,None,-1,-18.3,13,-10.6,30.40,39.6,2016-01-05 00:51,None,None,None,2143,1220,None,None,None,None,None,None,None,None,None,None,None,None,None,None,None,None
8.78,2016-01-05 00:01:21,2016-01-05 00:27:41,28.3,0,0,N,None,None,None,None,-73.996627807617188,40.724601745605469,2,6,0.5,None,None,0.3,27,0.5,-73.869979858398438,40.755290985107422,None,None,2,NY CITY CENTRAL PARK NY US,WBAN:94728,1,FM-15,None,None,None,None,None,None,None,None,None,None,None,None,-9999,-9999,None,None,None,-9999,-9999,None,None,None,None,None,None,None,None,None,None,None,None,None,None,None,None,None,None,None,None,None,None,None,None,-73.9669,40.7889,14,24,VRB,10,-12.0,10.00,30.23,30.39,CLR:00,54,1,None,0.00,None,-1,-18.3,13,-10.6,30.40,39.6,2016-01-05 00:51,None,None,None,2143,1220,None,None,None,None,None,None,None,None,None,None,None,None,None,None,None,None
1.60,2016-01-05 00:01:22,2016-01-05 00:10:04,9.3,0,0,N,None,None,None,None,-74.004669189453125,40.715957641601563,2,1,0.5,None,None,0.3,8,0.5,-73.989860534667969,40.734043121337891,None,None,1,NY CITY CENTRAL PARK NY US,WBAN:94728,1,FM-15,None,None,None,None,None,None,None,None,None,None,None,None,-9999,-9999,None,None,None,-9999,-9999,None,None,None,None,None,None,None,None,None,None,None,None,None,None,None,None,None,None,None,None,None,None,None,None,-73.9669,40.7889,14,24,VRB,10,-12.0,10.00,30.23,30.39,CLR:00,54,1,None,0.00,None,-1,-18.3,13,-10.6,30.40,39.6,2016-01-05 00:51,None,None,None,2143,1220,None,None,None,None,None,None,None,None,None,None,None,None,None,None,None,None
1.67,2016-01-05 00:01:22,2016-01-05 00:09:25,11.16,0,1.86,N,None,None,None,None,-73.948280334472656,40.782630920410156,1,1,0.5,None,None,0.3,8,0.5,-73.938461303710938,40.792289733886719,None,None,2,NY CITY CENTRAL PARK NY US,WBAN:94728,1,FM-15,None,None,None,None,None,None,None,None,None,None,None,None,-9999,-9999,None,None,None,-9999,-9999,None,None,None,None,None,None,None,None,None,None,None,None,None,None,None,None,None,None,None,None,None,None,None,None,-73.9669,40.7889,14,24,VRB,10,-12.0,10.00,30.23,30.39,CLR:00,54,1,None,0.00,None,-1,-18.3,13,-10.6,30.40,39.6,2016-01-05 00:51,None,None,None,2143,1220,None,None,None,None,None,None,None,None,None,None,None,None,None,None,None,None
1.11,2016-01-05 00:01:23,2016-01-05 00:09:22,9.96,0,1.66,N,None,2016-01-01 09:00:00,New York,10003,-73.998611450195313,40.738170623779297,1,1,0.5,-73.9870210,40.7308580,0.3,7,0.5,-73.994590759277344,40.75054931640625,New York,0,2,NY CITY CENTRAL PARK NY US,WBAN:94728,1,FM-15,None,None,None,None,None,None,None,None,None,None,None,None,-9999,-9999,None,None,None,-9999,-9999,None,None,None,None,None,None,None,None,None,None,None,None,None,None,None,None,None,None,None,None,None,None,None,None,-73.9669,40.7889,14,24,VRB,10,-12.0,10.00,30.23,30.39,CLR:00,54,1,None,0.00,None,-1,-18.3,13,-10.6,30.40,39.6,2016-01-05 00:51,None,None,None,2143,1220,None,None,None,None,None,None,None,None,None,None,None,None,None,None,None,None
6.50,2016-01-05 00:01:24,2016-01-05 00:23:19,23.8,0,0,N,None,None,None,None,-73.972267150878906,40.759864807128906,2,2,0.5,None,None,0.3,22.5,0.5,-73.876602172851562,40.748664855957031,None,None,1,NY CITY CENTRAL PARK NY US,WBAN:94728,1,FM-15,None,None,None,None,None,None,None,None,None,None,None,None,-9999,-9999,None,None,None,-9999,-9999,None,None,None,None,None,None,None,None,None,None,None,None,None,None,None,None,None,None,None,None,None,None,None,None,-73.9669,40.7889,14,24,VRB,10,-12.0,10.00,30.23,30.39,CLR:00,54,1,None,0.00,None,-1,-18.3,13,-10.6,30.40,39.6,2016-01-05 00:51,None,None,None,2143,1220,None,None,None,None,None,None,None,None,None,None,None,None,None,None,None,None
1.90,2016-01-05 00:01:24,2016-01-05 00:09:52,10.3,0,0,N,None,None,None,None,-73.959747314453125,40.801292419433594,2,1,0.5,None,None,0.3,9,0.5,-73.950645446777344,40.822933197021484,None,None,1,NY CITY CENTRAL PARK NY US,WBAN:94728,1,FM-15,None,None,None,None,None,None,None,None,None,None,None,None,-9999,-9999,None,None,None,-9999,-9999,None,None,None,None,None,None,None,None,None,None,None,None,None,None,None,None,None,None,None,None,None,None,None,None,-73.9669,40.7889,14,24,VRB,10,-12.0,10.00,30.23,30.39,CLR:00,54,1,None,0.00,None,-1,-18.3,13,-10.6,30.40,39.6,2016-01-05 00:51,None,None,None,2143,1220,None,None,None,None,None,None,None,None,None,None,None,None,None,None,None,None
2.94,2016-01-05 00:01:24,2016-01-05 00:21:59,16.3,0,0,N,None,None,None,None,-73.979400634765625,40.739768981933594,1,1,0.5,None,None,0.3,15,0.5,-73.999549865722656,40.742519378662109,None,None,2,NY CITY CENTRAL PARK NY US,WBAN:94728,1,FM-15,None,None,None,None,None,None,None,None,None,None,None,None,-9999,-9999,None,None,None,-9999,-9999,None,None,None,None,None,None,None,None,None,None,None,None,None,None,None,None,None,None,None,None,None,None,None,None,-73.9669,40.7889,14,24,VRB,10,-12.0,10.00,30.23,30.39,CLR:00,54,1,None,0.00,None,-1,-18.3,13,-10.6,30.40,39.6,2016-01-05 00:51,None,None,None,2143,1220,None,None,None,None,None,None,None,None,None,None,None,None,None,None,None,None
1.89,2016-01-05 00:01:24,2016-01-05 00:05:58,9.8,0,1,N,None,None,None,None,-73.972930908203125,40.752601623535156,1,3,0.5,None,None,0.3,7.5,0.5,-73.955856323242188,40.776050567626953,None,None,2,NY CITY CENTRAL PARK NY US,WBAN:94728,1,FM-15,None,None,None,None,None,None,None,None,None,None,None,None,-9999,-9999,None,None,None,-9999,-9999,None,None,None,None,None,None,None,None,None,None,None,None,None,None,None,None,None,None,None,None,None,None,None,None,-73.9669,40.7889,14,24,VRB,10,-12.0,10.00,30.23,30.39,CLR:00,54,1,None,0.00,None,-1,-18.3,13,-10.6,30.40,39.6,2016-01-05 00:51,None,None,None,2143,1220,None,None,None,None,None,None,None,None,None,None,None,None,None,None,None,None
.80,2016-01-05 00:01:26,2016-01-05 00:10:01,8.3,0,0,N,None,None,None,None,-73.979644775390625,40.760196685791016,2,2,0.5,None,None,0.3,7,0.5,-73.974853515625,40.753742218017578,None,None,1,NY CITY CENTRAL PARK NY US,WBAN:94728,1,FM-15,None,None,None,None,None,None,None,None,None,None,None,None,-9999,-9999,None,None,None,-9999,-9999,None,None,None,None,None,None,None,None,None,None,None,None,None,None,None,None,None,None,None,None,None,None,None,None,-73.9669,40.7889,14,24,VRB,10,-12.0,10.00,30.23,30.39,CLR:00,54,1,None,0.00,None,-1,-18.3,13,-10.6,30.40,39.6,2016-01-05 00:51,None,None,None,2143,1220,None,None,None,None,None,None,None,None,None,None,None,None,None,None,None,None
5.00,2016-01-05 00:01:26,2016-01-05 00:19:52,18.8,0,0,N,2022-04-16 02:00:00 | None,2016-01-01 00:00:00 | 2016-01-01 00:00:00,New York | New York,None | 10028,-73.995040893554687,40.760448455810547,2,1,0.5,-73.9651814 | -73.9634699,40.7745779 | 40.7792134,0.3,17.5,0.5,-73.938812255859375,40.799385070800781,New York | New York,1 | 2,1,NY CITY CENTRAL PARK NY US,WBAN:94728,1,FM-15,None,None,None,None,None,None,None,None,None,None,None,None,-9999,-9999,None,None,None,-9999,-9999,None,None,None,None,None,None,None,None,None,None,None,None,None,None,None,None,None,None,None,None,None,None,None,None,-73.9669,40.7889,14,24,VRB,10,-12.0,10.00,30.23,30.39,CLR:00,54,1,None,0.00,None,-1,-18.3,13,-10.6,30.40,39.6,2016-01-05 00:51,None,None,None,2143,1220,None,None,None,None,None,None,None,None,None,None,None,None,None,None,None,None
3.86,2016-01-05 00:01:26,2016-01-05 00:13:41,17.16,0,2.86,N,None,None,None,None,-73.976837158203125,40.764591217041016,1,1,0.5,None,None,0.3,13,0.5,-73.9541015625,40.804759979248047,None,None,2,NY CITY CENTRAL PARK NY US,WBAN:94728,1,FM-15,None,None,None,None,None,None,None,None,None,None,None,None,-9999,-9999,None,None,None,-9999,-9999,None,None,None,None,None,None,None,None,None,None,None,None,None,None,None,None,None,None,None,None,None,None,None,None,-73.9669,40.7889,14,24,VRB,10,-12.0,10.00,30.23,30.39,CLR:00,54,1,None,0.00,None,-1,-18.3,13,-10.6,30.40,39.6,2016-01-05 00:51,None,None,None,2143,1220,None,None,None,None,None,None,None,None,None,None,None,None,None,None,None,None
2.70,2016-01-05 00:01:26,2016-01-05 00:12:40,12.3,0,0,N,None,None,None,None,-74.000953674316406,40.730838775634766,2,1,0.5,None,None,0.3,11,0.5,-74.017234802246094,40.704917907714844,None,None,2,NY CITY CENTRAL PARK NY US,WBAN:94728,1,FM-15,None,None,None,None,None,None,None,None,None,None,None,None,-9999,-9999,None,None,None,-9999,-9999,None,None,None,None,None,None,None,None,None,None,None,None,None,None,None,None,None,None,None,None,None,None,None,None,-73.9669,40.7889,14,24,VRB,10,-12.0,10.00,30.23,30.39,CLR:00,54,1,None,0.00,None,-1,-18.3,13,-10.6,30.40,39.6,2016-01-05 00:51,None,None,None,2143,1220,None,None,None,None,None,None,None,None,None,None,None,None,None,None,None,None
3.10,2016-01-05 00:01:27,2016-01-05 00:35:02,26.75,0,4.45,N,None,None,None,None,-73.974395751953125,40.763877868652344,1,1,0.5,None,None,0.3,21,0.5,-73.999267578125,40.728160858154297,None,None,1,NY CITY CENTRAL PARK NY US,WBAN:94728,1,FM-15,None,None,None,None,None,None,None,None,None,None,None,None,-9999,-9999,None,None,None,-9999,-9999,None,None,None,None,None,None,None,None,None,None,None,None,None,None,None,None,None,None,None,None,None,None,None,None,-73.9669,40.7889,14,24,VRB,10,-12.0,10.00,30.23,30.39,CLR:00,54,1,None,0.00,None,-1,-18.3,13,-10.6,30.40,39.6,2016-01-05 00:51,None,None,None,2143,1220,None,None,None,None,None,None,None,None,None,None,None,None,None,None,None,None
.10,2016-01-05 00:01:27,2016-01-05 00:02:33,4.3,0,0,N,None,None,None,None,-73.955177307128906,40.773174285888672,3,1,0.5,None,None,0.3,3,0.5,-73.956230163574219,40.772037506103516,None,None,1,NY CITY CENTRAL PARK NY US,WBAN:94728,1,FM-15,None,None,None,None,None,None,None,None,None,None,None,None,-9999,-9999,None,None,None,-9999,-9999,None,None,None,None,None,None,None,None,None,None,None,None,None,None,None,None,None,None,None,None,None,None,None,None,-73.9669,40.7889,14,24,VRB,10,-12.0,10.00,30.23,30.39,CLR:00,54,1,None,0.00,None,-1,-18.3,13,-10.6,30.40,39.6,2016-01-05 00:51,None,None,None,2143,1220,None,None,None,None,None,None,None,None,None,None,None,None,None,None,None,None
1.40,2016-01-05 00:01:27,2016-01-05 00:14:34,13.39,0,3.09,N,None,None,None,None,-73.9898681640625,40.7293701171875,1,1,0.5,None,None,0.3,9,0.5,-73.983924865722656,40.745647430419922,None,None,2,NY CITY CENTRAL PARK NY US,WBAN:94728,1,FM-15,None,None,None,None,None,None,None,None,None,None,None,None,-9999,-9999,None,None,None,-9999,-9999,None,None,None,None,None,None,None,None,None,None,None,None,None,None,None,None,None,None,None,None,None,None,None,None,-73.9669,40.7889,14,24,VRB,10,-12.0,10.00,30.23,30.39,CLR:00,54,1,None,0.00,None,-1,-18.3,13,-10.6,30.40,39.6,2016-01-05 00:51,None,None,None,2143,1220,None,None,None,None,None,None,None,None,None,None,None,None,None,None,None,None
11.20,2016-01-05 00:01:29,2016-01-05 00:25:53,33.8,0,0,N,None,None,None,None,-73.969612121582031,40.757713317871094,1,1,0.5,None,None,0.3,32.5,0.5,-73.902236938476562,40.702812194824219,None,None,1,NY CITY CENTRAL PARK NY US,WBAN:94728,1,FM-15,None,None,None,None,None,None,None,None,None,None,None,None,-9999,-9999,None,None,None,-9999,-9999,None,None,None,None,None,None,None,None,None,None,None,None,None,None,None,None,None,None,None,None,None,None,None,None,-73.9669,40.7889,14,24,VRB,10,-12.0,10.00,30.23,30.39,CLR:00,54,1,None,0.00,None,-1,-18.3,13,-10.6,30.40,39.6,2016-01-05 00:51,None,None,None,2143,1220,None,None,None,None,None,None,None,None,None,None,None,None,None,None,None,None
5.60,2016-01-05 00:01:29,2016-01-05 00:29:40,28.55,0,4.75,N,None,None,None,None,-74.002418518066406,40.733234405517578,1,1,0.5,None,None,0.3,22.5,0.5,-73.924583435058594,40.691917419433594,None,None,1,NY CITY CENTRAL PARK NY US,WBAN:94728,1,FM-15,None,None,None,None,None,None,None,None,None,None,None,None,-9999,-9999,None,None,None,-9999,-9999,None,None,None,None,None,None,None,None,None,None,None,None,None,None,None,None,None,None,None,None,None,None,None,None,-73.9669,40.7889,14,24,VRB,10,-12.0,10.00,30.23,30.39,CLR:00,54,1,None,0.00,None,-1,-18.3,13,-10.6,30.40,39.6,2016-01-05 00:51,None,None,None,2143,1220,None,None,None,None,None,None,None,None,None,None,None,None,None,None,None,None
1.52,2016-01-05 00:01:29,2016-01-05 00:10:45,12.09,0,2.79,N,None,None,None,None,-73.971771240234375,40.759838104248047,1,1,0.5,None,None,0.3,8,0.5,-73.987518310546875,40.748722076416016,None,None,2,NY CITY CENTRAL PARK NY US,WBAN:94728,1,FM-15,None,None,None,None,None,None,None,None,None,None,None,None,-9999,-9999,None,None,None,-9999,-9999,None,None,None,None,None,None,None,None,None,None,None,None,None,None,None,None,None,None,None,None,None,None,None,None,-73.9669,40.7889,14,24,VRB,10,-12.0,10.00,30.23,30.39,CLR:00,54,1,None,0.00,None,-1,-18.3,13,-10.6,30.40,39.6,2016-01-05 00:51,None,None,None,2143,1220,None,None,None,None,None,None,None,None,None,None,None,None,None,None,None,None
.76,2016-01-05 00:01:29,2016-01-05 00:05:08,5.8,0,0,N,None,None,None,None,-73.941848754882813,40.829483032226563,2,1,0.5,None,None,0.3,4.5,0.5,-73.938644409179688,40.839866638183594,None,None,2,NY CITY CENTRAL PARK NY US,WBAN:94728,1,FM-15,None,None,None,None,None,None,None,None,None,None,None,None,-9999,-9999,None,None,None,-9999,-9999,None,None,None,None,None,None,None,None,None,None,None,None,None,None,None,None,None,None,None,None,None,None,None,None,-73.9669,40.7889,14,24,VRB,10,-12.0,10.00,30.23,30.39,CLR:00,54,1,None,0.00,None,-1,-18.3,13,-10.6,30.40,39.6,2016-01-05 00:51,None,None,None,2143,1220,None,None,None,None,None,None,None,None,None,None,None,None,None,None,None,None
2.68,2016-01-05 00:01:29,2016-01-05 00:12:56,13.3,0,2,N,None,None,None,None,-74.010520935058594,40.718410491943359,1,5,0.5,None,None,0.3,10,0.5,-73.991348266601563,40.745208740234375,None,None,2,NY CITY CENTRAL PARK NY US,WBAN:94728,1,FM-15,None,None,None,None,None,None,None,None,None,None,None,None,-9999,-9999,None,None,None,-9999,-9999,None,None,None,None,None,None,None,None,None,None,None,None,None,None,None,None,None,None,None,None,None,None,None,None,-73.9669,40.7889,14,24,VRB,10,-12.0,10.00,30.23,30.39,CLR:00,54,1,None,0.00,None,-1,-18.3,13,-10.6,30.40,39.6,2016-01-05 00:51,None,None,None,2143,1220,None,None,None,None,None,None,None,None,None,None,None,None,None,None,None,None
2.70,2016-01-05 00:01:32,2016-01-05 00:25:32,18.8,0,1.5,N,None,None,None,None,-74.007087707519531,40.719131469726562,1,1,0.5,None,None,0.3,16,0.5,-73.987579345703125,40.749889373779297,None,None,2,NY CITY CENTRAL PARK NY US,WBAN:94728,1,FM-15,None,None,None,None,None,None,None,None,None,None,None,None,-9999,-9999,None,None,None,-9999,-9999,None,None,None,None,None,None,None,None,None,None,None,None,None,None,None,None,None,None,None,None,None,None,None,None,-73.9669,40.7889,14,24,VRB,10,-12.0,10.00,30.23,30.39,CLR:00,54,1,None,0.00,None,-1,-18.3,13,-10.6,30.40,39.6,2016-01-05 00:51,None,None,None,2143,1220,None,None,None,None,None,None,None,None,None,None,None,None,None,None,None,None
4.30,2016-01-05 00:01:33,2016-01-05 00:14:43,19.55,0,3.25,N,None,None,None,None,-73.994468688964844,40.718978881835938,1,1,0.5,None,None,0.3,15,0.5,-73.956626892089844,40.674392700195313,None,None,1,NY CITY CENTRAL PARK NY US,WBAN:94728,1,FM-15,None,None,None,None,None,None,None,None,None,None,None,None,-9999,-9999,None,None,None,-9999,-9999,None,None,None,None,None,None,None,None,None,None,None,None,None,None,None,None,None,None,None,None,None,None,None,None,-73.9669,40.7889,14,24,VRB,10,-12.0,10.00,30.23,30.39,CLR:00,54,1,None,0.00,None,-1,-18.3,13,-10.6,30.40,39.6,2016-01-05 00:51,None,None,None,2143,1220,None,None,None,None,None,None,None,None,None,None,None,None,None,None,None,None
6.29,2016-01-05 00:01:33,2016-01-05 00:13:25,20.8,0,0,N,None,None,None,None,-73.984992980957031,40.773891448974609,2,1,0.5,None,None,0.3,19.5,0.5,-73.936492919921875,40.847770690917969,None,None,2,NY CITY CENTRAL PARK NY US,WBAN:94728,1,FM-15,None,None,None,None,None,None,None,None,None,None,None,None,-9999,-9999,None,None,None,-9999,-9999,None,None,None,None,None,None,None,None,None,None,None,None,None,None,None,None,None,None,None,None,None,None,None,None,-73.9669,40.7889,14,24,VRB,10,-12.0,10.00,30.23,30.39,CLR:00,54,1,None,0.00,None,-1,-18.3,13,-10.6,30.40,39.6,2016-01-05 00:51,None,None,None,2143,1220,None,None,None,None,None,None,None,None,None,None,None,None,None,None,None,None
1.22,2016-01-05 00:01:33,2016-01-05 00:05:39,7.3,0,0,N,None,None,None,None,-73.862693786621094,40.768730163574219,1,1,0.5,None,None,0.3,6,0.5,-73.875297546386719,40.770359039306641,None,None,2,NY CITY CENTRAL PARK NY US,WBAN:94728,1,FM-15,None,None,None,None,None,None,None,None,None,None,None,None,-9999,-9999,None,None,None,-9999,-9999,None,None,None,None,None,None,None,None,None,None,None,None,None,None,None,None,None,None,None,None,None,None,None,None,-73.9669,40.7889,14,24,VRB,10,-12.0,10.00,30.23,30.39,CLR:00,54,1,None,0.00,None,-1,-18.3,13,-10.6,30.40,39.6,2016-01-05 00:51,None,None,None,2143,1220,None,None,None,None,None,None,None,None,None,None,None,None,None,None,None,None
1.49,2016-01-05 00:01:33,2016-01-05 00:15:16,13.56,0,2.26,N,None,None,None,None,-73.998031616210938,40.719669342041016,1,5,0.5,None,None,0.3,10,0.5,-73.983909606933594,40.731800079345703,None,None,2,NY CITY CENTRAL PARK NY US,WBAN:94728,1,FM-15,None,None,None,None,None,None,None,None,None,None,None,None,-9999,-9999,None,None,None,-9999,-9999,None,None,None,None,None,None,None,None,None,None,None,None,None,None,None,None,None,None,None,None,None,None,None,None,-73.9669,40.7889,14,24,VRB,10,-12.0,10.00,30.23,30.39,CLR:00,54,1,None,0.00,None,-1,-18.3,13,-10.6,30.40,39.6,2016-01-05 00:51,None,None,None,2143,1220,None,None,None,None,None,None,None,None,None,None,None,None,None,None,None,None
11.55,2016-01-05 00:01:33,2016-01-05 00:37:20,37.8,0,0,N,None,None,None,None,-73.794479370117187,40.657150268554687,2,5,0.5,None,None,0.3,36.5,0.5,-73.887382507324219,40.654159545898438,None,None,2,NY CITY CENTRAL PARK NY US,WBAN:94728,1,FM-15,None,None,None,None,None,None,None,None,None,None,None,None,-9999,-9999,None,None,None,-9999,-9999,None,None,None,None,None,None,None,None,None,None,None,None,None,None,None,None,None,None,None,None,None,None,None,None,-73.9669,40.7889,14,24,VRB,10,-12.0,10.00,30.23,30.39,CLR:00,54,1,None,0.00,None,-1,-18.3,13,-10.6,30.40,39.6,2016-01-05 00:51,None,None,None,2143,1220,None,None,None,None,None,None,None,None,None,None,None,None,None,None,None,None
2.90,2016-01-05 00:01:34,2016-01-05 00:15:38,13.3,0,0,N,None,2016-01-01 09:00:00,New York,10003,0,0,2,1,0.5,-73.9870210,40.7308580,0.3,12,0.5,0,0,New York,0,1,NY CITY CENTRAL PARK NY US,WBAN:94728,1,FM-15,None,None,None,None,None,None,None,None,None,None,None,None,-9999,-9999,None,None,None,-9999,-9999,None,None,None,None,None,None,None,None,None,None,None,None,None,None,None,None,None,None,None,None,None,None,None,None,-73.9669,40.7889,14,24,VRB,10,-12.0,10.00,30.23,30.39,CLR:00,54,1,None,0.00,None,-1,-18.3,13,-10.6,30.40,39.6,2016-01-05 00:51,None,None,None,2143,1220,None,None,None,None,None,None,None,None,None,None,None,None,None,None,None,None
2.67,2016-01-05 00:01:34,2016-01-05 00:18:12,14.9,0,1.1,N,None,None,None,None,-74.002845764160156,40.731151580810547,1,1,0.5,None,None,0.3,12.5,0.5,-73.973526000976563,40.748710632324219,None,None,2,NY CITY CENTRAL PARK NY US,WBAN:94728,1,FM-15,None,None,None,None,None,None,None,None,None,None,None,None,-9999,-9999,None,None,None,-9999,-9999,None,None,None,None,None,None,None,None,None,None,None,None,None,None,None,None,None,None,None,None,None,None,None,None,-73.9669,40.7889,14,24,VRB,10,-12.0,10.00,30.23,30.39,CLR:00,54,1,None,0.00,None,-1,-18.3,13,-10.6,30.40,39.6,2016-01-05 00:51,None,None,None,2143,1220,None,None,None,None,None,None,None,None,None,None,None,None,None,None,None,None
4.26,2016-01-05 00:01:34,2016-01-05 00:19:14,21.96,0,3.66,N,None,None,None,None,-73.978584289550781,40.762580871582031,1,1,0.5,None,None,0.3,17,0.5,-73.963310241699219,40.798713684082031,None,None,2,NY CITY CENTRAL PARK NY US,WBAN:94728,1,FM-15,None,None,None,None,None,None,None,None,None,None,None,None,-9999,-9999,None,None,None,-9999,-9999,None,None,None,None,None,None,None,None,None,None,None,None,None,None,None,None,None,None,None,None,None,None,None,None,-73.9669,40.7889,14,24,VRB,10,-12.0,10.00,30.23,30.39,CLR:00,54,1,None,0.00,None,-1,-18.3,13,-10.6,30.40,39.6,2016-01-05 00:51,None,None,None,2143,1220,None,None,None,None,None,None,None,None,None,None,None,None,None,None,None,None
1.30,2016-01-05 00:01:35,2016-01-05 00:09:13,8.8,0,0,N,None,None,None,None,-73.995773315429688,40.759323120117188,2,1,0.5,None,None,0.3,7.5,0.5,-73.994873046875,40.750301361083984,None,None,1,NY CITY CENTRAL PARK NY US,WBAN:94728,1,FM-15,None,None,None,None,None,None,None,None,None,None,None,None,-9999,-9999,None,None,None,-9999,-9999,None,None,None,None,None,None,None,None,None,None,None,None,None,None,None,None,None,None,None,None,None,None,None,None,-73.9669,40.7889,14,24,VRB,10,-12.0,10.00,30.23,30.39,CLR:00,54,1,None,0.00,None,-1,-18.3,13,-10.6,30.40,39.6,2016-01-05 00:51,None,None,None,2143,1220,None,None,None,None,None,None,None,None,None,None,None,None,None,None,None,None
1.30,2016-01-05 00:01:35,2016-01-05 00:08:48,8.3,0,0,N,None,None,None,None,-74.005050659179687,40.739955902099609,2,1,0.5,None,None,0.3,7,0.5,-73.989837646484375,40.729434967041016,None,None,1,NY CITY CENTRAL PARK NY US,WBAN:94728,1,FM-15,None,None,None,None,None,None,None,None,None,None,None,None,-9999,-9999,None,None,None,-9999,-9999,None,None,None,None,None,None,None,None,None,None,None,None,None,None,None,None,None,None,None,None,None,None,None,None,-73.9669,40.7889,14,24,VRB,10,-12.0,10.00,30.23,30.39,CLR:00,54,1,None,0.00,None,-1,-18.3,13,-10.6,30.40,39.6,2016-01-05 00:51,None,None,None,2143,1220,None,None,None,None,None,None,None,None,None,None,None,None,None,None,None,None
1.18,2016-01-05 00:01:35,2016-01-05 00:08:11,7.8,0,0,N,None,None,None,None,-73.998970031738281,40.734600067138672,2,3,0.5,None,None,0.3,6.5,0.5,-73.983680725097656,40.725776672363281,None,None,2,NY CITY CENTRAL PARK NY US,WBAN:94728,1,FM-15,None,None,None,None,None,None,None,None,None,None,None,None,-9999,-9999,None,None,None,-9999,-9999,None,None,None,None,None,None,None,None,None,None,None,None,None,None,None,None,None,None,None,None,None,None,None,None,-73.9669,40.7889,14,24,VRB,10,-12.0,10.00,30.23,30.39,CLR:00,54,1,None,0.00,None,-1,-18.3,13,-10.6,30.40,39.6,2016-01-05 00:51,None,None,None,2143,1220,None,None,None,None,None,None,None,None,None,None,None,None,None,None,None,None
3.55,2016-01-05 00:01:36,2016-01-05 00:20:36,20.16,0,3.36,N,None,2016-01-01 09:00:00,New York,10003,0,0,1,1,0.5,-73.9870210,40.7308580,0.3,15.5,0.5,0,0,New York,0,2,NY CITY CENTRAL PARK NY US,WBAN:94728,1,FM-15,None,None,None,None,None,None,None,None,None,None,None,None,-9999,-9999,None,None,None,-9999,-9999,None,None,None,None,None,None,None,None,None,None,None,None,None,None,None,None,None,None,None,None,None,None,None,None,-73.9669,40.7889,14,24,VRB,10,-12.0,10.00,30.23,30.39,CLR:00,54,1,None,0.00,None,-1,-18.3,13,-10.6,30.40,39.6,2016-01-05 00:51,None,None,None,2143,1220,None,None,None,None,None,None,None,None,None,None,None,None,None,None,None,None
4.59,2016-01-05 00:01:37,2016-01-05 00:26:40,20.3,0,0,N,None,2016-01-01 09:00:00,New York,10003,-73.973670959472656,40.784519195556641,2,2,0.5,-73.9870210,40.7308580,0.3,19,0.5,-73.988189697265625,40.731971740722656,New York,0,2,NY CITY CENTRAL PARK NY US,WBAN:94728,1,FM-15,None,None,None,None,None,None,None,None,None,None,None,None,-9999,-9999,None,None,None,-9999,-9999,None,None,None,None,None,None,None,None,None,None,None,None,None,None,None,None,None,None,None,None,None,None,None,None,-73.9669,40.7889,14,24,VRB,10,-12.0,10.00,30.23,30.39,CLR:00,54,1,None,0.00,None,-1,-18.3,13,-10.6,30.40,39.6,2016-01-05 00:51,None,None,None,2143,1220,None,None,None,None,None,None,None,None,None,None,None,None,None,None,None,None
1.53,2016-01-05 00:01:37,2016-01-05 00:25:25,16.3,0,0,N,None,None,None,None,0,0,2,2,0.5,None,None,0.3,15,0.5,0,0,None,None,2,NY CITY CENTRAL PARK NY US,WBAN:94728,1,FM-15,None,None,None,None,None,None,None,None,None,None,None,None,-9999,-9999,None,None,None,-9999,-9999,None,None,None,None,None,None,None,None,None,None,None,None,None,None,None,None,None,None,None,None,None,None,None,None,-73.9669,40.7889,14,24,VRB,10,-12.0,10.00,30.23,30.39,CLR:00,54,1,None,0.00,None,-1,-18.3,13,-10.6,30.40,39.6,2016-01-05 00:51,None,None,None,2143,1220,None,None,None,None,None,None,None,None,None,None,None,None,None,None,None,None
.20,2016-01-05 00:01:37,2016-01-05 00:03:31,4.8,0,0,N,None,2016-01-01 09:00:00,New York,10003,-73.973335266113281,40.764072418212891,2,1,0.5,-73.9870210,40.7308580,0.3,3.5,0.5,-73.974853515625,40.761734008789063,New York,0,2,NY CITY CENTRAL PARK NY US,WBAN:94728,1,FM-15,None,None,None,None,None,None,None,None,None,None,None,None,-9999,-9999,None,None,None,-9999,-9999,None,None,None,None,None,None,None,None,None,None,None,None,None,None,None,None,None,None,None,None,None,None,None,None,-73.9669,40.7889,14,24,VRB,10,-12.0,10.00,30.23,30.39,CLR:00,54,1,None,0.00,None,-1,-18.3,13,-10.6,30.40,39.6,2016-01-05 00:51,None,None,None,2143,1220,None,None,None,None,None,None,None,None,None,None,None,None,None,None,None,None
10.10,2016-01-05 00:01:38,2016-01-05 00:35:31,34.3,0,0,N,None,None,None,None,-73.978492736816406,40.762176513671875,2,1,0.5,None,None,0.3,33,0.5,-73.961082458496094,40.667453765869141,None,None,1,NY CITY CENTRAL PARK NY US,WBAN:94728,1,FM-15,None,None,None,None,None,None,None,None,None,None,None,None,-9999,-9999,None,None,None,-9999,-9999,None,None,None,None,None,None,None,None,None,None,None,None,None,None,None,None,None,None,None,None,None,None,None,None,-73.9669,40.7889,14,24,VRB,10,-12.0,10.00,30.23,30.39,CLR:00,54,1,None,0.00,None,-1,-18.3,13,-10.6,30.40,39.6,2016-01-05 00:51,None,None,None,2143,1220,None,None,None,None,None,None,None,None,None,None,None,None,None,None,None,None
.70,2016-01-05 00:01:38,2016-01-05 00:06:22,8,0,1.2,N,None | 2016-12-31 00:00:00,2016-01-01 00:00:00 | 2016-01-01 00:00:00,New York | New York,10019 | 10022,-73.997833251953125,40.744915008544922,1,1,0.5,-73.9803996 | -73.968,40.7656668 | 40.759,0.3,5.5,0.5,-73.992012023925781,40.738502502441406,New York | New York,1 | 2,1,NY CITY CENTRAL PARK NY US,WBAN:94728,1,FM-15,None,None,None,None,None,None,None,None,None,None,None,None,-9999,-9999,None,None,None,-9999,-9999,None,None,None,None,None,None,None,None,None,None,None,None,None,None,None,None,None,None,None,None,None,None,None,None,-73.9669,40.7889,14,24,VRB,10,-12.0,10.00,30.23,30.39,CLR:00,54,1,None,0.00,None,-1,-18.3,13,-10.6,30.40,39.6,2016-01-05 00:51,None,None,None,2143,1220,None,None,None,None,None,None,None,None,None,None,None,None,None,None,None,None
.90,2016-01-05 00:01:38,2016-01-05 00:08:32,7.8,0,0,N,None,None,None,None,-73.955589294433594,40.764049530029297,2,1,0.5,None,None,0.3,6.5,0.5,-73.967979431152344,40.762413024902344,None,None,1,NY CITY CENTRAL PARK NY US,WBAN:94728,1,FM-15,None,None,None,None,None,None,None,None,None,None,None,None,-9999,-9999,None,None,None,-9999,-9999,None,None,None,None,None,None,None,None,None,None,None,None,None,None,None,None,None,None,None,None,None,None,None,None,-73.9669,40.7889,14,24,VRB,10,-12.0,10.00,30.23,30.39,CLR:00,54,1,None,0.00,None,-1,-18.3,13,-10.6,30.40,39.6,2016-01-05 00:51,None,None,None,2143,1220,None,None,None,None,None,None,None,None,None,None,None,None,None,None,None,None
7.80,2016-01-05 00:01:38,2016-01-05 00:45:57,40.56,0,6.76,N,None,None,None,None,-73.988357543945313,40.720142364501953,1,1,0.5,None,None,0.3,32.5,0.5,-73.968849182128906,40.790580749511719,None,None,1,NY CITY CENTRAL PARK NY US,WBAN:94728,1,FM-15,None,None,None,None,None,None,None,None,None,None,None,None,-9999,-9999,None,None,None,-9999,-9999,None,None,None,None,None,None,None,None,None,None,None,None,None,None,None,None,None,None,None,None,None,None,None,None,-73.9669,40.7889,14,24,VRB,10,-12.0,10.00,30.23,30.39,CLR:00,54,1,None,0.00,None,-1,-18.3,13,-10.6,30.40,39.6,2016-01-05 00:51,None,None,None,2143,1220,None,None,None,None,None,None,None,None,None,None,None,None,None,None,None,None
1.20,2016-01-05 00:01:38,2016-01-05 00:06:34,8.75,0,1.45,N,2016-12-31 00:00:00,2016-01-01 00:00:00,New York,10022,-73.99267578125,40.720390319824219,1,1,0.5,-73.968,40.759,0.3,6,0.5,-74.003372192382813,40.708168029785156,New York,2,1,NY CITY CENTRAL PARK NY US,WBAN:94728,1,FM-15,None,None,None,None,None,None,None,None,None,None,None,None,-9999,-9999,None,None,None,-9999,-9999,None,None,None,None,None,None,None,None,None,None,None,None,None,None,None,None,None,None,None,None,None,None,None,None,-73.9669,40.7889,14,24,VRB,10,-12.0,10.00,30.23,30.39,CLR:00,54,1,None,0.00,None,-1,-18.3,13,-10.6,30.40,39.6,2016-01-05 00:51,None,None,None,2143,1220,None,None,None,None,None,None,None,None,None,None,None,None,None,None,None,None
6.20,2016-01-05 00:01:39,2016-01-05 00:20:55,27.85,0,5.55,N,None,None,None,None,-74.014839172363281,40.714607238769531,1,2,0.5,None,None,0.3,21,0.5,-73.987525939941406,40.745502471923828,None,None,1,NY CITY CENTRAL PARK NY US,WBAN:94728,1,FM-15,None,None,None,None,None,None,None,None,None,None,None,None,-9999,-9999,None,None,None,-9999,-9999,None,None,None,None,None,None,None,None,None,None,None,None,None,None,None,None,None,None,None,None,None,None,None,None,-73.9669,40.7889,14,24,VRB,10,-12.0,10.00,30.23,30.39,CLR:00,54,1,None,0.00,None,-1,-18.3,13,-10.6,30.40,39.6,2016-01-05 00:51,None,None,None,2143,1220,None,None,None,None,None,None,None,None,None,None,None,None,None,None,None,None
4.00,2016-01-05 00:01:39,2016-01-05 00:17:04,16.8,0,1,N,None | None | None,2016-01-01 00:00:00 | 2016-01-01 00:00:00 | 2016-01-01 02:00:00,New York | New York | New York,None | None | 10038,-73.944168090820313,40.788074493408203,1,1,0.5,-74.0064 | -74.0064 | -74.0081571,40.7142 | 40.7142 | 40.7090990,0.3,14.5,0.5,-73.985527038574219,40.747257232666016,New York | New York | New York,1 | 1 | 0,1,NY CITY CENTRAL PARK NY US,WBAN:94728,1,FM-15,None,None,None,None,None,None,None,None,None,None,None,None,-9999,-9999,None,None,None,-9999,-9999,None,None,None,None,None,None,None,None,None,None,None,None,None,None,None,None,None,None,None,None,None,None,None,None,-73.9669,40.7889,14,24,VRB,10,-12.0,10.00,30.23,30.39,CLR:00,54,1,None,0.00,None,-1,-18.3,13,-10.6,30.40,39.6,2016-01-05 00:51,None,None,None,2143,1220,None,None,None,None,None,None,None,None,None,None,None,None,None,None,None,None
3.30,2016-01-05 00:01:39,2016-01-05 00:12:30,13.8,0,0,N,None,None,None,None,-73.978569030761719,40.729572296142578,2,1,0.5,None,None,0.3,12.5,0.5,-73.9554443359375,40.768348693847656,None,None,1,NY CITY CENTRAL PARK NY US,WBAN:94728,1,FM-15,None,None,None,None,None,None,None,None,None,None,None,None,-9999,-9999,None,None,None,-9999,-9999,None,None,None,None,None,None,None,None,None,None,None,None,None,None,None,None,None,None,None,None,None,None,None,None,-73.9669,40.7889,14,24,VRB,10,-12.0,10.00,30.23,30.39,CLR:00,54,1,None,0.00,None,-1,-18.3,13,-10.6,30.40,39.6,2016-01-05 00:51,None,None,None,2143,1220,None,None,None,None,None,None,None,None,None,None,None,None,None,None,None,None
.71,2016-01-05 00:01:39,2016-01-05 00:05:47,6.3,0,0,N,None,None,None,None,-73.999031066894531,40.734218597412109,2,1,0.5,None,None,0.3,5,0.5,-73.999221801757812,40.729026794433594,None,None,2,NY CITY CENTRAL PARK NY US,WBAN:94728,1,FM-15,None,None,None,None,None,None,None,None,None,None,None,None,-9999,-9999,None,None,None,-9999,-9999,None,None,None,None,None,None,None,None,None,None,None,None,None,None,None,None,None,None,None,None,None,None,None,None,-73.9669,40.7889,14,24,VRB,10,-12.0,10.00,30.23,30.39,CLR:00,54,1,None,0.00,None,-1,-18.3,13,-10.6,30.40,39.6,2016-01-05 00:51,None,None,None,2143,1220,None,None,None,None,None,None,None,None,None,None,None,None,None,None,None,None
5.70,2016-01-05 00:01:40,2016-01-05 00:16:59,19.8,0,0,N,None,None,None,None,-73.959922790527344,40.773502349853516,2,1,0.5,None,None,0.3,18.5,0.5,-73.888465881347656,40.816562652587891,None,None,1,NY CITY CENTRAL PARK NY US,WBAN:94728,1,FM-15,None,None,None,None,None,None,None,None,None,None,None,None,-9999,-9999,None,None,None,-9999,-9999,None,None,None,None,None,None,None,None,None,None,None,None,None,None,None,None,None,None,None,None,None,None,None,None,-73.9669,40.7889,14,24,VRB,10,-12.0,10.00,30.23,30.39,CLR:00,54,1,None,0.00,None,-1,-18.3,13,-10.6,30.40,39.6,2016-01-05 00:51,None,None,None,2143,1220,None,None,None,None,None,None,None,None,None,None,None,None,None,None,None,None
3.60,2016-01-05 00:01:40,2016-01-05 00:24:33,17.3,0,0,N,None,None,None,None,-73.993942260742188,40.7567138671875,2,2,0.5,None,None,0.3,16,0.5,-74.003631591796875,40.751472473144531,None,None,1,NY CITY CENTRAL PARK NY US,WBAN:94728,1,FM-15,None,None,None,None,None,None,None,None,None,None,None,None,-9999,-9999,None,None,None,-9999,-9999,None,None,None,None,None,None,None,None,None,None,None,None,None,None,None,None,None,None,None,None,None,None,None,None,-73.9669,40.7889,14,24,VRB,10,-12.0,10.00,30.23,30.39,CLR:00,54,1,None,0.00,None,-1,-18.3,13,-10.6,30.40,39.6,2016-01-05 00:51,None,None,None,2143,1220,None,None,None,None,None,None,None,None,None,None,None,None,None,None,None,None
.90,2016-01-05 00:01:41,2016-01-05 00:07:46,7.3,0,0,N,None,None,None,None,-74.002578735351563,40.739639282226562,2,1,0.5,None,None,0.3,6,0.5,-74.002197265625,40.745220184326172,None,None,1,NY CITY CENTRAL PARK NY US,WBAN:94728,1,FM-15,None,None,None,None,None,None,None,None,None,None,None,None,-9999,-9999,None,None,None,-9999,-9999,None,None,None,None,None,None,None,None,None,None,None,None,None,None,None,None,None,None,None,None,None,None,None,None,-73.9669,40.7889,14,24,VRB,10,-12.0,10.00,30.23,30.39,CLR:00,54,1,None,0.00,None,-1,-18.3,13,-10.6,30.40,39.6,2016-01-05 00:51,None,None,None,2143,1220,None,None,None,None,None,None,None,None,None,None,None,None,None,None,None,None
9.60,2016-01-05 00:01:41,2016-01-05 00:34:07,38.3,0,5,N,None,None,None,None,-73.99676513671875,40.742439270019531,1,3,0.5,None,None,0.3,32,0.5,-73.941566467285156,40.851390838623047,None,None,1,NY CITY CENTRAL PARK NY US,WBAN:94728,1,FM-15,None,None,None,None,None,None,None,None,None,None,None,None,-9999,-9999,None,None,None,-9999,-9999,None,None,None,None,None,None,None,None,None,None,None,None,None,None,None,None,None,None,None,None,None,None,None,None,-73.9669,40.7889,14,24,VRB,10,-12.0,10.00,30.23,30.39,CLR:00,54,1,None,0.00,None,-1,-18.3,13,-10.6,30.40,39.6,2016-01-05 00:51,None,None,None,2143,1220,None,None,None,None,None,None,None,None,None,None,None,None,None,None,None,None
1.33,2016-01-05 00:01:41,2016-01-05 00:08:17,8.3,0,0,N,None,None,None,None,-73.976448059082031,40.758377075195312,2,1,0.5,None,None,0.3,7,0.5,-73.976432800292969,40.745105743408203,None,None,2,NY CITY CENTRAL PARK NY US,WBAN:94728,1,FM-15,None,None,None,None,None,None,None,None,None,None,None,None,-9999,-9999,None,None,None,-9999,-9999,None,None,None,None,None,None,None,None,None,None,None,None,None,None,None,None,None,None,None,None,None,None,None,None,-73.9669,40.7889,14,24,VRB,10,-12.0,10.00,30.23,30.39,CLR:00,54,1,None,0.00,None,-1,-18.3,13,-10.6,30.40,39.6,2016-01-05 00:51,None,None,None,2143,1220,None,None,None,None,None,None,None,None,None,None,None,None,None,None,None,None
1.18,2016-01-05 00:01:41,2016-01-05 00:08:50,7.8,0,0,N,None,None,None,None,-74.004280090332031,40.721820831298828,2,1,0.5,None,None,0.3,6.5,0.5,-73.999076843261719,40.734031677246094,None,None,2,NY CITY CENTRAL PARK NY US,WBAN:94728,1,FM-15,None,None,None,None,None,None,None,None,None,None,None,None,-9999,-9999,None,None,None,-9999,-9999,None,None,None,None,None,None,None,None,None,None,None,None,None,None,None,None,None,None,None,None,None,None,None,None,-73.9669,40.7889,14,24,VRB,10,-12.0,10.00,30.23,30.39,CLR:00,54,1,None,0.00,None,-1,-18.3,13,-10.6,30.40,39.6,2016-01-05 00:51,None,None,None,2143,1220,None,None,None,None,None,None,None,None,None,None,None,None,None,None,None,None
6.90,2016-01-05 00:01:42,2016-01-05 00:16:39,27.36,0,4.56,N,None,None,None,None,-73.97149658203125,40.756011962890625,1,1,0.5,None,None,0.3,21.5,0.5,-74.0155029296875,40.7178955078125,None,None,1,NY CITY CENTRAL PARK NY US,WBAN:94728,1,FM-15,None,None,None,None,None,None,None,None,None,None,None,None,-9999,-9999,None,None,None,-9999,-9999,None,None,None,None,None,None,None,None,None,None,None,None,None,None,None,None,None,None,None,None,None,None,None,None,-73.9669,40.7889,14,24,VRB,10,-12.0,10.00,30.23,30.39,CLR:00,54,1,None,0.00,None,-1,-18.3,13,-10.6,30.40,39.6,2016-01-05 00:51,None,None,None,2143,1220,None,None,None,None,None,None,None,None,None,None,None,None,None,None,None,None
1.78,2016-01-06 09:18:19,2016-01-06 09:28:56,12.25,0,2.45,N,None,None,None,None,-73.949546813964844,40.771762847900391,1,1,0.5,None,None,0.3,9,0,-73.963699340820313,40.757251739501953,None,None,2,NY CITY CENTRAL PARK NY US,WBAN:94728,1,FM-15,None,None,None,None,None,None,None,None,None,None,None,None,-9999,-9999,None,None,None,-9999,-9999,None,None,None,None,None,None,None,None,None,None,None,None,None,None,None,None,None,None,None,None,None,None,None,None,-73.9669,40.7889,7,None,VRB,25,-3.7,10.00,30.43,30.58,CLR:00,31,3,None,0.00,None,3,-16.1,30,-1.1,30.60,39.6,2016-01-06 09:51,None,None,None,2143,1220,None,None,None,None,None,None,None,None,None,None,None,None,None,None,None,None
7.50,2016-01-06 09:18:20,2016-01-06 10:20:27,41.8,0,0,N,None,None,None,None,-73.9739990234375,40.742992401123047,2,1,0.5,None,None,0.3,41,0,-73.954803466796875,40.692562103271484,None,None,1,NY CITY CENTRAL PARK NY US,WBAN:94728,1,FM-15,None,None,None,None,None,None,None,None,None,None,None,None,-9999,-9999,None,None,None,-9999,-9999,None,None,None,None,None,None,None,None,None,None,None,None,None,None,None,None,None,None,None,None,None,None,None,None,-73.9669,40.7889,7,None,VRB,25,-3.7,10.00,30.43,30.58,CLR:00,31,3,None,0.00,None,3,-16.1,30,-1.1,30.60,39.6,2016-01-06 09:51,None,None,None,2143,1220,None,None,None,None,None,None,None,None,None,None,None,None,None,None,None,None
1.40,2016-01-06 09:18:20,2016-01-06 09:29:27,10.8,0,1,N,2016-12-31 00:00:00,2016-01-01 00:00:00,New York,10022,-73.987266540527344,40.74432373046875,1,1,0.5,-73.968,40.759,0.3,9,0,-73.979766845703125,40.760555267333984,New York,2,1,NY CITY CENTRAL PARK NY US,WBAN:94728,1,FM-15,None,None,None,None,None,None,None,None,None,None,None,None,-9999,-9999,None,None,None,-9999,-9999,None,None,None,None,None,None,None,None,None,None,None,None,None,None,None,None,None,None,None,None,None,None,None,None,-73.9669,40.7889,7,None,VRB,25,-3.7,10.00,30.43,30.58,CLR:00,31,3,None,0.00,None,3,-16.1,30,-1.1,30.60,39.6,2016-01-06 09:51,None,None,None,2143,1220,None,None,None,None,None,None,None,None,None,None,None,None,None,None,None,None
.50,2016-01-06 09:18:20,2016-01-06 09:21:35,5.3,0,0,N,None,None,None,None,-73.942710876464844,40.794361114501953,2,1,0.5,None,None,0.3,4.5,0,-73.935356140136719,40.796188354492187,None,None,1,NY CITY CENTRAL PARK NY US,WBAN:94728,1,FM-15,None,None,None,None,None,None,None,None,None,None,None,None,-9999,-9999,None,None,None,-9999,-9999,None,None,None,None,None,None,None,None,None,None,None,None,None,None,None,None,None,None,None,None,None,None,None,None,-73.9669,40.7889,7,None,VRB,25,-3.7,10.00,30.43,30.58,CLR:00,31,3,None,0.00,None,3,-16.1,30,-1.1,30.60,39.6,2016-01-06 09:51,None,None,None,2143,1220,None,None,None,None,None,None,None,None,None,None,None,None,None,None,None,None
1.00,2016-01-06 09:18:20,2016-01-06 09:30:41,10.8,0,1,N,None | 2016-07-03 00:00:00,2016-01-01 00:00:00 | 2015-10-08 00:00:00,New York | New York,10019 | 10019,-74.008773803710937,40.713890075683594,1,1,0.5,-73.9803996 | -73.9844951,40.7656668 | 40.7632328,0.3,9,0,-73.99676513671875,40.723995208740234,New York | New York,1 | 2,1,NY CITY CENTRAL PARK NY US,WBAN:94728,1,FM-15,None,None,None,None,None,None,None,None,None,None,None,None,-9999,-9999,None,None,None,-9999,-9999,None,None,None,None,None,None,None,None,None,None,None,None,None,None,None,None,None,None,None,None,None,None,None,None,-73.9669,40.7889,7,None,VRB,25,-3.7,10.00,30.43,30.58,CLR:00,31,3,None,0.00,None,3,-16.1,30,-1.1,30.60,39.6,2016-01-06 09:51,None,None,None,2143,1220,None,None,None,None,None,None,None,None,None,None,None,None,None,None,None,None
.60,2016-01-06 09:18:20,2016-01-06 09:23:43,6.8,0,1,N,None,None,None,None,-73.997711181640625,40.724002838134766,1,1,0.5,None,None,0.3,5,0,-74.005271911621094,40.719131469726562,None,None,1,NY CITY CENTRAL PARK NY US,WBAN:94728,1,FM-15,None,None,None,None,None,None,None,None,None,None,None,None,-9999,-9999,None,None,None,-9999,-9999,None,None,None,None,None,None,None,None,None,None,None,None,None,None,None,None,None,None,None,None,None,None,None,None,-73.9669,40.7889,7,None,VRB,25,-3.7,10.00,30.43,30.58,CLR:00,31,3,None,0.00,None,3,-16.1,30,-1.1,30.60,39.6,2016-01-06 09:51,None,None,None,2143,1220,None,None,None,None,None,None,None,None,None,None,None,None,None,None,None,None
2.70,2016-01-06 09:18:21,2016-01-06 09:39:13,18.95,0,3.15,N,None,2016-01-01 20:00:00,New York,10013,-73.9652099609375,40.791206359863281,1,1,0.5,-74.0050159,40.7208412,0.3,15,0,-73.975845336914063,40.760135650634766,New York,0,1,NY CITY CENTRAL PARK NY US,WBAN:94728,1,FM-15,None,None,None,None,None,None,None,None,None,None,None,None,-9999,-9999,None,None,None,-9999,-9999,None,None,None,None,None,None,None,None,None,None,None,None,None,None,None,None,None,None,None,None,None,None,None,None,-73.9669,40.7889,7,None,VRB,25,-3.7,10.00,30.43,30.58,CLR:00,31,3,None,0.00,None,3,-16.1,30,-1.1,30.60,39.6,2016-01-06 09:51,None,None,None,2143,1220,None,None,None,None,None,None,None,None,None,None,None,None,None,None,None,None
2.60,2016-01-06 09:18:21,2016-01-06 09:33:55,13.3,0,0,N,None | None | None,2016-01-01 00:00:00 | 2016-01-01 00:00:00 | 2016-01-01 20:00:00,New York | New York | New York,None | None | 10013,-73.982025146484375,40.772476196289063,2,1,0.5,-74.0064 | -74.0064 | -74.0050159,40.7142 | 40.7142 | 40.7208412,0.3,12.5,0,-73.954948425292969,40.783359527587891,New York | New York | New York,1 | 1 | 0,1,NY CITY CENTRAL PARK NY US,WBAN:94728,1,FM-15,None,None,None,None,None,None,None,None,None,None,None,None,-9999,-9999,None,None,None,-9999,-9999,None,None,None,None,None,None,None,None,None,None,None,None,None,None,None,None,None,None,None,None,None,None,None,None,-73.9669,40.7889,7,None,VRB,25,-3.7,10.00,30.43,30.58,CLR:00,31,3,None,0.00,None,3,-16.1,30,-1.1,30.60,39.6,2016-01-06 09:51,None,None,None,2143,1220,None,None,None,None,None,None,None,None,None,None,None,None,None,None,None,None
1.20,2016-01-06 09:18:21,2016-01-06 09:27:59,8.8,0,0,N,None | 2016-12-31 00:00:00,2016-01-01 00:00:00 | 2016-01-01 00:00:00,New York | New York,10019 | 10022,-73.996589660644531,40.742809295654297,2,1,0.5,-73.9803996 | -73.968,40.7656668 | 40.759,0.3,8,0,-73.989616394042969,40.757415771484375,New York | New York,1 | 2,1,NY CITY CENTRAL PARK NY US,WBAN:94728,1,FM-15,None,None,None,None,None,None,None,None,None,None,None,None,-9999,-9999,None,None,None,-9999,-9999,None,None,None,None,None,None,None,None,None,None,None,None,None,None,None,None,None,None,None,None,None,None,None,None,-73.9669,40.7889,7,None,VRB,25,-3.7,10.00,30.43,30.58,CLR:00,31,3,None,0.00,None,3,-16.1,30,-1.1,30.60,39.6,2016-01-06 09:51,None,None,None,2143,1220,None,None,None,None,None,None,None,None,None,None,None,None,None,None,None,None
1.23,2016-01-06 09:18:21,2016-01-06 09:28:16,10.56,0,1.76,N,None,None,None,None,-74.015983581542969,40.715091705322266,1,5,0.5,None,None,0.3,8,0,-74.001075744628906,40.721012115478516,None,None,2,NY CITY CENTRAL PARK NY US,WBAN:94728,1,FM-15,None,None,None,None,None,None,None,None,None,None,None,None,-9999,-9999,None,None,None,-9999,-9999,None,None,None,None,None,None,None,None,None,None,None,None,None,None,None,None,None,None,None,None,None,None,None,None,-73.9669,40.7889,7,None,VRB,25,-3.7,10.00,30.43,30.58,CLR:00,31,3,None,0.00,None,3,-16.1,30,-1.1,30.60,39.6,2016-01-06 09:51,None,None,None,2143,1220,None,None,None,None,None,None,None,None,None,None,None,None,None,None,None,None
.69,2016-01-06 09:18:21,2016-01-06 09:23:18,5.8,0,0,N,2016-07-03 00:00:00,2015-10-08 00:00:00,New York,10019,-73.975120544433594,40.75225830078125,2,1,0.5,-73.9844951,40.7632328,0.3,5,0,-73.983833312988281,40.747150421142578,New York,2,2,NY CITY CENTRAL PARK NY US,WBAN:94728,1,FM-15,None,None,None,None,None,None,None,None,None,None,None,None,-9999,-9999,None,None,None,-9999,-9999,None,None,None,None,None,None,None,None,None,None,None,None,None,None,None,None,None,None,None,None,None,None,None,None,-73.9669,40.7889,7,None,VRB,25,-3.7,10.00,30.43,30.58,CLR:00,31,3,None,0.00,None,3,-16.1,30,-1.1,30.60,39.6,2016-01-06 09:51,None,None,None,2143,1220,None,None,None,None,None,None,None,None,None,None,None,None,None,None,None,None
1.61,2016-01-06 09:18:21,2016-01-06 09:27:30,10.56,0,1.76,N,None,2016-01-01 20:00:00,New York,10013,-73.955718994140625,40.768203735351562,1,1,0.5,-74.0050159,40.7208412,0.3,8,0,-73.972061157226562,40.781772613525391,New York,0,2,NY CITY CENTRAL PARK NY US,WBAN:94728,1,FM-15,None,None,None,None,None,None,None,None,None,None,None,None,-9999,-9999,None,None,None,-9999,-9999,None,None,None,None,None,None,None,None,None,None,None,None,None,None,None,None,None,None,None,None,None,None,None,None,-73.9669,40.7889,7,None,VRB,25,-3.7,10.00,30.43,30.58,CLR:00,31,3,None,0.00,None,3,-16.1,30,-1.1,30.60,39.6,2016-01-06 09:51,None,None,None,2143,1220,None,None,None,None,None,None,None,None,None,None,None,None,None,None,None,None
.29,2016-01-06 09:18:21,2016-01-06 09:19:57,5.59,0,1.29,N,None,None,None,None,-73.971885681152344,40.781833648681641,1,1,0.5,None,None,0.3,3.5,0,-73.969383239746094,40.785346984863281,None,None,2,NY CITY CENTRAL PARK NY US,WBAN:94728,1,FM-15,None,None,None,None,None,None,None,None,None,None,None,None,-9999,-9999,None,None,None,-9999,-9999,None,None,None,None,None,None,None,None,None,None,None,None,None,None,None,None,None,None,None,None,None,None,None,None,-73.9669,40.7889,7,None,VRB,25,-3.7,10.00,30.43,30.58,CLR:00,31,3,None,0.00,None,3,-16.1,30,-1.1,30.60,39.6,2016-01-06 09:51,None,None,None,2143,1220,None,None,None,None,None,None,None,None,None,None,None,None,None,None,None,None
4.89,2016-01-06 09:18:21,2016-01-06 09:54:39,26.4,0,1.1,N,None,2016-01-01 00:00:00,New York,10028,-74.005928039550781,40.745220184326172,1,1,0.5,-73.9634699,40.7792134,0.3,24.5,0,-73.964263916015625,40.807376861572266,New York,2,2,NY CITY CENTRAL PARK NY US,WBAN:94728,1,FM-15,None,None,None,None,None,None,None,None,None,None,None,None,-9999,-9999,None,None,None,-9999,-9999,None,None,None,None,None,None,None,None,None,None,None,None,None,None,None,None,None,None,None,None,None,None,None,None,-73.9669,40.7889,7,None,VRB,25,-3.7,10.00,30.43,30.58,CLR:00,31,3,None,0.00,None,3,-16.1,30,-1.1,30.60,39.6,2016-01-06 09:51,None,None,None,2143,1220,None,None,None,None,None,None,None,None,None,None,None,None,None,None,None,None
7.33,2016-01-06 09:18:21,2016-01-06 09:40:52,30.38,0,6.08,N,None,None,None,None,-73.997886657714844,40.682857513427734,1,2,0.5,None,None,0.3,23.5,0,-73.972236633300781,40.749797821044922,None,None,2,NY CITY CENTRAL PARK NY US,WBAN:94728,1,FM-15,None,None,None,None,None,None,None,None,None,None,None,None,-9999,-9999,None,None,None,-9999,-9999,None,None,None,None,None,None,None,None,None,None,None,None,None,None,None,None,None,None,None,None,None,None,None,None,-73.9669,40.7889,7,None,VRB,25,-3.7,10.00,30.43,30.58,CLR:00,31,3,None,0.00,None,3,-16.1,30,-1.1,30.60,39.6,2016-01-06 09:51,None,None,None,2143,1220,None,None,None,None,None,None,None,None,None,None,None,None,None,None,None,None
.90,2016-01-06 09:18:22,2016-01-06 09:25:05,7.8,0,1,N,None,None,None,None,-73.996261596679687,40.738037109375,1,1,0.5,None,None,0.3,6,0,-73.990272521972656,40.731681823730469,None,None,1,NY CITY CENTRAL PARK NY US,WBAN:94728,1,FM-15,None,None,None,None,None,None,None,None,None,None,None,None,-9999,-9999,None,None,None,-9999,-9999,None,None,None,None,None,None,None,None,None,None,None,None,None,None,None,None,None,None,None,None,None,None,None,None,-73.9669,40.7889,7,None,VRB,25,-3.7,10.00,30.43,30.58,CLR:00,31,3,None,0.00,None,3,-16.1,30,-1.1,30.60,39.6,2016-01-06 09:51,None,None,None,2143,1220,None,None,None,None,None,None,None,None,None,None,None,None,None,None,None,None
.80,2016-01-06 09:18:22,2016-01-06 09:28:43,8.3,0,0,N,None,None,None,None,-73.991203308105469,40.749736785888672,2,1,0.5,None,None,0.3,7.5,0,-73.989494323730469,40.739948272705078,None,None,1,NY CITY CENTRAL PARK NY US,WBAN:94728,1,FM-15,None,None,None,None,None,None,None,None,None,None,None,None,-9999,-9999,None,None,None,-9999,-9999,None,None,None,None,None,None,None,None,None,None,None,None,None,None,None,None,None,None,None,None,None,None,None,None,-73.9669,40.7889,7,None,VRB,25,-3.7,10.00,30.43,30.58,CLR:00,31,3,None,0.00,None,3,-16.1,30,-1.1,30.60,39.6,2016-01-06 09:51,None,None,None,2143,1220,None,None,None,None,None,None,None,None,None,None,None,None,None,None,None,None
1.20,2016-01-06 09:18:22,2016-01-06 09:28:10,8.8,0,0,N,None,2016-01-01 09:00:00,New York,10003,-73.957862854003906,40.765365600585938,2,1,0.5,-73.9870210,40.7308580,0.3,8,0,-73.97076416015625,40.757892608642578,New York,0,1,NY CITY CENTRAL PARK NY US,WBAN:94728,1,FM-15,None,None,None,None,None,None,None,None,None,None,None,None,-9999,-9999,None,None,None,-9999,-9999,None,None,None,None,None,None,None,None,None,None,None,None,None,None,None,None,None,None,None,None,None,None,None,None,-73.9669,40.7889,7,None,VRB,25,-3.7,10.00,30.43,30.58,CLR:00,31,3,None,0.00,None,3,-16.1,30,-1.1,30.60,39.6,2016-01-06 09:51,None,None,None,2143,1220,None,None,None,None,None,None,None,None,None,None,None,None,None,None,None,None
.90,2016-01-06 09:18:22,2016-01-06 09:25:30,8.75,0,1.45,N,None,None,None,None,0,0,1,1,0.5,None,None,0.3,6.5,0,0,0,None,None,1,NY CITY CENTRAL PARK NY US,WBAN:94728,1,FM-15,None,None,None,None,None,None,None,None,None,None,None,None,-9999,-9999,None,None,None,-9999,-9999,None,None,None,None,None,None,None,None,None,None,None,None,None,None,None,None,None,None,None,None,None,None,None,None,-73.9669,40.7889,7,None,VRB,25,-3.7,10.00,30.43,30.58,CLR:00,31,3,None,0.00,None,3,-16.1,30,-1.1,30.60,39.6,2016-01-06 09:51,None,None,None,2143,1220,None,None,None,None,None,None,None,None,None,None,None,None,None,None,None,None
2.60,2016-01-06 09:18:22,2016-01-06 09:27:28,13.3,0,2,N,2016-12-31 00:00:00,2016-01-01 00:00:00,New York,10022,-74.010635375976563,40.717437744140625,1,1,0.5,-73.968,40.759,0.3,10.5,0,-74.007949829101563,40.751300811767578,New York,2,2,NY CITY CENTRAL PARK NY US,WBAN:94728,1,FM-15,None,None,None,None,None,None,None,None,None,None,None,None,-9999,-9999,None,None,None,-9999,-9999,None,None,None,None,None,None,None,None,None,None,None,None,None,None,None,None,None,None,None,None,None,None,None,None,-73.9669,40.7889,7,None,VRB,25,-3.7,10.00,30.43,30.58,CLR:00,31,3,None,0.00,None,3,-16.1,30,-1.1,30.60,39.6,2016-01-06 09:51,None,None,None,2143,1220,None,None,None,None,None,None,None,None,None,None,None,None,None,None,None,None
1.10,2016-01-06 09:18:22,2016-01-06 09:29:24,8.8,0,0,N,None,None,None,None,-73.967247009277344,40.760688781738281,2,6,0.5,None,None,0.3,8,0,-73.980751037597656,40.767665863037109,None,None,2,NY CITY CENTRAL PARK NY US,WBAN:94728,1,FM-15,None,None,None,None,None,None,None,None,None,None,None,None,-9999,-9999,None,None,None,-9999,-9999,None,None,None,None,None,None,None,None,None,None,None,None,None,None,None,None,None,None,None,None,None,None,None,None,-73.9669,40.7889,7,None,VRB,25,-3.7,10.00,30.43,30.58,CLR:00,31,3,None,0.00,None,3,-16.1,30,-1.1,30.60,39.6,2016-01-06 09:51,None,None,None,2143,1220,None,None,None,None,None,None,None,None,None,None,None,None,None,None,None,None
2.96,2016-01-06 09:18:22,2016-01-06 09:32:34,15.8,0,2,N,None,None,None,None,-73.977798461914063,40.73419189453125,1,1,0.5,None,None,0.3,13,0,-74.001014709472656,40.724208831787109,None,None,2,NY CITY CENTRAL PARK NY US,WBAN:94728,1,FM-15,None,None,None,None,None,None,None,None,None,None,None,None,-9999,-9999,None,None,None,-9999,-9999,None,None,None,None,None,None,None,None,None,None,None,None,None,None,None,None,None,None,None,None,None,None,None,None,-73.9669,40.7889,7,None,VRB,25,-3.7,10.00,30.43,30.58,CLR:00,31,3,None,0.00,None,3,-16.1,30,-1.1,30.60,39.6,2016-01-06 09:51,None,None,None,2143,1220,None,None,None,None,None,None,None,None,None,None,None,None,None,None,None,None
1.40,2016-01-06 09:18:22,2016-01-06 09:35:21,14.3,0,2,N,None | 2016-07-03 00:00:00,2016-01-01 00:00:00 | 2015-10-08 00:00:00,New York | New York,10019 | 10019,-73.979217529296875,40.784881591796875,1,5,0.5,-73.9803996 | -73.9844951,40.7656668 | 40.7632328,0.3,11.5,0,-73.981887817382812,40.765708923339844,New York | New York,1 | 2,2,NY CITY CENTRAL PARK NY US,WBAN:94728,1,FM-15,None,None,None,None,None,None,None,None,None,None,None,None,-9999,-9999,None,None,None,-9999,-9999,None,None,None,None,None,None,None,None,None,None,None,None,None,None,None,None,None,None,None,None,None,None,None,None,-73.9669,40.7889,7,None,VRB,25,-3.7,10.00,30.43,30.58,CLR:00,31,3,None,0.00,None,3,-16.1,30,-1.1,30.60,39.6,2016-01-06 09:51,None,None,None,2143,1220,None,None,None,None,None,None,None,None,None,None,None,None,None,None,None,None
1.50,2016-01-06 09:18:23,2016-01-06 09:33:03,13.8,0,2.5,N,None,2016-01-01 20:00:00,New York,10013,-73.980644226074219,40.782444000244141,1,1,0.5,-74.0050159,40.7208412,0.3,10.5,0,-73.983810424804688,40.761360168457031,New York,0,1,NY CITY CENTRAL PARK NY US,WBAN:94728,1,FM-15,None,None,None,None,None,None,None,None,None,None,None,None,-9999,-9999,None,None,None,-9999,-9999,None,None,None,None,None,None,None,None,None,None,None,None,None,None,None,None,None,None,None,None,None,None,None,None,-73.9669,40.7889,7,None,VRB,25,-3.7,10.00,30.43,30.58,CLR:00,31,3,None,0.00,None,3,-16.1,30,-1.1,30.60,39.6,2016-01-06 09:51,None,None,None,2143,1220,None,None,None,None,None,None,None,None,None,None,None,None,None,None,None,None
.60,2016-01-06 09:18:23,2016-01-06 09:23:47,7.55,0,1.25,N,None | 2016-07-03 00:00:00,2016-01-01 00:00:00 | 2015-10-08 00:00:00,New York | New York,10019 | 10019,-73.984260559082031,40.754833221435547,1,1,0.5,-73.9803996 | -73.9844951,40.7656668 | 40.7632328,0.3,5.5,0,-73.976951599121094,40.758533477783203,New York | New York,1 | 2,1,NY CITY CENTRAL PARK NY US,WBAN:94728,1,FM-15,None,None,None,None,None,None,None,None,None,None,None,None,-9999,-9999,None,None,None,-9999,-9999,None,None,None,None,None,None,None,None,None,None,None,None,None,None,None,None,None,None,None,None,None,None,None,None,-73.9669,40.7889,7,None,VRB,25,-3.7,10.00,30.43,30.58,CLR:00,31,3,None,0.00,None,3,-16.1,30,-1.1,30.60,39.6,2016-01-06 09:51,None,None,None,2143,1220,None,None,None,None,None,None,None,None,None,None,None,None,None,None,None,None
1.80,2016-01-06 09:18:23,2016-01-06 09:32:05,14.1,0,2.8,N,None | 2016-07-03 00:00:00,2016-01-01 00:00:00 | 2015-10-08 00:00:00,New York | New York,10019 | 10019,-73.993362426757813,40.746902465820313,1,1,0.5,-73.9803996 | -73.9844951,40.7656668 | 40.7632328,0.3,10.5,0,-73.983062744140625,40.765792846679688,New York | New York,1 | 2,1,NY CITY CENTRAL PARK NY US,WBAN:94728,1,FM-15,None,None,None,None,None,None,None,None,None,None,None,None,-9999,-9999,None,None,None,-9999,-9999,None,None,None,None,None,None,None,None,None,None,None,None,None,None,None,None,None,None,None,None,None,None,None,None,-73.9669,40.7889,7,None,VRB,25,-3.7,10.00,30.43,30.58,CLR:00,31,3,None,0.00,None,3,-16.1,30,-1.1,30.60,39.6,2016-01-06 09:51,None,None,None,2143,1220,None,None,None,None,None,None,None,None,None,None,None,None,None,None,None,None
2.96,2016-01-06 09:18:23,2016-01-06 09:44:52,20.3,0,2,N,2016-12-31 00:00:00,2016-01-01 00:00:00,New York,10022,-73.962234497070312,40.776077270507812,1,1,0.5,-73.968,40.759,0.3,17.5,0,-73.98980712890625,40.741180419921875,New York,2,2,NY CITY CENTRAL PARK NY US,WBAN:94728,1,FM-15,None,None,None,None,None,None,None,None,None,None,None,None,-9999,-9999,None,None,None,-9999,-9999,None,None,None,None,None,None,None,None,None,None,None,None,None,None,None,None,None,None,None,None,None,None,None,None,-73.9669,40.7889,7,None,VRB,25,-3.7,10.00,30.43,30.58,CLR:00,31,3,None,0.00,None,3,-16.1,30,-1.1,30.60,39.6,2016-01-06 09:51,None,None,None,2143,1220,None,None,None,None,None,None,None,None,None,None,None,None,None,None,None,None
.89,2016-01-06 09:18:23,2016-01-06 09:23:09,7.56,0,1.26,N,None | 2016-07-03 00:00:00,2016-01-01 00:00:00 | 2015-10-08 00:00:00,New York | New York,10019 | 10019,-73.935699462890625,40.761070251464844,1,5,0.5,-73.9803996 | -73.9844951,40.7656668 | 40.7632328,0.3,5.5,0,-73.937744140625,40.753673553466797,New York | New York,1 | 2,2,NY CITY CENTRAL PARK NY US,WBAN:94728,1,FM-15,None,None,None,None,None,None,None,None,None,None,None,None,-9999,-9999,None,None,None,-9999,-9999,None,None,None,None,None,None,None,None,None,None,None,None,None,None,None,None,None,None,None,None,None,None,None,None,-73.9669,40.7889,7,None,VRB,25,-3.7,10.00,30.43,30.58,CLR:00,31,3,None,0.00,None,3,-16.1,30,-1.1,30.60,39.6,2016-01-06 09:51,None,None,None,2143,1220,None,None,None,None,None,None,None,None,None,None,None,None,None,None,None,None
.27,2016-01-06 09:18:23,2016-01-06 09:19:37,3.8,0,0,N,None,None,None,None,-73.977333068847656,40.750141143798828,2,6,0.5,None,None,0.3,3,0,-73.980461120605469,40.74761962890625,None,None,2,NY CITY CENTRAL PARK NY US,WBAN:94728,1,FM-15,None,None,None,None,None,None,None,None,None,None,None,None,-9999,-9999,None,None,None,-9999,-9999,None,None,None,None,None,None,None,None,None,None,None,None,None,None,None,None,None,None,None,None,None,None,None,None,-73.9669,40.7889,7,None,VRB,25,-3.7,10.00,30.43,30.58,CLR:00,31,3,None,0.00,None,3,-16.1,30,-1.1,30.60,39.6,2016-01-06 09:51,None,None,None,2143,1220,None,None,None,None,None,None,None,None,None,None,None,None,None,None,None,None
2.01,2016-01-06 09:18:23,2016-01-06 09:32:15,12.41,0,1.11,N,None,None,None,None,-73.961036682128906,40.796726226806641,1,2,0.5,None,None,0.3,10.5,0,-73.953399658203125,40.778480529785156,None,None,2,NY CITY CENTRAL PARK NY US,WBAN:94728,1,FM-15,None,None,None,None,None,None,None,None,None,None,None,None,-9999,-9999,None,None,None,-9999,-9999,None,None,None,None,None,None,None,None,None,None,None,None,None,None,None,None,None,None,None,None,None,None,None,None,-73.9669,40.7889,7,None,VRB,25,-3.7,10.00,30.43,30.58,CLR:00,31,3,None,0.00,None,3,-16.1,30,-1.1,30.60,39.6,2016-01-06 09:51,None,None,None,2143,1220,None,None,None,None,None,None,None,None,None,None,None,None,None,None,None,None
.69,2016-01-06 09:18:23,2016-01-06 09:21:34,5.3,0,0,N,None,None,None,None,-73.961021423339844,40.76947021484375,1,2,0.5,None,None,0.3,4.5,0,-73.963508605957031,40.77423095703125,None,None,2,NY CITY CENTRAL PARK NY US,WBAN:94728,1,FM-15,None,None,None,None,None,None,None,None,None,None,None,None,-9999,-9999,None,None,None,-9999,-9999,None,None,None,None,None,None,None,None,None,None,None,None,None,None,None,None,None,None,None,None,None,None,None,None,-73.9669,40.7889,7,None,VRB,25,-3.7,10.00,30.43,30.58,CLR:00,31,3,None,0.00,None,3,-16.1,30,-1.1,30.60,39.6,2016-01-06 09:51,None,None,None,2143,1220,None,None,None,None,None,None,None,None,None,None,None,None,None,None,None,None
.78,2016-01-06 09:18:24,2016-01-06 09:22:37,5.3,0,0,N,None,None,None,None,-73.988258361816406,40.753810882568359,2,1,0.5,None,None,0.3,4.5,0,-73.985549926757813,40.747093200683594,None,None,2,NY CITY CENTRAL PARK NY US,WBAN:94728,1,FM-15,None,None,None,None,None,None,None,None,None,None,None,None,-9999,-9999,None,None,None,-9999,-9999,None,None,None,None,None,None,None,None,None,None,None,None,None,None,None,None,None,None,None,None,None,None,None,None,-73.9669,40.7889,7,None,VRB,25,-3.7,10.00,30.43,30.58,CLR:00,31,3,None,0.00,None,3,-16.1,30,-1.1,30.60,39.6,2016-01-06 09:51,None,None,None,2143,1220,None,None,None,None,None,None,None,None,None,None,None,None,None,None,None,None
3.92,2016-01-06 09:18:24,2016-01-06 09:35:43,16.3,0,0,N,2022-04-16 02:00:00 | None,2016-01-01 00:00:00 | 2016-01-01 00:00:00,New York | New York,None | 10028,-73.996025085449219,40.686729431152344,2,1,0.5,-73.9651814 | -73.9634699,40.7745779 | 40.7792134,0.3,15.5,0,-74.015823364257813,40.714469909667969,New York | New York,1 | 2,2,NY CITY CENTRAL PARK NY US,WBAN:94728,1,FM-15,None,None,None,None,None,None,None,None,None,None,None,None,-9999,-9999,None,None,None,-9999,-9999,None,None,None,None,None,None,None,None,None,None,None,None,None,None,None,None,None,None,None,None,None,None,None,None,-73.9669,40.7889,7,None,VRB,25,-3.7,10.00,30.43,30.58,CLR:00,31,3,None,0.00,None,3,-16.1,30,-1.1,30.60,39.6,2016-01-06 09:51,None,None,None,2143,1220,None,None,None,None,None,None,None,None,None,None,None,None,None,None,None,None
1.61,2016-01-06 09:18:24,2016-01-06 09:29:51,11.76,0,1.96,N,None,None,None,None,-73.990829467773437,40.750526428222656,1,1,0.5,None,None,0.3,9,0,-73.989334106445313,40.734081268310547,None,None,2,NY CITY CENTRAL PARK NY US,WBAN:94728,1,FM-15,None,None,None,None,None,None,None,None,None,None,None,None,-9999,-9999,None,None,None,-9999,-9999,None,None,None,None,None,None,None,None,None,None,None,None,None,None,None,None,None,None,None,None,None,None,None,None,-73.9669,40.7889,7,None,VRB,25,-3.7,10.00,30.43,30.58,CLR:00,31,3,None,0.00,None,3,-16.1,30,-1.1,30.60,39.6,2016-01-06 09:51,None,None,None,2143,1220,None,None,None,None,None,None,None,None,None,None,None,None,None,None,None,None
4.70,2016-01-06 09:18:25,2016-01-06 09:40:03,23.75,0,3.95,N,None | None,2016-01-01 00:00:00 | 2016-01-01 00:00:00,New York | New York,None | None,-73.989303588867187,40.740478515625,1,1,0.5,-74.0064 | -74.0064,40.7142 | 40.7142,0.3,19,0,-74.008377075195312,40.711029052734375,New York | New York,1 | 1,1,NY CITY CENTRAL PARK NY US,WBAN:94728,1,FM-15,None,None,None,None,None,None,None,None,None,None,None,None,-9999,-9999,None,None,None,-9999,-9999,None,None,None,None,None,None,None,None,None,None,None,None,None,None,None,None,None,None,None,None,None,None,None,None,-73.9669,40.7889,7,None,VRB,25,-3.7,10.00,30.43,30.58,CLR:00,31,3,None,0.00,None,3,-16.1,30,-1.1,30.60,39.6,2016-01-06 09:51,None,None,None,2143,1220,None,None,None,None,None,None,None,None,None,None,None,None,None,None,None,None
2.50,2016-01-06 09:18:25,2016-01-06 09:29:35,11.3,0,0,N,None,2016-01-01 09:00:00,New York,10003,-73.96990966796875,40.784591674804688,2,1,0.5,-73.9870210,40.7308580,0.3,10.5,0,-73.943504333496094,40.801605224609375,New York,0,1,NY CITY CENTRAL PARK NY US,WBAN:94728,1,FM-15,None,None,None,None,None,None,None,None,None,None,None,None,-9999,-9999,None,None,None,-9999,-9999,None,None,None,None,None,None,None,None,None,None,None,None,None,None,None,None,None,None,None,None,None,None,None,None,-73.9669,40.7889,7,None,VRB,25,-3.7,10.00,30.43,30.58,CLR:00,31,3,None,0.00,None,3,-16.1,30,-1.1,30.60,39.6,2016-01-06 09:51,None,None,None,2143,1220,None,None,None,None,None,None,None,None,None,None,None,None,None,None,None,None
1.07,2016-01-06 09:18:25,2016-01-06 09:26:04,7.3,0,0,N,None | None | None,2016-01-01 00:00:00 | 2016-01-01 00:00:00 | 2016-01-01 02:00:00,New York | New York | New York,None | None | 10038,-73.966850280761719,40.761638641357422,2,2,0.5,-74.0064 | -74.0064 | -74.0081571,40.7142 | 40.7142 | 40.7090990,0.3,6.5,0,-73.9534912109375,40.767238616943359,New York | New York | New York,1 | 1 | 0,2,NY CITY CENTRAL PARK NY US,WBAN:94728,1,FM-15,None,None,None,None,None,None,None,None,None,None,None,None,-9999,-9999,None,None,None,-9999,-9999,None,None,None,None,None,None,None,None,None,None,None,None,None,None,None,None,None,None,None,None,None,None,None,None,-73.9669,40.7889,7,None,VRB,25,-3.7,10.00,30.43,30.58,CLR:00,31,3,None,0.00,None,3,-16.1,30,-1.1,30.60,39.6,2016-01-06 09:51,None,None,None,2143,1220,None,None,None,None,None,None,None,None,None,None,None,None,None,None,None,None
5.41,2016-01-06 09:18:25,2016-01-06 09:33:39,23.5,0,4.7,N,None,None,None,None,-73.981109619140625,40.779388427734375,1,6,0.5,None,None,0.3,18,0,-73.940017700195313,40.841232299804688,None,None,2,NY CITY CENTRAL PARK NY US,WBAN:94728,1,FM-15,None,None,None,None,None,None,None,None,None,None,None,None,-9999,-9999,None,None,None,-9999,-9999,None,None,None,None,None,None,None,None,None,None,None,None,None,None,None,None,None,None,None,None,None,None,None,None,-73.9669,40.7889,7,None,VRB,25,-3.7,10.00,30.43,30.58,CLR:00,31,3,None,0.00,None,3,-16.1,30,-1.1,30.60,39.6,2016-01-06 09:51,None,None,None,2143,1220,None,None,None,None,None,None,None,None,None,None,None,None,None,None,None,None
1.48,2016-01-06 09:18:25,2016-01-06 09:29:08,10.3,0,1,N,None,None,None,None,-73.985450744628906,40.744510650634766,1,6,0.5,None,None,0.3,8.5,0,-73.971122741699219,40.759269714355469,None,None,2,NY CITY CENTRAL PARK NY US,WBAN:94728,1,FM-15,None,None,None,None,None,None,None,None,None,None,None,None,-9999,-9999,None,None,None,-9999,-9999,None,None,None,None,None,None,None,None,None,None,None,None,None,None,None,None,None,None,None,None,None,None,None,None,-73.9669,40.7889,7,None,VRB,25,-3.7,10.00,30.43,30.58,CLR:00,31,3,None,0.00,None,3,-16.1,30,-1.1,30.60,39.6,2016-01-06 09:51,None,None,None,2143,1220,None,None,None,None,None,None,None,None,None,None,None,None,None,None,None,None
2.06,2016-01-06 09:18:25,2016-01-06 09:29:06,10.3,0,0,N,None,None,None,None,-73.964942932128906,40.795131683349609,2,5,0.5,None,None,0.3,9.5,0,-73.939460754394531,40.804630279541016,None,None,2,NY CITY CENTRAL PARK NY US,WBAN:94728,1,FM-15,None,None,None,None,None,None,None,None,None,None,None,None,-9999,-9999,None,None,None,-9999,-9999,None,None,None,None,None,None,None,None,None,None,None,None,None,None,None,None,None,None,None,None,None,None,None,None,-73.9669,40.7889,7,None,VRB,25,-3.7,10.00,30.43,30.58,CLR:00,31,3,None,0.00,None,3,-16.1,30,-1.1,30.60,39.6,2016-01-06 09:51,None,None,None,2143,1220,None,None,None,None,None,None,None,None,None,None,None,None,None,None,None,None
.90,2016-01-06 09:18:26,2016-01-06 09:29:41,10.55,0,1.75,N,2016-12-31 00:00:00,2016-01-01 00:00:00,New York,10022,-73.9677734375,40.756008148193359,1,1,0.5,-73.968,40.759,0.3,8,0,-73.979217529296875,40.75299072265625,New York,2,1,NY CITY CENTRAL PARK NY US,WBAN:94728,1,FM-15,None,None,None,None,None,None,None,None,None,None,None,None,-9999,-9999,None,None,None,-9999,-9999,None,None,None,None,None,None,None,None,None,None,None,None,None,None,None,None,None,None,None,None,None,None,None,None,-73.9669,40.7889,7,None,VRB,25,-3.7,10.00,30.43,30.58,CLR:00,31,3,None,0.00,None,3,-16.1,30,-1.1,30.60,39.6,2016-01-06 09:51,None,None,None,2143,1220,None,None,None,None,None,None,None,None,None,None,None,None,None,None,None,None
1.50,2016-01-06 09:18:26,2016-01-06 09:31:53,11.8,0,1,N,None,None,None,None,-73.992713928222656,40.755222320556641,1,1,0.5,None,None,0.3,10,0,-73.991325378417969,40.738807678222656,None,None,1,NY CITY CENTRAL PARK NY US,WBAN:94728,1,FM-15,None,None,None,None,None,None,None,None,None,None,None,None,-9999,-9999,None,None,None,-9999,-9999,None,None,None,None,None,None,None,None,None,None,None,None,None,None,None,None,None,None,None,None,None,None,None,None,-73.9669,40.7889,7,None,VRB,25,-3.7,10.00,30.43,30.58,CLR:00,31,3,None,0.00,None,3,-16.1,30,-1.1,30.60,39.6,2016-01-06 09:51,None,None,None,2143,1220,None,None,None,None,None,None,None,None,None,None,None,None,None,None,None,None
1.30,2016-01-06 09:18:26,2016-01-06 09:28:59,9.3,0,0,N,None,None,None,None,-73.956329345703125,40.771434783935547,2,1,0.5,None,None,0.3,8.5,0,-73.970237731933594,40.759201049804688,None,None,1,NY CITY CENTRAL PARK NY US,WBAN:94728,1,FM-15,None,None,None,None,None,None,None,None,None,None,None,None,-9999,-9999,None,None,None,-9999,-9999,None,None,None,None,None,None,None,None,None,None,None,None,None,None,None,None,None,None,None,None,None,None,None,None,-73.9669,40.7889,7,None,VRB,25,-3.7,10.00,30.43,30.58,CLR:00,31,3,None,0.00,None,3,-16.1,30,-1.1,30.60,39.6,2016-01-06 09:51,None,None,None,2143,1220,None,None,None,None,None,None,None,None,None,None,None,None,None,None,None,None
.52,2016-01-06 09:18:26,2016-01-06 09:25:24,7.8,0,1,N,None,None,None,None,-73.968437194824219,40.799446105957031,1,1,0.5,None,None,0.3,6,0,-73.966438293457031,40.794395446777344,None,None,2,NY CITY CENTRAL PARK NY US,WBAN:94728,1,FM-15,None,None,None,None,None,None,None,None,None,None,None,None,-9999,-9999,None,None,None,-9999,-9999,None,None,None,None,None,None,None,None,None,None,None,None,None,None,None,None,None,None,None,None,None,None,None,None,-73.9669,40.7889,7,None,VRB,25,-3.7,10.00,30.43,30.58,CLR:00,31,3,None,0.00,None,3,-16.1,30,-1.1,30.60,39.6,2016-01-06 09:51,None,None,None,2143,1220,None,None,None,None,None,None,None,None,None,None,None,None,None,None,None,None
2.36,2016-01-06 09:18:26,2016-01-06 09:36:30,17.16,0,2.86,N,2016-12-31 00:00:00,2016-01-01 00:00:00,New York,10022,-73.961051940917969,40.760810852050781,1,2,0.5,-73.968,40.759,0.3,13.5,0,-73.982963562011719,40.748020172119141,New York,2,2,NY CITY CENTRAL PARK NY US,WBAN:94728,1,FM-15,None,None,None,None,None,None,None,None,None,None,None,None,-9999,-9999,None,None,None,-9999,-9999,None,None,None,None,None,None,None,None,None,None,None,None,None,None,None,None,None,None,None,None,None,None,None,None,-73.9669,40.7889,7,None,VRB,25,-3.7,10.00,30.43,30.58,CLR:00,31,3,None,0.00,None,3,-16.1,30,-1.1,30.60,39.6,2016-01-06 09:51,None,None,None,2143,1220,None,None,None,None,None,None,None,None,None,None,None,None,None,None,None,None
4.48,2016-01-06 09:18:26,2016-01-06 09:25:02,16.3,0,2,N,None,None,None,None,-73.971900939941406,40.794780731201172,1,1,0.5,None,None,0.3,13.5,0,-73.938720703125,40.848560333251953,None,None,2,NY CITY CENTRAL PARK NY US,WBAN:94728,1,FM-15,None,None,None,None,None,None,None,None,None,None,None,None,-9999,-9999,None,None,None,-9999,-9999,None,None,None,None,None,None,None,None,None,None,None,None,None,None,None,None,None,None,None,None,None,None,None,None,-73.9669,40.7889,7,None,VRB,25,-3.7,10.00,30.43,30.58,CLR:00,31,3,None,0.00,None,3,-16.1,30,-1.1,30.60,39.6,2016-01-06 09:51,None,None,None,2143,1220,None,None,None,None,None,None,None,None,None,None,None,None,None,None,None,None
.32,2016-01-06 09:18:26,2016-01-06 09:22:00,5.76,0,0.96,N,None,None,None,None,-73.958229064941406,40.778739929199219,1,5,0.5,None,None,0.3,4,0,-73.961158752441406,40.774650573730469,None,None,2,NY CITY CENTRAL PARK NY US,WBAN:94728,1,FM-15,None,None,None,None,None,None,None,None,None,None,None,None,-9999,-9999,None,None,None,-9999,-9999,None,None,None,None,None,None,None,None,None,None,None,None,None,None,None,None,None,None,None,None,None,None,None,None,-73.9669,40.7889,7,None,VRB,25,-3.7,10.00,30.43,30.58,CLR:00,31,3,None,0.00,None,3,-16.1,30,-1.1,30.60,39.6,2016-01-06 09:51,None,None,None,2143,1220,None,None,None,None,None,None,None,None,None,None,None,None,None,None,None,None
8.60,2016-01-06 09:18:27,2016-01-06 09:49:13,34.55,0,5.75,N,None,None,None,None,-73.946052551269531,40.792472839355469,1,1,0.5,None,None,0.3,28,0,-73.993171691894531,40.719764709472656,None,None,1,NY CITY CENTRAL PARK NY US,WBAN:94728,1,FM-15,None,None,None,None,None,None,None,None,None,None,None,None,-9999,-9999,None,None,None,-9999,-9999,None,None,None,None,None,None,None,None,None,None,None,None,None,None,None,None,None,None,None,None,None,None,None,None,-73.9669,40.7889,7,None,VRB,25,-3.7,10.00,30.43,30.58,CLR:00,31,3,None,0.00,None,3,-16.1,30,-1.1,30.60,39.6,2016-01-06 09:51,None,None,None,2143,1220,None,None,None,None,None,None,None,None,None,None,None,None,None,None,None,None
1.90,2016-01-06 09:18:27,2016-01-06 09:27:58,11.76,0,1.96,N,2022-04-16 02:00:00 | None,2016-01-01 00:00:00 | 2016-01-01 00:00:00,New York | New York,None | 10028,-73.956031799316406,40.781097412109375,1,1,0.5,-73.9651814 | -73.9634699,40.7745779 | 40.7792134,0.3,9,0,-73.938888549804688,40.804958343505859,New York | New York,1 | 2,1,NY CITY CENTRAL PARK NY US,WBAN:94728,1,FM-15,None,None,None,None,None,None,None,None,None,None,None,None,-9999,-9999,None,None,None,-9999,-9999,None,None,None,None,None,None,None,None,None,None,None,None,None,None,None,None,None,None,None,None,None,None,None,None,-73.9669,40.7889,7,None,VRB,25,-3.7,10.00,30.43,30.58,CLR:00,31,3,None,0.00,None,3,-16.1,30,-1.1,30.60,39.6,2016-01-06 09:51,None,None,None,2143,1220,None,None,None,None,None,None,None,None,None,None,None,None,None,None,None,None
1.10,2016-01-06 09:18:27,2016-01-06 09:32:19,12.35,0,2.05,N,None | None,2016-01-01 03:00:00 | 2016-01-01 11:00:00,New York | New York,10002 | 10002,-73.981941223144531,40.752143859863281,1,2,0.5,-73.9847 | -73.9847,40.7182 | 40.7182,0.3,9.5,0,-73.972824096679688,40.758106231689453,New York | New York,0 | 0,1,NY CITY CENTRAL PARK NY US,WBAN:94728,1,FM-15,None,None,None,None,None,None,None,None,None,None,None,None,-9999,-9999,None,None,None,-9999,-9999,None,None,None,None,None,None,None,None,None,None,None,None,None,None,None,None,None,None,None,None,None,None,None,None,-73.9669,40.7889,7,None,VRB,25,-3.7,10.00,30.43,30.58,CLR:00,31,3,None,0.00,None,3,-16.1,30,-1.1,30.60,39.6,2016-01-06 09:51,None,None,None,2143,1220,None,None,None,None,None,None,None,None,None,None,None,None,None,None,None,None
3.32,2016-01-06 09:18:27,2016-01-06 09:48:03,20.8,0,1,N,None,None,None,None,-73.953643798828125,40.766620635986328,1,5,0.5,None,None,0.3,19,0,-73.993240356445313,40.747291564941406,None,None,2,NY CITY CENTRAL PARK NY US,WBAN:94728,1,FM-15,None,None,None,None,None,None,None,None,None,None,None,None,-9999,-9999,None,None,None,-9999,-9999,None,None,None,None,None,None,None,None,None,None,None,None,None,None,None,None,None,None,None,None,None,None,None,None,-73.9669,40.7889,7,None,VRB,25,-3.7,10.00,30.43,30.58,CLR:00,31,3,None,0.00,None,3,-16.1,30,-1.1,30.60,39.6,2016-01-06 09:51,None,None,None,2143,1220,None,None,None,None,None,None,None,None,None,None,None,None,None,None,None,None
.60,2016-01-06 09:18:27,2016-01-06 09:27:07,9.36,0,1.56,N,2016-12-31 00:00:00,2016-01-01 00:00:00,New York,10022,-73.99176025390625,40.749248504638672,1,1,0.5,-73.968,40.759,0.3,7,0,-73.989311218261719,40.743812561035156,New York,2,2,NY CITY CENTRAL PARK NY US,WBAN:94728,1,FM-15,None,None,None,None,None,None,None,None,None,None,None,None,-9999,-9999,None,None,None,-9999,-9999,None,None,None,None,None,None,None,None,None,None,None,None,None,None,None,None,None,None,None,None,None,None,None,None,-73.9669,40.7889,7,None,VRB,25,-3.7,10.00,30.43,30.58,CLR:00,31,3,None,0.00,None,3,-16.1,30,-1.1,30.60,39.6,2016-01-06 09:51,None,None,None,2143,1220,None,None,None,None,None,None,None,None,None,None,None,None,None,None,None,None
.81,2016-01-06 09:18:27,2016-01-06 09:23:41,7.88,0,1.58,N,None,None,None,None,-73.972549438476562,40.74652099609375,1,1,0.5,None,None,0.3,5.5,0,-73.967903137207031,40.755531311035156,None,None,2,NY CITY CENTRAL PARK NY US,WBAN:94728,1,FM-15,None,None,None,None,None,None,None,None,None,None,None,None,-9999,-9999,None,None,None,-9999,-9999,None,None,None,None,None,None,None,None,None,None,None,None,None,None,None,None,None,None,None,None,None,None,None,None,-73.9669,40.7889,7,None,VRB,25,-3.7,10.00,30.43,30.58,CLR:00,31,3,None,0.00,None,3,-16.1,30,-1.1,30.60,39.6,2016-01-06 09:51,None,None,None,2143,1220,None,None,None,None,None,None,None,None,None,None,None,None,None,None,None,None
.79,2016-01-06 09:18:27,2016-01-06 09:27:47,8.3,0,0,N,None,None,None,None,-73.989883422851562,40.735252380371094,2,5,0.5,None,None,0.3,7.5,0,-73.981246948242188,40.736366271972656,None,None,2,NY CITY CENTRAL PARK NY US,WBAN:94728,1,FM-15,None,None,None,None,None,None,None,None,None,None,None,None,-9999,-9999,None,None,None,-9999,-9999,None,None,None,None,None,None,None,None,None,None,None,None,None,None,None,None,None,None,None,None,None,None,None,None,-73.9669,40.7889,7,None,VRB,25,-3.7,10.00,30.43,30.58,CLR:00,31,3,None,0.00,None,3,-16.1,30,-1.1,30.60,39.6,2016-01-06 09:51,None,None,None,2143,1220,None,None,None,None,None,None,None,None,None,None,None,None,None,None,None,None
.51,2016-01-06 09:18:27,2016-01-06 09:29:06,8.3,0,0,N,2016-12-31 00:00:00,2016-01-01 00:00:00,New York,10022,-73.975479125976562,40.749813079833984,1,1,0.5,-73.968,40.759,0.3,7.5,0,-73.970085144042969,40.756099700927734,New York,2,2,NY CITY CENTRAL PARK NY US,WBAN:94728,1,FM-15,None,None,None,None,None,None,None,None,None,None,None,None,-9999,-9999,None,None,None,-9999,-9999,None,None,None,None,None,None,None,None,None,None,None,None,None,None,None,None,None,None,None,None,None,None,None,None,-73.9669,40.7889,7,None,VRB,25,-3.7,10.00,30.43,30.58,CLR:00,31,3,None,0.00,None,3,-16.1,30,-1.1,30.60,39.6,2016-01-06 09:51,None,None,None,2143,1220,None,None,None,None,None,None,None,None,None,None,None,None,None,None,None,None
4.60,2016-01-06 09:18:28,2016-01-06 09:59:42,32.75,0,5.45,N,None,2016-01-01 09:00:00,New York,10003,-73.995574951171875,40.754817962646484,1,1,0.5,-73.9870210,40.7308580,0.3,26.5,0,-73.948745727539063,40.770698547363281,New York,0,1,NY CITY CENTRAL PARK NY US,WBAN:94728,1,FM-15,None,None,None,None,None,None,None,None,None,None,None,None,-9999,-9999,None,None,None,-9999,-9999,None,None,None,None,None,None,None,None,None,None,None,None,None,None,None,None,None,None,None,None,None,None,None,None,-73.9669,40.7889,7,None,VRB,25,-3.7,10.00,30.43,30.58,CLR:00,31,3,None,0.00,None,3,-16.1,30,-1.1,30.60,39.6,2016-01-06 09:51,None,None,None,2143,1220,None,None,None,None,None,None,None,None,None,None,None,None,None,None,None,None
.00,2016-01-06 09:18:28,2016-01-06 09:18:34,3.3,0,0,N,2016-12-31 00:00:00,2016-01-01 00:00:00,New York,10022,-73.949928283691406,40.772037506103516,3,1,0.5,-73.968,40.759,0.3,2.5,0,-73.949920654296875,40.77203369140625,New York,2,1,NY CITY CENTRAL PARK NY US,WBAN:94728,1,FM-15,None,None,None,None,None,None,None,None,None,None,None,None,-9999,-9999,None,None,None,-9999,-9999,None,None,None,None,None,None,None,None,None,None,None,None,None,None,None,None,None,None,None,None,None,None,None,None,-73.9669,40.7889,7,None,VRB,25,-3.7,10.00,30.43,30.58,CLR:00,31,3,None,0.00,None,3,-16.1,30,-1.1,30.60,39.6,2016-01-06 09:51,None,None,None,2143,1220,None,None,None,None,None,None,None,None,None,None,None,None,None,None,None,None
1.20,2016-01-06 09:18:28,2016-01-06 09:32:04,12.35,0,2.05,N,None,None,None,None,-73.984519958496094,40.745746612548828,1,1,0.5,None,None,0.3,9.5,0,-73.972610473632812,40.761558532714844,None,None,1,NY CITY CENTRAL PARK NY US,WBAN:94728,1,FM-15,None,None,None,None,None,None,None,None,None,None,None,None,-9999,-9999,None,None,None,-9999,-9999,None,None,None,None,None,None,None,None,None,None,None,None,None,None,None,None,None,None,None,None,None,None,None,None,-73.9669,40.7889,7,None,VRB,25,-3.7,10.00,30.43,30.58,CLR:00,31,3,None,0.00,None,3,-16.1,30,-1.1,30.60,39.6,2016-01-06 09:51,None,None,None,2143,1220,None,None,None,None,None,None,None,None,None,None,None,None,None,None,None,None
.77,2016-01-06 09:18:28,2016-01-06 09:27:01,9.36,0,1.56,N,None,None,None,None,-73.974624633789063,40.751060485839844,1,1,0.5,None,None,0.3,7,0,-73.987213134765625,40.75628662109375,None,None,2,NY CITY CENTRAL PARK NY US,WBAN:94728,1,FM-15,None,None,None,None,None,None,None,None,None,None,None,None,-9999,-9999,None,None,None,-9999,-9999,None,None,None,None,None,None,None,None,None,None,None,None,None,None,None,None,None,None,None,None,None,None,None,None,-73.9669,40.7889,7,None,VRB,25,-3.7,10.00,30.43,30.58,CLR:00,31,3,None,0.00,None,3,-16.1,30,-1.1,30.60,39.6,2016-01-06 09:51,None,None,None,2143,1220,None,None,None,None,None,None,None,None,None,None,None,None,None,None,None,None
1.43,2016-01-06 09:18:28,2016-01-06 09:32:44,13.56,0,2.26,N,None | 2016-12-31 00:00:00,2016-01-01 00:00:00 | 2016-01-01 00:00:00,New York | New York,10019 | 10022,-73.980941772460938,40.744373321533203,1,5,0.5,-73.9803996 | -73.968,40.7656668 | 40.759,0.3,10.5,0,-73.981346130371094,40.759475708007812,New York | New York,1 | 2,2,NY CITY CENTRAL PARK NY US,WBAN:94728,1,FM-15,None,None,None,None,None,None,None,None,None,None,None,None,-9999,-9999,None,None,None,-9999,-9999,None,None,None,None,None,None,None,None,None,None,None,None,None,None,None,None,None,None,None,None,None,None,None,None,-73.9669,40.7889,7,None,VRB,25,-3.7,10.00,30.43,30.58,CLR:00,31,3,None,0.00,None,3,-16.1,30,-1.1,30.60,39.6,2016-01-06 09:51,None,None,None,2143,1220,None,None,None,None,None,None,None,None,None,None,None,None,None,None,None,None
.34,2016-01-06 09:18:28,2016-01-06 09:21:05,4.3,0,0,N,None,None,None,None,-73.957260131835937,40.770488739013672,2,2,0.5,None,None,0.3,3.5,0,-73.962860107421875,40.768161773681641,None,None,2,NY CITY CENTRAL PARK NY US,WBAN:94728,1,FM-15,None,None,None,None,None,None,None,None,None,None,None,None,-9999,-9999,None,None,None,-9999,-9999,None,None,None,None,None,None,None,None,None,None,None,None,None,None,None,None,None,None,None,None,None,None,None,None,-73.9669,40.7889,7,None,VRB,25,-3.7,10.00,30.43,30.58,CLR:00,31,3,None,0.00,None,3,-16.1,30,-1.1,30.60,39.6,2016-01-06 09:51,None,None,None,2143,1220,None,None,None,None,None,None,None,None,None,None,None,None,None,None,None,None
3.49,2016-01-06 09:18:28,2016-01-06 09:41:42,18.8,0,1,N,None | 2016-07-03 00:00:00,2016-01-01 00:00:00 | 2015-10-08 00:00:00,New York | New York,10019 | 10019,-74.016151428222656,40.709911346435547,1,1,0.5,-73.9803996 | -73.9844951,40.7656668 | 40.7632328,0.3,17,0,-73.991561889648438,40.739921569824219,New York | New York,1 | 2,2,NY CITY CENTRAL PARK NY US,WBAN:94728,1,FM-15,None,None,None,None,None,None,None,None,None,None,None,None,-9999,-9999,None,None,None,-9999,-9999,None,None,None,None,None,None,None,None,None,None,None,None,None,None,None,None,None,None,None,None,None,None,None,None,-73.9669,40.7889,7,None,VRB,25,-3.7,10.00,30.43,30.58,CLR:00,31,3,None,0.00,None,3,-16.1,30,-1.1,30.60,39.6,2016-01-06 09:51,None,None,None,2143,1220,None,None,None,None,None,None,None,None,None,None,None,None,None,None,None,None
1.77,2016-01-06 09:18:28,2016-01-06 09:42:10,18.96,0,3.16,N,2022-04-16 02:00:00,2016-01-01 00:00:00,New York,None,-73.990310668945313,40.750938415527344,1,1,0.5,-73.9651814,40.7745779,0.3,15,0,-73.970596313476563,40.756080627441406,New York,1,2,NY CITY CENTRAL PARK NY US,WBAN:94728,1,FM-15,None,None,None,None,None,None,None,None,None,None,None,None,-9999,-9999,None,None,None,-9999,-9999,None,None,None,None,None,None,None,None,None,None,None,None,None,None,None,None,None,None,None,None,None,None,None,None,-73.9669,40.7889,7,None,VRB,25,-3.7,10.00,30.43,30.58,CLR:00,31,3,None,0.00,None,3,-16.1,30,-1.1,30.60,39.6,2016-01-06 09:51,None,None,None,2143,1220,None,None,None,None,None,None,None,None,None,None,None,None,None,None,None,None
4.65,2016-01-06 09:18:28,2016-01-06 09:48:46,21.8,0,0,N,None,None,None,None,-74.005088806152344,40.730998992919922,2,1,0.5,None,None,0.3,21,0,-73.961959838867188,40.773281097412109,None,None,2,NY CITY CENTRAL PARK NY US,WBAN:94728,1,FM-15,None,None,None,None,None,None,None,None,None,None,None,None,-9999,-9999,None,None,None,-9999,-9999,None,None,None,None,None,None,None,None,None,None,None,None,None,None,None,None,None,None,None,None,None,None,None,None,-73.9669,40.7889,7,None,VRB,25,-3.7,10.00,30.43,30.58,CLR:00,31,3,None,0.00,None,3,-16.1,30,-1.1,30.60,39.6,2016-01-06 09:51,None,None,None,2143,1220,None,None,None,None,None,None,None,None,None,None,None,None,None,None,None,None
3.20,2016-01-06 09:18:29,2016-01-06 09:42:24,21.35,0,3.55,N,2016-12-31 00:00:00,2016-01-01 00:00:00,New York,10022,-73.993980407714844,40.751201629638672,1,1,0.5,-73.968,40.759,0.3,17,0,-73.968490600585938,40.790782928466797,New York,2,1,NY CITY CENTRAL PARK NY US,WBAN:94728,1,FM-15,None,None,None,None,None,None,None,None,None,None,None,None,-9999,-9999,None,None,None,-9999,-9999,None,None,None,None,None,None,None,None,None,None,None,None,None,None,None,None,None,None,None,None,None,None,None,None,-73.9669,40.7889,7,None,VRB,25,-3.7,10.00,30.43,30.58,CLR:00,31,3,None,0.00,None,3,-16.1,30,-1.1,30.60,39.6,2016-01-06 09:51,None,None,None,2143,1220,None,None,None,None,None,None,None,None,None,None,None,None,None,None,None,None
1.30,2016-01-06 09:18:29,2016-01-06 09:27:48,8.8,0,0,N,2022-04-16 02:00:00 | None,2016-01-01 00:00:00 | 2016-01-01 00:00:00,New York | New York,None | 10028,-73.9869384765625,40.73944091796875,2,1,0.5,-73.9651814 | -73.9634699,40.7745779 | 40.7792134,0.3,8,0,-73.975189208984375,40.755901336669922,New York | New York,1 | 2,1,NY CITY CENTRAL PARK NY US,WBAN:94728,1,FM-15,None,None,None,None,None,None,None,None,None,None,None,None,-9999,-9999,None,None,None,-9999,-9999,None,None,None,None,None,None,None,None,None,None,None,None,None,None,None,None,None,None,None,None,None,None,None,None,-73.9669,40.7889,7,None,VRB,25,-3.7,10.00,30.43,30.58,CLR:00,31,3,None,0.00,None,3,-16.1,30,-1.1,30.60,39.6,2016-01-06 09:51,None,None,None,2143,1220,None,None,None,None,None,None,None,None,None,None,None,None,None,None,None,None
2.00,2016-01-06 09:18:29,2016-01-06 09:43:48,15.8,0,0,N,None,None,None,None,-73.979873657226562,40.735160827636719,2,1,0.5,None,None,0.3,15,0,-73.990791320800781,40.755157470703125,None,None,1,NY CITY CENTRAL PARK NY US,WBAN:94728,1,FM-15,None,None,None,None,None,None,None,None,None,None,None,None,-9999,-9999,None,None,None,-9999,-9999,None,None,None,None,None,None,None,None,None,None,None,None,None,None,None,None,None,None,None,None,None,None,None,None,-73.9669,40.7889,7,None,VRB,25,-3.7,10.00,30.43,30.58,CLR:00,31,3,None,0.00,None,3,-16.1,30,-1.1,30.60,39.6,2016-01-06 09:51,None,None,None,2143,1220,None,None,None,None,None,None,None,None,None,None,None,None,None,None,None,None
1.70,2016-01-06 09:18:29,2016-01-06 09:38:37,16,0,1.7,N,2016-12-31 00:00:00,2016-01-01 00:00:00,New York,10022,-73.99188232421875,40.74993896484375,1,1,0.5,-73.968,40.759,0.3,13.5,0,-73.976188659667969,40.740779876708984,New York,2,1,NY CITY CENTRAL PARK NY US,WBAN:94728,1,FM-15,None,None,None,None,None,None,None,None,None,None,None,None,-9999,-9999,None,None,None,-9999,-9999,None,None,None,None,None,None,None,None,None,None,None,None,None,None,None,None,None,None,None,None,None,None,None,None,-73.9669,40.7889,7,None,VRB,25,-3.7,10.00,30.43,30.58,CLR:00,31,3,None,0.00,None,3,-16.1,30,-1.1,30.60,39.6,2016-01-06 09:51,None,None,None,2143,1220,None,None,None,None,None,None,None,None,None,None,None,None,None,None,None,None
2.89,2016-01-06 09:18:29,2016-01-06 09:33:10,16.56,0,2.76,N,None,None,None,None,-73.996551513671875,40.737300872802734,1,1,0.5,None,None,0.3,13,0,-74.01409912109375,40.713920593261719,None,None,2,NY CITY CENTRAL PARK NY US,WBAN:94728,1,FM-15,None,None,None,None,None,None,None,None,None,None,None,None,-9999,-9999,None,None,None,-9999,-9999,None,None,None,None,None,None,None,None,None,None,None,None,None,None,None,None,None,None,None,None,None,None,None,None,-73.9669,40.7889,7,None,VRB,25,-3.7,10.00,30.43,30.58,CLR:00,31,3,None,0.00,None,3,-16.1,30,-1.1,30.60,39.6,2016-01-06 09:51,None,None,None,2143,1220,None,None,None,None,None,None,None,None,None,None,None,None,None,None,None,None
1.05,2016-01-06 09:18:29,2016-01-06 09:27:44,8.3,0,0,N,None,None,None,None,-74.008781433105469,40.71905517578125,2,1,0.5,None,None,0.3,7.5,0,-73.998542785644531,40.728591918945313,None,None,2,NY CITY CENTRAL PARK NY US,WBAN:94728,1,FM-15,None,None,None,None,None,None,None,None,None,None,None,None,-9999,-9999,None,None,None,-9999,-9999,None,None,None,None,None,None,None,None,None,None,None,None,None,None,None,None,None,None,None,None,None,None,None,None,-73.9669,40.7889,7,None,VRB,25,-3.7,10.00,30.43,30.58,CLR:00,31,3,None,0.00,None,3,-16.1,30,-1.1,30.60,39.6,2016-01-06 09:51,None,None,None,2143,1220,None,None,None,None,None,None,None,None,None,None,None,None,None,None,None,None
1.43,2016-01-06 09:18:29,2016-01-06 09:34:49,14.75,0,2.95,N,None | None | None,2016-01-01 00:00:00 | 2016-01-01 00:00:00 | 2016-01-01 02:00:00,New York | New York | New York,None | None | 10038,-73.9952392578125,40.749820709228516,1,1,0.5,-74.0064 | -74.0064 | -74.0081571,40.7142 | 40.7142 | 40.7090990,0.3,11,0,-73.977333068847656,40.755458831787109,New York | New York | New York,1 | 1 | 0,2,NY CITY CENTRAL PARK NY US,WBAN:94728,1,FM-15,None,None,None,None,None,None,None,None,None,None,None,None,-9999,-9999,None,None,None,-9999,-9999,None,None,None,None,None,None,None,None,None,None,None,None,None,None,None,None,None,None,None,None,None,None,None,None,-73.9669,40.7889,7,None,VRB,25,-3.7,10.00,30.43,30.58,CLR:00,31,3,None,0.00,None,3,-16.1,30,-1.1,30.60,39.6,2016-01-06 09:51,None,None,None,2143,1220,None,None,None,None,None,None,None,None,None,None,None,None,None,None,None,None
1.69,2016-01-06 09:18:29,2016-01-06 09:29:55,11.76,0,1.96,N,None,None,None,None,-74.000816345214844,40.752349853515625,1,1,0.5,None,None,0.3,9,0,-73.990501403808594,40.740100860595703,None,None,2,NY CITY CENTRAL PARK NY US,WBAN:94728,1,FM-15,None,None,None,None,None,None,None,None,None,None,None,None,-9999,-9999,None,None,None,-9999,-9999,None,None,None,None,None,None,None,None,None,None,None,None,None,None,None,None,None,None,None,None,None,None,None,None,-73.9669,40.7889,7,None,VRB,25,-3.7,10.00,30.43,30.58,CLR:00,31,3,None,0.00,None,3,-16.1,30,-1.1,30.60,39.6,2016-01-06 09:51,None,None,None,2143,1220,None,None,None,None,None,None,None,None,None,None,None,None,None,None,None,None
.90,2016-01-06 09:18:30,2016-01-06 09:23:43,6.3,0,0,N,None,None,None,None,-74.016860961914062,40.706317901611328,2,1,0.5,None,None,0.3,5.5,0,-74.010536193847656,40.708808898925781,None,None,1,NY CITY CENTRAL PARK NY US,WBAN:94728,1,FM-15,None,None,None,None,None,None,None,None,None,None,None,None,-9999,-9999,None,None,None,-9999,-9999,None,None,None,None,None,None,None,None,None,None,None,None,None,None,None,None,None,None,None,None,None,None,None,None,-73.9669,40.7889,7,None,VRB,25,-3.7,10.00,30.43,30.58,CLR:00,31,3,None,0.00,None,3,-16.1,30,-1.1,30.60,39.6,2016-01-06 09:51,None,None,None,2143,1220,None,None,None,None,None,None,None,None,None,None,None,None,None,None,None,None
1.60,2016-01-06 09:18:30,2016-01-06 09:39:57,17.75,0,2.95,N,None,None,None,None,-73.956573486328125,40.767017364501953,1,1,0.5,None,None,0.3,14,0,-73.976974487304688,40.762519836425781,None,None,1,NY CITY CENTRAL PARK NY US,WBAN:94728,1,FM-15,None,None,None,None,None,None,None,None,None,None,None,None,-9999,-9999,None,None,None,-9999,-9999,None,None,None,None,None,None,None,None,None,None,None,None,None,None,None,None,None,None,None,None,None,None,None,None,-73.9669,40.7889,7,None,VRB,25,-3.7,10.00,30.43,30.58,CLR:00,31,3,None,0.00,None,3,-16.1,30,-1.1,30.60,39.6,2016-01-06 09:51,None,None,None,2143,1220,None,None,None,None,None,None,None,None,None,None,None,None,None,None,None,None
1.20,2016-01-06 09:18:30,2016-01-06 09:29:58,10.8,0,1.5,N,None | None | None,2016-01-01 00:00:00 | 2016-01-01 00:00:00 | 2016-01-01 02:00:00,New York | New York | New York,None | None | 10038,-73.966964721679688,40.769847869873047,1,1,0.5,-74.0064 | -74.0064 | -74.0081571,40.7142 | 40.7142 | 40.7090990,0.3,8.5,0,-73.984306335449219,40.769893646240234,New York | New York | New York,1 | 1 | 0,1,NY CITY CENTRAL PARK NY US,WBAN:94728,1,FM-15,None,None,None,None,None,None,None,None,None,None,None,None,-9999,-9999,None,None,None,-9999,-9999,None,None,None,None,None,None,None,None,None,None,None,None,None,None,None,None,None,None,None,None,None,None,None,None,-73.9669,40.7889,7,None,VRB,25,-3.7,10.00,30.43,30.58,CLR:00,31,3,None,0.00,None,3,-16.1,30,-1.1,30.60,39.6,2016-01-06 09:51,None,None,None,2143,1220,None,None,None,None,None,None,None,None,None,None,None,None,None,None,None,None
19.22,2016-01-06 09:18:30,2016-01-06 10:03:31,63.36,0,10.56,N,None | 2016-07-03 00:00:00,2016-01-01 00:00:00 | 2015-10-08 00:00:00,New York | New York,10019 | 10019,-74.002754211425781,40.728641510009766,1,3,0.5,-73.9803996 | -73.9844951,40.7656668 | 40.7632328,0.3,52,0,-73.783500671386719,40.643699645996094,New York | New York,1 | 2,2,NY CITY CENTRAL PARK NY US,WBAN:94728,2,FM-15,None,None,None,None,None,None,None,None,None,None,None,None,-9999,-9999,None,None,None,-9999,-9999,None,None,None,None,None,None,None,None,None,None,None,None,None,None,None,None,None,None,None,None,None,None,None,None,-73.9669,40.7889,7,None,VRB,25,-3.7,10.00,30.43,30.58,CLR:00,31,3,None,0.00,None,3,-16.1,30,-1.1,30.60,39.6,2016-01-06 09:51,None,None,None,2143,1220,None,None,None,None,None,None,None,None,None,None,None,None,None,None,None,None
2.10,2016-01-06 09:18:31,2016-01-06 09:37:55,13.8,0,0,N,None | 2016-07-03 00:00:00,2016-01-01 00:00:00 | 2015-10-08 00:00:00,New York | New York,10019 | 10019,-73.982231140136719,40.765132904052734,2,1,0.5,-73.9803996 | -73.9844951,40.7656668 | 40.7632328,0.3,13,0,-73.954200744628906,40.767181396484375,New York | New York,1 | 2,1,NY CITY CENTRAL PARK NY US,WBAN:94728,1,FM-15,None,None,None,None,None,None,None,None,None,None,None,None,-9999,-9999,None,None,None,-9999,-9999,None,None,None,None,None,None,None,None,None,None,None,None,None,None,None,None,None,None,None,None,None,None,None,None,-73.9669,40.7889,7,None,VRB,25,-3.7,10.00,30.43,30.58,CLR:00,31,3,None,0.00,None,3,-16.1,30,-1.1,30.60,39.6,2016-01-06 09:51,None,None,None,2143,1220,None,None,None,None,None,None,None,None,None,None,None,None,None,None,None,None
7.00,2016-01-06 09:18:31,2016-01-06 09:45:17,38.19,5.54,6.35,N,None,None,None,None,-74.000205993652344,40.678451538085938,1,1,0.5,None,None,0.3,25.5,0,-73.983047485351563,40.734821319580078,None,None,1,NY CITY CENTRAL PARK NY US,WBAN:94728,1,FM-15,None,None,None,None,None,None,None,None,None,None,None,None,-9999,-9999,None,None,None,-9999,-9999,None,None,None,None,None,None,None,None,None,None,None,None,None,None,None,None,None,None,None,None,None,None,None,None,-73.9669,40.7889,7,None,VRB,25,-3.7,10.00,30.43,30.58,CLR:00,31,3,None,0.00,None,3,-16.1,30,-1.1,30.60,39.6,2016-01-06 09:51,None,None,None,2143,1220,None,None,None,None,None,None,None,None,None,None,None,None,None,None,None,None
15.90,2016-01-06 09:18:31,2016-01-06 09:51:40,69.99,5.54,11.65,N,None,None,None,None,-73.983627319335938,40.747642517089844,1,1,0.5,None,None,0.3,52,0,-73.78704833984375,40.64691162109375,None,None,1,NY CITY CENTRAL PARK NY US,WBAN:94728,2,FM-15,None,None,None,None,None,None,None,None,None,None,None,None,-9999,-9999,None,None,None,-9999,-9999,None,None,None,None,None,None,None,None,None,None,None,None,None,None,None,None,None,None,None,None,None,None,None,None,-73.9669,40.7889,7,None,VRB,25,-3.7,10.00,30.43,30.58,CLR:00,31,3,None,0.00,None,3,-16.1,30,-1.1,30.60,39.6,2016-01-06 09:51,None,None,None,2143,1220,None,None,None,None,None,None,None,None,None,None,None,None,None,None,None,None
6.82,2016-01-06 09:18:31,2016-01-06 09:40:50,35.81,5.54,5.97,N,None,2016-01-01 09:00:00,New York,10003,-73.951728820800781,40.769489288330078,1,6,0.5,-73.9870210,40.7308580,0.3,23.5,0,-73.91217041015625,40.758941650390625,New York,0,2,NY CITY CENTRAL PARK NY US,WBAN:94728,1,FM-15,None,None,None,None,None,None,None,None,None,None,None,None,-9999,-9999,None,None,None,-9999,-9999,None,None,None,None,None,None,None,None,None,None,None,None,None,None,None,None,None,None,None,None,None,None,None,None,-73.9669,40.7889,7,None,VRB,25,-3.7,10.00,30.43,30.58,CLR:00,31,3,None,0.00,None,3,-16.1,30,-1.1,30.60,39.6,2016-01-06 09:51,None,None,None,2143,1220,None,None,None,None,None,None,None,None,None,None,None,None,None,None,None,None
1.25,2016-01-06 09:18:31,2016-01-06 09:25:55,9.36,0,1.56,N,None,None,None,None,-73.955703735351563,40.768482208251953,1,1,0.5,None,None,0.3,7,0,-73.959945678710937,40.778812408447266,None,None,2,NY CITY CENTRAL PARK NY US,WBAN:94728,1,FM-15,None,None,None,None,None,None,None,None,None,None,None,None,-9999,-9999,None,None,None,-9999,-9999,None,None,None,None,None,None,None,None,None,None,None,None,None,None,None,None,None,None,None,None,None,None,None,None,-73.9669,40.7889,7,None,VRB,25,-3.7,10.00,30.43,30.58,CLR:00,31,3,None,0.00,None,3,-16.1,30,-1.1,30.60,39.6,2016-01-06 09:51,None,None,None,2143,1220,None,None,None,None,None,None,None,None,None,None,None,None,None,None,None,None
2.25,2016-01-06 09:18:31,2016-01-06 09:39:17,17.76,0,2.96,N,None,None,None,None,-73.988136291503906,40.738006591796875,1,1,0.5,None,None,0.3,14,0,-73.982536315917969,40.763240814208984,None,None,2,NY CITY CENTRAL PARK NY US,WBAN:94728,1,FM-15,None,None,None,None,None,None,None,None,None,None,None,None,-9999,-9999,None,None,None,-9999,-9999,None,None,None,None,None,None,None,None,None,None,None,None,None,None,None,None,None,None,None,None,None,None,None,None,-73.9669,40.7889,7,None,VRB,25,-3.7,10.00,30.43,30.58,CLR:00,31,3,None,0.00,None,3,-16.1,30,-1.1,30.60,39.6,2016-01-06 09:51,None,None,None,2143,1220,None,None,None,None,None,None,None,None,None,None,None,None,None,None,None,None
5.10,2016-01-06 09:18:32,2016-01-06 09:48:56,29.75,0,4.95,N,2022-04-16 02:00:00 | None,2016-01-01 00:00:00 | 2016-01-01 00:00:00,New York | New York,None | 10028,-73.993873596191406,40.735260009765625,1,1,0.5,-73.9651814 | -73.9634699,40.7745779 | 40.7792134,0.3,24,0,-74.014190673828125,40.708358764648437,New York | New York,1 | 2,1,NY CITY CENTRAL PARK NY US,WBAN:94728,1,FM-15,None,None,None,None,None,None,None,None,None,None,None,None,-9999,-9999,None,None,None,-9999,-9999,None,None,None,None,None,None,None,None,None,None,None,None,None,None,None,None,None,None,None,None,None,None,None,None,-73.9669,40.7889,7,None,VRB,25,-3.7,10.00,30.43,30.58,CLR:00,31,3,None,0.00,None,3,-16.1,30,-1.1,30.60,39.6,2016-01-06 09:51,None,None,None,2143,1220,None,None,None,None,None,None,None,None,None,None,None,None,None,None,None,None
3.00,2016-01-06 09:18:32,2016-01-06 09:35:38,18.5,0,3.7,N,None | 2016-07-03 00:00:00,2016-01-01 00:00:00 | 2015-10-08 00:00:00,New York | New York,10019 | 10019,-73.986419677734375,40.734626770019531,1,1,0.5,-73.9803996 | -73.9844951,40.7656668 | 40.7632328,0.3,14,0,-74.01580810546875,40.716037750244141,New York | New York,1 | 2,1,NY CITY CENTRAL PARK NY US,WBAN:94728,1,FM-15,None,None,None,None,None,None,None,None,None,None,None,None,-9999,-9999,None,None,None,-9999,-9999,None,None,None,None,None,None,None,None,None,None,None,None,None,None,None,None,None,None,None,None,None,None,None,None,-73.9669,40.7889,7,None,VRB,25,-3.7,10.00,30.43,30.58,CLR:00,31,3,None,0.00,None,3,-16.1,30,-1.1,30.60,39.6,2016-01-06 09:51,None,None,None,2143,1220,None,None,None,None,None,None,None,None,None,None,None,None,None,None,None,None
2.10,2016-01-06 09:18:32,2016-01-06 09:41:58,18.95,0,3.15,N,None,2016-01-01 02:00:00,New York,10038,-73.955741882324219,40.781909942626953,1,1,0.5,-74.0081571,40.7090990,0.3,15,0,-73.962409973144531,40.758342742919922,New York,0,1,NY CITY CENTRAL PARK NY US,WBAN:94728,1,FM-15,None,None,None,None,None,None,None,None,None,None,None,None,-9999,-9999,None,None,None,-9999,-9999,None,None,None,None,None,None,None,None,None,None,None,None,None,None,None,None,None,None,None,None,None,None,None,None,-73.9669,40.7889,7,None,VRB,25,-3.7,10.00,30.43,30.58,CLR:00,31,3,None,0.00,None,3,-16.1,30,-1.1,30.60,39.6,2016-01-06 09:51,None,None,None,2143,1220,None,None,None,None,None,None,None,None,None,None,None,None,None,None,None,None
3.40,2016-01-06 09:18:32,2016-01-06 09:55:33,29.12,0,5.82,N,None,None,None,None,-73.95587158203125,40.779304504394531,1,1,0.5,None,None,0.3,22.5,0,-73.989166259765625,40.741359710693359,None,None,1,NY CITY CENTRAL PARK NY US,WBAN:94728,1,FM-15,None,None,None,None,None,None,None,None,None,None,None,None,-9999,-9999,None,None,None,-9999,-9999,None,None,None,None,None,None,None,None,None,None,None,None,None,None,None,None,None,None,None,None,None,None,None,None,-73.9669,40.7889,7,None,VRB,25,-3.7,10.00,30.43,30.58,CLR:00,31,3,None,0.00,None,3,-16.1,30,-1.1,30.60,39.6,2016-01-06 09:51,None,None,None,2143,1220,None,None,None,None,None,None,None,None,None,None,None,None,None,None,None,None
5.17,2016-01-06 09:18:32,2016-01-06 09:37:50,24.36,0,4.06,N,2016-12-31 00:00:00,2016-01-01 00:00:00,New York,10022,-73.978904724121094,40.740768432617188,1,1,0.5,-73.968,40.759,0.3,19.5,0,-74.014930725097656,40.71307373046875,New York,2,2,NY CITY CENTRAL PARK NY US,WBAN:94728,1,FM-15,None,None,None,None,None,None,None,None,None,None,None,None,-9999,-9999,None,None,None,-9999,-9999,None,None,None,None,None,None,None,None,None,None,None,None,None,None,None,None,None,None,None,None,None,None,None,None,-73.9669,40.7889,7,None,VRB,25,-3.7,10.00,30.43,30.58,CLR:00,31,3,None,0.00,None,3,-16.1,30,-1.1,30.60,39.6,2016-01-06 09:51,None,None,None,2143,1220,None,None,None,None,None,None,None,None,None,None,None,None,None,None,None,None
.40,2016-01-06 09:18:33,2016-01-06 09:20:32,5.15,0,0.85,N,None,None,None,None,-73.999580383300781,40.738510131835938,1,1,0.5,None,None,0.3,3.5,0,-74.002471923828125,40.734035491943359,None,None,1,NY CITY CENTRAL PARK NY US,WBAN:94728,1,FM-15,None,None,None,None,None,None,None,None,None,None,None,None,-9999,-9999,None,None,None,-9999,-9999,None,None,None,None,None,None,None,None,None,None,None,None,None,None,None,None,None,None,None,None,None,None,None,None,-73.9669,40.7889,7,None,VRB,25,-3.7,10.00,30.43,30.58,CLR:00,31,3,None,0.00,None,3,-16.1,30,-1.1,30.60,39.6,2016-01-06 09:51,None,None,None,2143,1220,None,None,None,None,None,None,None,None,None,None,None,None,None,None,None,None
3.30,2016-01-06 09:18:33,2016-01-06 09:45:32,22.55,0,3.75,N,None | None | None,2016-01-01 00:00:00 | 2016-01-01 00:00:00 | 2016-01-01 02:00:00,New York | New York | New York,None | None | 10038,-73.985786437988281,40.730953216552734,1,1,0.5,-74.0064 | -74.0064 | -74.0081571,40.7142 | 40.7142 | 40.7090990,0.3,18,0,-73.966621398925781,40.766292572021484,New York | New York | New York,1 | 1 | 0,1,NY CITY CENTRAL PARK NY US,WBAN:94728,1,FM-15,None,None,None,None,None,None,None,None,None,None,None,None,-9999,-9999,None,None,None,-9999,-9999,None,None,None,None,None,None,None,None,None,None,None,None,None,None,None,None,None,None,None,None,None,None,None,None,-73.9669,40.7889,7,None,VRB,25,-3.7,10.00,30.43,30.58,CLR:00,31,3,None,0.00,None,3,-16.1,30,-1.1,30.60,39.6,2016-01-06 09:51,None,None,None,2143,1220,None,None,None,None,None,None,None,None,None,None,None,None,None,None,None,None
1.50,2016-01-06 09:18:33,2016-01-06 09:37:02,14.3,0,1,N,None,None,None,None,-73.990219116210938,40.756256103515625,1,2,0.5,None,None,0.3,12.5,0,-73.981460571289063,40.745216369628906,None,None,1,NY CITY CENTRAL PARK NY US,WBAN:94728,1,FM-15,None,None,None,None,None,None,None,None,None,None,None,None,-9999,-9999,None,None,None,-9999,-9999,None,None,None,None,None,None,None,None,None,None,None,None,None,None,None,None,None,None,None,None,None,None,None,None,-73.9669,40.7889,7,None,VRB,25,-3.7,10.00,30.43,30.58,CLR:00,31,3,None,0.00,None,3,-16.1,30,-1.1,30.60,39.6,2016-01-06 09:51,None,None,None,2143,1220,None,None,None,None,None,None,None,None,None,None,None,None,None,None,None,None
1.57,2016-01-06 09:18:33,2016-01-06 09:33:36,11.3,0,0,N,None,None,None,None,-73.952651977539063,40.783580780029297,2,3,0.5,None,None,0.3,10.5,0,-73.964553833007813,40.764812469482422,None,None,2,NY CITY CENTRAL PARK NY US,WBAN:94728,1,FM-15,None,None,None,None,None,None,None,None,None,None,None,None,-9999,-9999,None,None,None,-9999,-9999,None,None,None,None,None,None,None,None,None,None,None,None,None,None,None,None,None,None,None,None,None,None,None,None,-73.9669,40.7889,7,None,VRB,25,-3.7,10.00,30.43,30.58,CLR:00,31,3,None,0.00,None,3,-16.1,30,-1.1,30.60,39.6,2016-01-06 09:51,None,None,None,2143,1220,None,None,None,None,None,None,None,None,None,None,None,None,None,None,None,None
2.11,2016-01-06 09:18:33,2016-01-06 09:27:32,11.76,0,1.96,N,None,None,None,None,-73.949569702148438,40.781150817871094,1,5,0.5,None,None,0.3,9,0,-73.97589111328125,40.776458740234375,None,None,2,NY CITY CENTRAL PARK NY US,WBAN:94728,1,FM-15,None,None,None,None,None,None,None,None,None,None,None,None,-9999,-9999,None,None,None,-9999,-9999,None,None,None,None,None,None,None,None,None,None,None,None,None,None,None,None,None,None,None,None,None,None,None,None,-73.9669,40.7889,7,None,VRB,25,-3.7,10.00,30.43,30.58,CLR:00,31,3,None,0.00,None,3,-16.1,30,-1.1,30.60,39.6,2016-01-06 09:51,None,None,None,2143,1220,None,None,None,None,None,None,None,None,None,None,None,None,None,None,None,None
10.76,2016-01-06 09:18:33,2016-01-06 09:40:10,42.84,5.54,5,N,2016-12-31 00:00:00,2016-01-01 00:00:00,New York,10022,-73.977134704589844,40.751945495605469,1,1,0.5,-73.968,40.759,0.3,31.5,0,-73.870529174804688,40.773757934570313,New York,2,2,NY CITY CENTRAL PARK NY US,WBAN:94728,1,FM-15,None,None,None,None,None,None,None,None,None,None,None,None,-9999,-9999,None,None,None,-9999,-9999,None,None,None,None,None,None,None,None,None,None,None,None,None,None,None,None,None,None,None,None,None,None,None,None,-73.9669,40.7889,7,None,VRB,25,-3.7,10.00,30.43,30.58,CLR:00,31,3,None,0.00,None,3,-16.1,30,-1.1,30.60,39.6,2016-01-06 09:51,None,None,None,2143,1220,None,None,None,None,None,None,None,None,None,None,None,None,None,None,None,None
3.76,2016-01-06 09:18:33,2016-01-06 09:43:30,22.56,0,3.76,N,None,None,None,None,-73.953651428222656,40.766941070556641,1,5,0.5,None,None,0.3,18,0,-73.944557189941406,40.808971405029297,None,None,2,NY CITY CENTRAL PARK NY US,WBAN:94728,1,FM-15,None,None,None,None,None,None,None,None,None,None,None,None,-9999,-9999,None,None,None,-9999,-9999,None,None,None,None,None,None,None,None,None,None,None,None,None,None,None,None,None,None,None,None,None,None,None,None,-73.9669,40.7889,7,None,VRB,25,-3.7,10.00,30.43,30.58,CLR:00,31,3,None,0.00,None,3,-16.1,30,-1.1,30.60,39.6,2016-01-06 09:51,None,None,None,2143,1220,None,None,None,None,None,None,None,None,None,None,None,None,None,None,None,None
3.70,2016-01-06 09:18:34,2016-01-06 09:36:11,18.95,0,3.15,N,None,None,None,None,-74.014328002929688,40.709434509277344,1,1,0.5,None,None,0.3,15,0,-73.994804382324219,40.750400543212891,None,None,1,NY CITY CENTRAL PARK NY US,WBAN:94728,1,FM-15,None,None,None,None,None,None,None,None,None,None,None,None,-9999,-9999,None,None,None,-9999,-9999,None,None,None,None,None,None,None,None,None,None,None,None,None,None,None,None,None,None,None,None,None,None,None,None,-73.9669,40.7889,7,None,VRB,25,-3.7,10.00,30.43,30.58,CLR:00,31,3,None,0.00,None,3,-16.1,30,-1.1,30.60,39.6,2016-01-06 09:51,None,None,None,2143,1220,None,None,None,None,None,None,None,None,None,None,None,None,None,None,None,None
.90,2016-01-06 09:18:34,2016-01-06 09:31:21,9.8,0,0,N,None,None,None,None,-73.992774963378906,40.743000030517578,2,1,0.5,None,None,0.3,9,0,-73.977058410644531,40.739044189453125,None,None,1,NY CITY CENTRAL PARK NY US,WBAN:94728,1,FM-15,None,None,None,None,None,None,None,None,None,None,None,None,-9999,-9999,None,None,None,-9999,-9999,None,None,None,None,None,None,None,None,None,None,None,None,None,None,None,None,None,None,None,None,None,None,None,None,-73.9669,40.7889,7,None,VRB,25,-3.7,10.00,30.43,30.58,CLR:00,31,3,None,0.00,None,3,-16.1,30,-1.1,30.60,39.6,2016-01-06 09:51,None,None,None,2143,1220,None,None,None,None,None,None,None,None,None,None,None,None,None,None,None,None
1.20,2016-01-06 09:18:34,2016-01-06 09:27:31,9.3,0,1,N,None,None,None,None,-74.008354187011719,40.736125946044922,1,1,0.5,None,None,0.3,7.5,0,-74.010154724121094,40.719749450683594,None,None,1,NY CITY CENTRAL PARK NY US,WBAN:94728,1,FM-15,None,None,None,None,None,None,None,None,None,None,None,None,-9999,-9999,None,None,None,-9999,-9999,None,None,None,None,None,None,None,None,None,None,None,None,None,None,None,None,None,None,None,None,None,None,None,None,-73.9669,40.7889,7,None,VRB,25,-3.7,10.00,30.43,30.58,CLR:00,31,3,None,0.00,None,3,-16.1,30,-1.1,30.60,39.6,2016-01-06 09:51,None,None,None,2143,1220,None,None,None,None,None,None,None,None,None,None,None,None,None,None,None,None
.80,2016-01-06 09:18:34,2016-01-06 09:34:43,13,0,1.7,N,None,None,None,None,-73.9615478515625,40.757785797119141,1,1,0.5,None,None,0.3,10.5,0,-73.972610473632812,40.758903503417969,None,None,1,NY CITY CENTRAL PARK NY US,WBAN:94728,1,FM-15,None,None,None,None,None,None,None,None,None,None,None,None,-9999,-9999,None,None,None,-9999,-9999,None,None,None,None,None,None,None,None,None,None,None,None,None,None,None,None,None,None,None,None,None,None,None,None,-73.9669,40.7889,7,None,VRB,25,-3.7,10.00,30.43,30.58,CLR:00,31,3,None,0.00,None,3,-16.1,30,-1.1,30.60,39.6,2016-01-06 09:51,None,None,None,2143,1220,None,None,None,None,None,None,None,None,None,None,None,None,None,None,None,None
2.30,2016-01-06 09:18:34,2016-01-06 09:32:33,12.3,0,0,N,None | None | None,2016-01-01 00:00:00 | 2016-01-01 00:00:00 | 2016-01-01 20:00:00,New York | New York | New York,None | None | 10013,-74.008827209472656,40.719169616699219,2,1,0.5,-74.0064 | -74.0064 | -74.0050159,40.7142 | 40.7142 | 40.7208412,0.3,11.5,0,-73.99072265625,40.694492340087891,New York | New York | New York,1 | 1 | 0,1,NY CITY CENTRAL PARK NY US,WBAN:94728,1,FM-15,None,None,None,None,None,None,None,None,None,None,None,None,-9999,-9999,None,None,None,-9999,-9999,None,None,None,None,None,None,None,None,None,None,None,None,None,None,None,None,None,None,None,None,None,None,None,None,-73.9669,40.7889,7,None,VRB,25,-3.7,10.00,30.43,30.58,CLR:00,31,3,None,0.00,None,3,-16.1,30,-1.1,30.60,39.6,2016-01-06 09:51,None,None,None,2143,1220,None,None,None,None,None,None,None,None,None,None,None,None,None,None,None,None
1.50,2016-01-06 09:18:34,2016-01-06 09:33:12,12.3,0,1,N,2016-12-31 00:00:00,2016-01-01 00:00:00,New York,10022,-73.977371215820313,40.749591827392578,1,1,0.5,-73.968,40.759,0.3,10.5,0,-73.976058959960937,40.763931274414063,New York,2,1,NY CITY CENTRAL PARK NY US,WBAN:94728,1,FM-15,None,None,None,None,None,None,None,None,None,None,None,None,-9999,-9999,None,None,None,-9999,-9999,None,None,None,None,None,None,None,None,None,None,None,None,None,None,None,None,None,None,None,None,None,None,None,None,-73.9669,40.7889,7,None,VRB,25,-3.7,10.00,30.43,30.58,CLR:00,31,3,None,0.00,None,3,-16.1,30,-1.1,30.60,39.6,2016-01-06 09:51,None,None,None,2143,1220,None,None,None,None,None,None,None,None,None,None,None,None,None,None,None,None
2.64,2016-01-06 09:18:34,2016-01-06 09:41:45,18.3,0,2,N,None,None,None,None,-73.950904846191406,40.771568298339844,1,3,0.5,None,None,0.3,15.5,0,-73.980796813964844,40.762340545654297,None,None,2,NY CITY CENTRAL PARK NY US,WBAN:94728,1,FM-15,None,None,None,None,None,None,None,None,None,None,None,None,-9999,-9999,None,None,None,-9999,-9999,None,None,None,None,None,None,None,None,None,None,None,None,None,None,None,None,None,None,None,None,None,None,None,None,-73.9669,40.7889,7,None,VRB,25,-3.7,10.00,30.43,30.58,CLR:00,31,3,None,0.00,None,3,-16.1,30,-1.1,30.60,39.6,2016-01-06 09:51,None,None,None,2143,1220,None,None,None,None,None,None,None,None,None,None,None,None,None,None,None,None
.67,2016-01-06 09:18:34,2016-01-06 09:26:19,8.4,0,1.1,N,None | 2016-07-03 00:00:00,2016-01-01 00:00:00 | 2015-10-08 00:00:00,New York | New York,10019 | 10019,-73.984138488769531,40.768180847167969,1,1,0.5,-73.9803996 | -73.9844951,40.7656668 | 40.7632328,0.3,6.5,0,-73.973442077636719,40.764427185058594,New York | New York,1 | 2,2,NY CITY CENTRAL PARK NY US,WBAN:94728,1,FM-15,None,None,None,None,None,None,None,None,None,None,None,None,-9999,-9999,None,None,None,-9999,-9999,None,None,None,None,None,None,None,None,None,None,None,None,None,None,None,None,None,None,None,None,None,None,None,None,-73.9669,40.7889,7,None,VRB,25,-3.7,10.00,30.43,30.58,CLR:00,31,3,None,0.00,None,3,-16.1,30,-1.1,30.60,39.6,2016-01-06 09:51,None,None,None,2143,1220,None,None,None,None,None,None,None,None,None,None,None,None,None,None,None,None
1.12,2016-01-06 09:18:34,2016-01-06 09:31:24,9.8,0,0,N,None | 2016-07-03 00:00:00,2016-01-01 00:00:00 | 2015-10-08 00:00:00,New York | New York,10019 | 10019,-73.990715026855469,40.751117706298828,2,1,0.5,-73.9803996 | -73.9844951,40.7656668 | 40.7632328,0.3,9,0,-73.972877502441406,40.746421813964844,New York | New York,1 | 2,2,NY CITY CENTRAL PARK NY US,WBAN:94728,1,FM-15,None,None,None,None,None,None,None,None,None,None,None,None,-9999,-9999,None,None,None,-9999,-9999,None,None,None,None,None,None,None,None,None,None,None,None,None,None,None,None,None,None,None,None,None,None,None,None,-73.9669,40.7889,7,None,VRB,25,-3.7,10.00,30.43,30.58,CLR:00,31,3,None,0.00,None,3,-16.1,30,-1.1,30.60,39.6,2016-01-06 09:51,None,None,None,2143,1220,None,None,None,None,None,None,None,None,None,None,None,None,None,None,None,None
.20,2016-01-06 09:18:34,2016-01-06 09:22:20,6,0,1.2,N,None | 2016-12-31 00:00:00,2016-01-01 00:00:00 | 2016-01-01 00:00:00,New York | New York,10019 | 10022,-73.989990234375,40.757305145263672,1,1,0.5,-73.9803996 | -73.968,40.7656668 | 40.759,0.3,4,0,-73.987525939941406,40.760303497314453,New York | New York,1 | 2,2,NY CITY CENTRAL PARK NY US,WBAN:94728,1,FM-15,None,None,None,None,None,None,None,None,None,None,None,None,-9999,-9999,None,None,None,-9999,-9999,None,None,None,None,None,None,None,None,None,None,None,None,None,None,None,None,None,None,None,None,None,None,None,None,-73.9669,40.7889,7,None,VRB,25,-3.7,10.00,30.43,30.58,CLR:00,31,3,None,0.00,None,3,-16.1,30,-1.1,30.60,39.6,2016-01-06 09:51,None,None,None,2143,1220,None,None,None,None,None,None,None,None,None,None,None,None,None,None,None,None
1.00,2016-01-06 09:18:35,2016-01-06 09:27:51,8.3,0,0,N,None,None,None,None,-73.961715698242188,40.7642822265625,2,1,0.5,None,None,0.3,7.5,0,-73.9703369140625,40.752101898193359,None,None,1,NY CITY CENTRAL PARK NY US,WBAN:94728,1,FM-15,None,None,None,None,None,None,None,None,None,None,None,None,-9999,-9999,None,None,None,-9999,-9999,None,None,None,None,None,None,None,None,None,None,None,None,None,None,None,None,None,None,None,None,None,None,None,None,-73.9669,40.7889,7,None,VRB,25,-3.7,10.00,30.43,30.58,CLR:00,31,3,None,0.00,None,3,-16.1,30,-1.1,30.60,39.6,2016-01-06 09:51,None,None,None,2143,1220,None,None,None,None,None,None,None,None,None,None,None,None,None,None,None,None
.50,2016-01-06 09:18:35,2016-01-06 09:26:01,9.3,0,2,N,2016-07-03 00:00:00,2015-10-08 00:00:00,New York,10019,-74.005203247070313,40.718460083007813,1,1,0.5,-73.9844951,40.7632328,0.3,6.5,0,-74.011337280273437,40.714859008789063,New York,2,1,NY CITY CENTRAL PARK NY US,WBAN:94728,1,FM-15,None,None,None,None,None,None,None,None,None,None,None,None,-9999,-9999,None,None,None,-9999,-9999,None,None,None,None,None,None,None,None,None,None,None,None,None,None,None,None,None,None,None,None,None,None,None,None,-73.9669,40.7889,7,None,VRB,25,-3.7,10.00,30.43,30.58,CLR:00,31,3,None,0.00,None,3,-16.1,30,-1.1,30.60,39.6,2016-01-06 09:51,None,None,None,2143,1220,None,None,None,None,None,None,None,None,None,None,None,None,None,None,None,None
1.98,2016-01-06 09:18:35,2016-01-06 09:33:11,12.8,0,0,N,2016-12-31 00:00:00,2016-01-01 00:00:00,New York,10022,-73.981391906738281,40.728908538818359,2,1,0.5,-73.968,40.759,0.3,12,0,-73.969383239746094,40.748710632324219,New York,2,2,NY CITY CENTRAL PARK NY US,WBAN:94728,1,FM-15,None,None,None,None,None,None,None,None,None,None,None,None,-9999,-9999,None,None,None,-9999,-9999,None,None,None,None,None,None,None,None,None,None,None,None,None,None,None,None,None,None,None,None,None,None,None,None,-73.9669,40.7889,7,None,VRB,25,-3.7,10.00,30.43,30.58,CLR:00,31,3,None,0.00,None,3,-16.1,30,-1.1,30.60,39.6,2016-01-06 09:51,None,None,None,2143,1220,None,None,None,None,None,None,None,None,None,None,None,None,None,None,None,None
1.03,2016-01-06 09:18:35,2016-01-06 09:29:54,10.8,0,2,N,None | None | None,2016-01-01 00:00:00 | 2016-01-01 00:00:00 | 2016-01-01 02:00:00,New York | New York | New York,None | None | 10038,-73.982398986816406,40.751369476318359,1,1,0.5,-74.0064 | -74.0064 | -74.0081571,40.7142 | 40.7142 | 40.7090990,0.3,8,0,-73.996902465820313,40.751399993896484,New York | New York | New York,1 | 1 | 0,2,NY CITY CENTRAL PARK NY US,WBAN:94728,1,FM-15,None,None,None,None,None,None,None,None,None,None,None,None,-9999,-9999,None,None,None,-9999,-9999,None,None,None,None,None,None,None,None,None,None,None,None,None,None,None,None,None,None,None,None,None,None,None,None,-73.9669,40.7889,7,None,VRB,25,-3.7,10.00,30.43,30.58,CLR:00,31,3,None,0.00,None,3,-16.1,30,-1.1,30.60,39.6,2016-01-06 09:51,None,None,None,2143,1220,None,None,None,None,None,None,None,None,None,None,None,None,None,None,None,None
1.79,2016-01-06 09:18:36,2016-01-06 09:33:44,11.3,0,0,N,None,None,None,None,-73.982757568359375,40.77191162109375,2,1,0.5,None,None,0.3,10.5,0,-73.991249084472656,40.749168395996094,None,None,2,NY CITY CENTRAL PARK NY US,WBAN:94728,1,FM-15,None,None,None,None,None,None,None,None,None,None,None,None,-9999,-9999,None,None,None,-9999,-9999,None,None,None,None,None,None,None,None,None,None,None,None,None,None,None,None,None,None,None,None,None,None,None,None,-73.9669,40.7889,7,None,VRB,25,-3.7,10.00,30.43,30.58,CLR:00,31,3,None,0.00,None,3,-16.1,30,-1.1,30.60,39.6,2016-01-06 09:51,None,None,None,2143,1220,None,None,None,None,None,None,None,None,None,None,None,None,None,None,None,None
1.81,2016-01-06 09:18:36,2016-01-06 09:33:50,11.8,0,0,N,None,None,None,None,-73.95050048828125,40.779769897460938,1,6,0.5,None,None,0.3,11,0,-73.968330383300781,40.761638641357422,None,None,2,NY CITY CENTRAL PARK NY US,WBAN:94728,1,FM-15,None,None,None,None,None,None,None,None,None,None,None,None,-9999,-9999,None,None,None,-9999,-9999,None,None,None,None,None,None,None,None,None,None,None,None,None,None,None,None,None,None,None,None,None,None,None,None,-73.9669,40.7889,7,None,VRB,25,-3.7,10.00,30.43,30.58,CLR:00,31,3,None,0.00,None,3,-16.1,30,-1.1,30.60,39.6,2016-01-06 09:51,None,None,None,2143,1220,None,None,None,None,None,None,None,None,None,None,None,None,None,None,None,None
.62,2016-01-06 09:18:36,2016-01-06 09:31:00,10.3,0,1,N,None,None,None,None,-73.965896606445313,40.759693145751953,1,2,0.5,None,None,0.3,8.5,0,-73.975990295410156,40.763744354248047,None,None,2,NY CITY CENTRAL PARK NY US,WBAN:94728,1,FM-15,None,None,None,None,None,None,None,None,None,None,None,None,-9999,-9999,None,None,None,-9999,-9999,None,None,None,None,None,None,None,None,None,None,None,None,None,None,None,None,None,None,None,None,None,None,None,None,-73.9669,40.7889,7,None,VRB,25,-3.7,10.00,30.43,30.58,CLR:00,31,3,None,0.00,None,3,-16.1,30,-1.1,30.60,39.6,2016-01-06 09:51,None,None,None,2143,1220,None,None,None,None,None,None,None,None,None,None,None,None,None,None,None,None
1.81,2016-01-06 09:18:36,2016-01-06 09:32:05,13.3,0,2,N,2016-12-31 00:00:00,2016-01-01 00:00:00,New York,10022,-73.995491027832031,40.717090606689453,1,1,0.5,-73.968,40.759,0.3,10.5,0,-74.013763427734375,40.714790344238281,New York,2,2,NY CITY CENTRAL PARK NY US,WBAN:94728,1,FM-15,None,None,None,None,None,None,None,None,None,None,None,None,-9999,-9999,None,None,None,-9999,-9999,None,None,None,None,None,None,None,None,None,None,None,None,None,None,None,None,None,None,None,None,None,None,None,None,-73.9669,40.7889,7,None,VRB,25,-3.7,10.00,30.43,30.58,CLR:00,31,3,None,0.00,None,3,-16.1,30,-1.1,30.60,39.6,2016-01-06 09:51,None,None,None,2143,1220,None,None,None,None,None,None,None,None,None,None,None,None,None,None,None,None
.90,2016-01-06 09:18:37,2016-01-06 09:28:49,10.55,0,1.75,N,None | 2016-07-03 00:00:00,2016-01-01 00:00:00 | 2015-10-08 00:00:00,New York | New York,10019 | 10019,-73.995223999023437,40.749744415283203,1,1,0.5,-73.9803996 | -73.9844951,40.7656668 | 40.7632328,0.3,8,0,-73.9862060546875,40.762218475341797,New York | New York,1 | 2,1,NY CITY CENTRAL PARK NY US,WBAN:94728,1,FM-15,None,None,None,None,None,None,None,None,None,None,None,None,-9999,-9999,None,None,None,-9999,-9999,None,None,None,None,None,None,None,None,None,None,None,None,None,None,None,None,None,None,None,None,None,None,None,None,-73.9669,40.7889,7,None,VRB,25,-3.7,10.00,30.43,30.58,CLR:00,31,3,None,0.00,None,3,-16.1,30,-1.1,30.60,39.6,2016-01-06 09:51,None,None,None,2143,1220,None,None,None,None,None,None,None,None,None,None,None,None,None,None,None,None
10.20,2016-01-06 09:18:37,2016-01-06 09:56:54,49.59,5.54,8.25,N,None | None | None,2016-01-01 00:00:00 | 2016-01-01 00:00:00 | 2016-01-01 02:00:00,New York | New York | New York,None | None | 10038,-73.872764587402344,40.773754119873047,1,1,0.5,-74.0064 | -74.0064 | -74.0081571,40.7142 | 40.7142 | 40.7090990,0.3,35,0,-73.973060607910156,40.761772155761719,New York | New York | New York,1 | 1 | 0,1,NY CITY CENTRAL PARK NY US,WBAN:94728,1,FM-15,None,None,None,None,None,None,None,None,None,None,None,None,-9999,-9999,None,None,None,-9999,-9999,None,None,None,None,None,None,None,None,None,None,None,None,None,None,None,None,None,None,None,None,None,None,None,None,-73.9669,40.7889,7,None,VRB,25,-3.7,10.00,30.43,30.58,CLR:00,31,3,None,0.00,None,3,-16.1,30,-1.1,30.60,39.6,2016-01-06 09:51,None,None,None,2143,1220,None,None,None,None,None,None,None,None,None,None,None,None,None,None,None,None
1.70,2016-01-06 09:18:37,2016-01-06 09:32:20,12.95,0,2.15,N,None | 2016-07-03 00:00:00,2016-01-01 00:00:00 | 2015-10-08 00:00:00,New York | New York,10019 | 10019,-74.005584716796875,40.738765716552734,1,1,0.5,-73.9803996 | -73.9844951,40.7656668 | 40.7632328,0.3,10,0,-73.994392395019531,40.719661712646484,New York | New York,1 | 2,1,NY CITY CENTRAL PARK NY US,WBAN:94728,1,FM-15,None,None,None,None,None,None,None,None,None,None,None,None,-9999,-9999,None,None,None,-9999,-9999,None,None,None,None,None,None,None,None,None,None,None,None,None,None,None,None,None,None,None,None,None,None,None,None,-73.9669,40.7889,7,None,VRB,25,-3.7,10.00,30.43,30.58,CLR:00,31,3,None,0.00,None,3,-16.1,30,-1.1,30.60,39.6,2016-01-06 09:51,None,None,None,2143,1220,None,None,None,None,None,None,None,None,None,None,None,None,None,None,None,None
2.72,2016-01-06 09:18:37,2016-01-06 09:49:44,20.3,0,0,N,None | 2016-12-31 00:00:00,2016-01-01 00:00:00 | 2016-01-01 00:00:00,New York | New York,10019 | 10022,-73.974586486816406,40.787940979003906,2,1,0.5,-73.9803996 | -73.968,40.7656668 | 40.759,0.3,19.5,0,-73.957023620605469,40.762619018554687,New York | New York,1 | 2,2,NY CITY CENTRAL PARK NY US,WBAN:94728,1,FM-15,None,None,None,None,None,None,None,None,None,None,None,None,-9999,-9999,None,None,None,-9999,-9999,None,None,None,None,None,None,None,None,None,None,None,None,None,None,None,None,None,None,None,None,None,None,None,None,-73.9669,40.7889,7,None,VRB,25,-3.7,10.00,30.43,30.58,CLR:00,31,3,None,0.00,None,3,-16.1,30,-1.1,30.60,39.6,2016-01-06 09:51,None,None,None,2143,1220,None,None,None,None,None,None,None,None,None,None,None,None,None,None,None,None
1.30,2016-01-06 09:18:37,2016-01-06 09:30:41,9.8,0,0,N,None,None,None,None,-73.965118408203125,40.769161224365234,2,1,0.5,None,None,0.3,9,0,-73.976882934570313,40.758628845214844,None,None,2,NY CITY CENTRAL PARK NY US,WBAN:94728,1,FM-15,None,None,None,None,None,None,None,None,None,None,None,None,-9999,-9999,None,None,None,-9999,-9999,None,None,None,None,None,None,None,None,None,None,None,None,None,None,None,None,None,None,None,None,None,None,None,None,-73.9669,40.7889,7,None,VRB,25,-3.7,10.00,30.43,30.58,CLR:00,31,3,None,0.00,None,3,-16.1,30,-1.1,30.60,39.6,2016-01-06 09:51,None,None,None,2143,1220,None,None,None,None,None,None,None,None,None,None,None,None,None,None,None,None
1.31,2016-01-06 09:18:37,2016-01-06 09:37:56,15.96,0,2.66,N,None,None,None,None,-73.956771850585938,40.778068542480469,1,1,0.5,None,None,0.3,12.5,0,-73.961051940917969,40.766338348388672,None,None,2,NY CITY CENTRAL PARK NY US,WBAN:94728,1,FM-15,None,None,None,None,None,None,None,None,None,None,None,None,-9999,-9999,None,None,None,-9999,-9999,None,None,None,None,None,None,None,None,None,None,None,None,None,None,None,None,None,None,None,None,None,None,None,None,-73.9669,40.7889,7,None,VRB,25,-3.7,10.00,30.43,30.58,CLR:00,31,3,None,0.00,None,3,-16.1,30,-1.1,30.60,39.6,2016-01-06 09:51,None,None,None,2143,1220,None,None,None,None,None,None,None,None,None,None,None,None,None,None,None,None
1.00,2016-01-06 09:18:38,2016-01-06 09:23:06,7.55,0,1.25,N,2016-12-31 00:00:00,2016-01-01 00:00:00,New York,10022,-74.00994873046875,40.721141815185547,1,1,0.5,-73.968,40.759,0.3,5.5,0,-74.01556396484375,40.707981109619141,New York,2,1,NY CITY CENTRAL PARK NY US,WBAN:94728,1,FM-15,None,None,None,None,None,None,None,None,None,None,None,None,-9999,-9999,None,None,None,-9999,-9999,None,None,None,None,None,None,None,None,None,None,None,None,None,None,None,None,None,None,None,None,None,None,None,None,-73.9669,40.7889,7,None,VRB,25,-3.7,10.00,30.43,30.58,CLR:00,31,3,None,0.00,None,3,-16.1,30,-1.1,30.60,39.6,2016-01-06 09:51,None,None,None,2143,1220,None,None,None,None,None,None,None,None,None,None,None,None,None,None,None,None
.70,2016-01-06 09:18:38,2016-01-06 09:27:30,7.8,0,0,N,None,None,None,None,-73.974716186523438,40.750328063964844,2,1,0.5,None,None,0.3,7,0,-73.967498779296875,40.760543823242188,None,None,1,NY CITY CENTRAL PARK NY US,WBAN:94728,1,FM-15,None,None,None,None,None,None,None,None,None,None,None,None,-9999,-9999,None,None,None,-9999,-9999,None,None,None,None,None,None,None,None,None,None,None,None,None,None,None,None,None,None,None,None,None,None,None,None,-73.9669,40.7889,7,None,VRB,25,-3.7,10.00,30.43,30.58,CLR:00,31,3,None,0.00,None,3,-16.1,30,-1.1,30.60,39.6,2016-01-06 09:51,None,None,None,2143,1220,None,None,None,None,None,None,None,None,None,None,None,None,None,None,None,None
.60,2016-01-06 09:18:38,2016-01-06 09:26:15,7.3,0,0,N,None,2016-01-01 02:00:00,New York,10038,-73.979545593261719,40.749332427978516,2,2,0.5,-74.0081571,40.7090990,0.3,6.5,0,-73.986160278320312,40.743412017822266,New York,0,1,NY CITY CENTRAL PARK NY US,WBAN:94728,1,FM-15,None,None,None,None,None,None,None,None,None,None,None,None,-9999,-9999,None,None,None,-9999,-9999,None,None,None,None,None,None,None,None,None,None,None,None,None,None,None,None,None,None,None,None,None,None,None,None,-73.9669,40.7889,7,None,VRB,25,-3.7,10.00,30.43,30.58,CLR:00,31,3,None,0.00,None,3,-16.1,30,-1.1,30.60,39.6,2016-01-06 09:51,None,None,None,2143,1220,None,None,None,None,None,None,None,None,None,None,None,None,None,None,None,None
1.40,2016-01-06 09:18:38,2016-01-06 09:31:21,10.3,0,0,N,2016-12-31 00:00:00,2016-01-01 00:00:00,New York,10022,-73.954910278320312,40.765735626220703,2,3,0.5,-73.968,40.759,0.3,9.5,0,-73.971641540527344,40.757614135742187,New York,2,1,NY CITY CENTRAL PARK NY US,WBAN:94728,1,FM-15,None,None,None,None,None,None,None,None,None,None,None,None,-9999,-9999,None,None,None,-9999,-9999,None,None,None,None,None,None,None,None,None,None,None,None,None,None,None,None,None,None,None,None,None,None,None,None,-73.9669,40.7889,7,None,VRB,25,-3.7,10.00,30.43,30.58,CLR:00,31,3,None,0.00,None,3,-16.1,30,-1.1,30.60,39.6,2016-01-06 09:51,None,None,None,2143,1220,None,None,None,None,None,None,None,None,None,None,None,None,None,None,None,None
1.15,2016-01-06 09:18:38,2016-01-06 09:28:24,10.3,0,1,N,None,None,None,None,-73.987335205078125,40.724716186523438,1,1,0.5,None,None,0.3,8.5,0,-73.976844787597656,40.739166259765625,None,None,2,NY CITY CENTRAL PARK NY US,WBAN:94728,1,FM-15,None,None,None,None,None,None,None,None,None,None,None,None,-9999,-9999,None,None,None,-9999,-9999,None,None,None,None,None,None,None,None,None,None,None,None,None,None,None,None,None,None,None,None,None,None,None,None,-73.9669,40.7889,7,None,VRB,25,-3.7,10.00,30.43,30.58,CLR:00,31,3,None,0.00,None,3,-16.1,30,-1.1,30.60,39.6,2016-01-06 09:51,None,None,None,2143,1220,None,None,None,None,None,None,None,None,None,None,None,None,None,None,None,None
.85,2016-01-06 09:18:38,2016-01-06 09:29:00,8.3,0,0,N,2016-12-31 00:00:00,2016-01-01 00:00:00,New York,10022,-73.981361389160156,40.764617919921875,2,1,0.5,-73.968,40.759,0.3,7.5,0,-73.988563537597656,40.758888244628906,New York,2,2,NY CITY CENTRAL PARK NY US,WBAN:94728,1,FM-15,None,None,None,None,None,None,None,None,None,None,None,None,-9999,-9999,None,None,None,-9999,-9999,None,None,None,None,None,None,None,None,None,None,None,None,None,None,None,None,None,None,None,None,None,None,None,None,-73.9669,40.7889,7,None,VRB,25,-3.7,10.00,30.43,30.58,CLR:00,31,3,None,0.00,None,3,-16.1,30,-1.1,30.60,39.6,2016-01-06 09:51,None,None,None,2143,1220,None,None,None,None,None,None,None,None,None,None,None,None,None,None,None,None
.94,2016-01-06 09:18:38,2016-01-06 09:23:59,6.3,0,0,N,None,None,None,None,-74.016250610351563,40.714809417724609,2,1,0.5,None,None,0.3,5.5,0,-74.010093688964844,40.720241546630859,None,None,2,NY CITY CENTRAL PARK NY US,WBAN:94728,1,FM-15,None,None,None,None,None,None,None,None,None,None,None,None,-9999,-9999,None,None,None,-9999,-9999,None,None,None,None,None,None,None,None,None,None,None,None,None,None,None,None,None,None,None,None,None,None,None,None,-73.9669,40.7889,7,None,VRB,25,-3.7,10.00,30.43,30.58,CLR:00,31,3,None,0.00,None,3,-16.1,30,-1.1,30.60,39.6,2016-01-06 09:51,None,None,None,2143,1220,None,None,None,None,None,None,None,None,None,None,None,None,None,None,None,None
1.50,2016-01-06 09:18:39,2016-01-06 09:36:59,14.72,0,1.92,Y,2016-07-03 00:00:00,2015-10-08 00:00:00,New York,10019,-73.978408813476563,40.748237609863281,1,1,0.5,-73.9844951,40.7632328,0.3,12,0,-73.972946166992188,40.764553070068359,New York,2,1,NY CITY CENTRAL PARK NY US,WBAN:94728,1,FM-15,None,None,None,None,None,None,None,None,None,None,None,None,-9999,-9999,None,None,None,-9999,-9999,None,None,None,None,None,None,None,None,None,None,None,None,None,None,None,None,None,None,None,None,None,None,None,None,-73.9669,40.7889,7,None,VRB,25,-3.7,10.00,30.43,30.58,CLR:00,31,3,None,0.00,None,3,-16.1,30,-1.1,30.60,39.6,2016-01-06 09:51,None,None,None,2143,1220,None,None,None,None,None,None,None,None,None,None,None,None,None,None,None,None
15.20,2016-01-06 09:18:39,2016-01-06 09:53:16,75.84,5.54,17.5,N,None | None | None,2016-01-01 00:00:00 | 2016-01-01 00:00:00 | 2016-01-01 20:00:00,New York | New York | New York,None | None | 10013,-73.974411010742188,40.749656677246094,1,1,0.5,-74.0064 | -74.0064 | -74.0050159,40.7142 | 40.7142 | 40.7208412,0.3,52,0,-73.790817260742188,40.663429260253906,New York | New York | New York,1 | 1 | 0,1,NY CITY CENTRAL PARK NY US,WBAN:94728,2,FM-15,None,None,None,None,None,None,None,None,None,None,None,None,-9999,-9999,None,None,None,-9999,-9999,None,None,None,None,None,None,None,None,None,None,None,None,None,None,None,None,None,None,None,None,None,None,None,None,-73.9669,40.7889,7,None,VRB,25,-3.7,10.00,30.43,30.58,CLR:00,31,3,None,0.00,None,3,-16.1,30,-1.1,30.60,39.6,2016-01-06 09:51,None,None,None,2143,1220,None,None,None,None,None,None,None,None,None,None,None,None,None,None,None,None
.80,2016-01-06 09:18:39,2016-01-06 09:22:05,6.35,0,1.05,N,None | 2016-12-31 00:00:00,2016-01-01 00:00:00 | 2016-01-01 00:00:00,New York | New York,10019 | 10022,-73.9879150390625,40.754638671875,1,1,0.5,-73.9803996 | -73.968,40.7656668 | 40.759,0.3,4.5,0,-73.986289978027344,40.745880126953125,New York | New York,1 | 2,1,NY CITY CENTRAL PARK NY US,WBAN:94728,1,FM-15,None,None,None,None,None,None,None,None,None,None,None,None,-9999,-9999,None,None,None,-9999,-9999,None,None,None,None,None,None,None,None,None,None,None,None,None,None,None,None,None,None,None,None,None,None,None,None,-73.9669,40.7889,7,None,VRB,25,-3.7,10.00,30.43,30.58,CLR:00,31,3,None,0.00,None,3,-16.1,30,-1.1,30.60,39.6,2016-01-06 09:51,None,None,None,2143,1220,None,None,None,None,None,None,None,None,None,None,None,None,None,None,None,None
.71,2016-01-06 09:18:39,2016-01-06 09:21:54,6.36,0,1.06,N,None,None,None,None,-73.987098693847656,40.7711181640625,1,2,0.5,None,None,0.3,4.5,0,-73.979751586914063,40.777801513671875,None,None,2,NY CITY CENTRAL PARK NY US,WBAN:94728,1,FM-15,None,None,None,None,None,None,None,None,None,None,None,None,-9999,-9999,None,None,None,-9999,-9999,None,None,None,None,None,None,None,None,None,None,None,None,None,None,None,None,None,None,None,None,None,None,None,None,-73.9669,40.7889,7,None,VRB,25,-3.7,10.00,30.43,30.58,CLR:00,31,3,None,0.00,None,3,-16.1,30,-1.1,30.60,39.6,2016-01-06 09:51,None,None,None,2143,1220,None,None,None,None,None,None,None,None,None,None,None,None,None,None,None,None
6.31,2016-01-06 09:18:39,2016-01-06 09:54:47,33.96,0,5.66,N,None,None,None,None,-74.004600524902344,40.70684814453125,1,1,0.5,None,None,0.3,27.5,0,-73.980201721191406,40.767330169677734,None,None,2,NY CITY CENTRAL PARK NY US,WBAN:94728,1,FM-15,None,None,None,None,None,None,None,None,None,None,None,None,-9999,-9999,None,None,None,-9999,-9999,None,None,None,None,None,None,None,None,None,None,None,None,None,None,None,None,None,None,None,None,None,None,None,None,-73.9669,40.7889,7,None,VRB,25,-3.7,10.00,30.43,30.58,CLR:00,31,3,None,0.00,None,3,-16.1,30,-1.1,30.60,39.6,2016-01-06 09:51,None,None,None,2143,1220,None,None,None,None,None,None,None,None,None,None,None,None,None,None,None,None
6.75,2016-01-06 09:18:39,2016-01-06 09:59:56,22.8,0,0,N,None,None,None,None,-73.992462158203125,40.714260101318359,2,2,0.5,None,None,0.3,22,0,-73.921058654785156,40.66778564453125,None,None,2,NY CITY CENTRAL PARK NY US,WBAN:94728,5,FM-15,None,None,None,None,None,None,None,None,None,None,None,None,-9999,-9999,None,None,None,-9999,-9999,None,None,None,None,None,None,None,None,None,None,None,None,None,None,None,None,None,None,None,None,None,None,None,None,-73.9669,40.7889,7,None,VRB,25,-3.7,10.00,30.43,30.58,CLR:00,31,3,None,0.00,None,3,-16.1,30,-1.1,30.60,39.6,2016-01-06 09:51,None,None,None,2143,1220,None,None,None,None,None,None,None,None,None,None,None,None,None,None,None,None
8.82,2016-01-06 09:18:39,2016-01-06 09:45:00,37.25,0,7.45,N,None | 2016-07-03 00:00:00,2016-01-01 00:00:00 | 2015-10-08 00:00:00,New York | New York,10019 | 10019,-73.975692749023438,40.765018463134766,1,2,0.5,-73.9803996 | -73.9844951,40.7656668 | 40.7632328,0.3,29,0,-73.870613098144531,40.773979187011719,New York | New York,1 | 2,2,NY CITY CENTRAL PARK NY US,WBAN:94728,1,FM-15,None,None,None,None,None,None,None,None,None,None,None,None,-9999,-9999,None,None,None,-9999,-9999,None,None,None,None,None,None,None,None,None,None,None,None,None,None,None,None,None,None,None,None,None,None,None,None,-73.9669,40.7889,7,None,VRB,25,-3.7,10.00,30.43,30.58,CLR:00,31,3,None,0.00,None,3,-16.1,30,-1.1,30.60,39.6,2016-01-06 09:51,None,None,None,2143,1220,None,None,None,None,None,None,None,None,None,None,None,None,None,None,None,None
1.02,2016-01-06 09:18:39,2016-01-06 09:26:14,7.3,0,0,N,None,None,None,None,-73.962226867675781,40.773078918457031,2,1,0.5,None,None,0.3,6.5,0,-73.958076477050781,40.764900207519531,None,None,2,NY CITY CENTRAL PARK NY US,WBAN:94728,1,FM-15,None,None,None,None,None,None,None,None,None,None,None,None,-9999,-9999,None,None,None,-9999,-9999,None,None,None,None,None,None,None,None,None,None,None,None,None,None,None,None,None,None,None,None,None,None,None,None,-73.9669,40.7889,7,None,VRB,25,-3.7,10.00,30.43,30.58,CLR:00,31,3,None,0.00,None,3,-16.1,30,-1.1,30.60,39.6,2016-01-06 09:51,None,None,None,2143,1220,None,None,None,None,None,None,None,None,None,None,None,None,None,None,None,None
1.16,2016-01-06 09:18:39,2016-01-06 09:29:13,11.62,0,2.32,N,None,None,None,None,-73.98260498046875,40.739627838134766,1,1,0.5,None,None,0.3,8.5,0,-73.979484558105469,40.752418518066406,None,None,2,NY CITY CENTRAL PARK NY US,WBAN:94728,1,FM-15,None,None,None,None,None,None,None,None,None,None,None,None,-9999,-9999,None,None,None,-9999,-9999,None,None,None,None,None,None,None,None,None,None,None,None,None,None,None,None,None,None,None,None,None,None,None,None,-73.9669,40.7889,7,None,VRB,25,-3.7,10.00,30.43,30.58,CLR:00,31,3,None,0.00,None,3,-16.1,30,-1.1,30.60,39.6,2016-01-06 09:51,None,None,None,2143,1220,None,None,None,None,None,None,None,None,None,None,None,None,None,None,None,None
6.84,2016-01-06 09:18:39,2016-01-06 09:46:46,32.25,0,6.45,N,None,None,None,None,-73.966934204101563,40.804008483886719,1,1,0.5,None,None,0.3,25,0,-74.009124755859375,40.725296020507812,None,None,2,NY CITY CENTRAL PARK NY US,WBAN:94728,1,FM-15,None,None,None,None,None,None,None,None,None,None,None,None,-9999,-9999,None,None,None,-9999,-9999,None,None,None,None,None,None,None,None,None,None,None,None,None,None,None,None,None,None,None,None,None,None,None,None,-73.9669,40.7889,7,None,VRB,25,-3.7,10.00,30.43,30.58,CLR:00,31,3,None,0.00,None,3,-16.1,30,-1.1,30.60,39.6,2016-01-06 09:51,None,None,None,2143,1220,None,None,None,None,None,None,None,None,None,None,None,None,None,None,None,None
1.40,2016-01-06 09:18:40,2016-01-06 09:25:58,8.3,0,0,N,None,None,None,None,-73.960205078125,40.781391143798828,2,2,0.5,None,None,0.3,7.5,0,-73.97998046875,40.782089233398437,None,None,1,NY CITY CENTRAL PARK NY US,WBAN:94728,1,FM-15,None,None,None,None,None,None,None,None,None,None,None,None,-9999,-9999,None,None,None,-9999,-9999,None,None,None,None,None,None,None,None,None,None,None,None,None,None,None,None,None,None,None,None,None,None,None,None,-73.9669,40.7889,7,None,VRB,25,-3.7,10.00,30.43,30.58,CLR:00,31,3,None,0.00,None,3,-16.1,30,-1.1,30.60,39.6,2016-01-06 09:51,None,None,None,2143,1220,None,None,None,None,None,None,None,None,None,None,None,None,None,None,None,None
1.08,2016-01-06 09:18:40,2016-01-06 09:32:14,10.3,0,0,N,None,2016-01-01 20:00:00,New York,10013,-73.974533081054687,40.757999420166016,2,1,0.5,-74.0050159,40.7208412,0.3,9.5,0,-73.964210510253906,40.760818481445313,New York,0,2,NY CITY CENTRAL PARK NY US,WBAN:94728,1,FM-15,None,None,None,None,None,None,None,None,None,None,None,None,-9999,-9999,None,None,None,-9999,-9999,None,None,None,None,None,None,None,None,None,None,None,None,None,None,None,None,None,None,None,None,None,None,None,None,-73.9669,40.7889,7,None,VRB,25,-3.7,10.00,30.43,30.58,CLR:00,31,3,None,0.00,None,3,-16.1,30,-1.1,30.60,39.6,2016-01-06 09:51,None,None,None,2143,1220,None,None,None,None,None,None,None,None,None,None,None,None,None,None,None,None
.73,2016-01-06 09:18:40,2016-01-06 09:23:17,9.1,0,3.3,N,None,None,None,None,-73.983619689941406,40.765239715576172,1,1,0.5,None,None,0.3,5,0,-73.973365783691406,40.76434326171875,None,None,2,NY CITY CENTRAL PARK NY US,WBAN:94728,1,FM-15,None,None,None,None,None,None,None,None,None,None,None,None,-9999,-9999,None,None,None,-9999,-9999,None,None,None,None,None,None,None,None,None,None,None,None,None,None,None,None,None,None,None,None,None,None,None,None,-73.9669,40.7889,7,None,VRB,25,-3.7,10.00,30.43,30.58,CLR:00,31,3,None,0.00,None,3,-16.1,30,-1.1,30.60,39.6,2016-01-06 09:51,None,None,None,2143,1220,None,None,None,None,None,None,None,None,None,None,None,None,None,None,None,None
.60,2016-01-06 09:18:41,2016-01-06 09:20:51,5.75,0,0.95,N,2016-12-31 00:00:00,2016-01-01 00:00:00,New York,10022,-73.987617492675781,40.7545166015625,1,1,0.5,-73.968,40.759,0.3,4,0,-73.983207702636719,40.749412536621094,New York,2,1,NY CITY CENTRAL PARK NY US,WBAN:94728,1,FM-15,None,None,None,None,None,None,None,None,None,None,None,None,-9999,-9999,None,None,None,-9999,-9999,None,None,None,None,None,None,None,None,None,None,None,None,None,None,None,None,None,None,None,None,None,None,None,None,-73.9669,40.7889,7,None,VRB,25,-3.7,10.00,30.43,30.58,CLR:00,31,3,None,0.00,None,3,-16.1,30,-1.1,30.60,39.6,2016-01-06 09:51,None,None,None,2143,1220,None,None,None,None,None,None,None,None,None,None,None,None,None,None,None,None
1.56,2016-01-06 09:18:41,2016-01-06 09:31:38,12.3,0,1.5,N,None | 2016-12-31 00:00:00,2016-01-01 00:00:00 | 2016-01-01 00:00:00,New York | New York,10019 | 10022,-73.95355224609375,40.766941070556641,1,1,0.5,-73.9803996 | -73.968,40.7656668 | 40.759,0.3,10,0,-73.968597412109375,40.757488250732422,New York | New York,1 | 2,2,NY CITY CENTRAL PARK NY US,WBAN:94728,1,FM-15,None,None,None,None,None,None,None,None,None,None,None,None,-9999,-9999,None,None,None,-9999,-9999,None,None,None,None,None,None,None,None,None,None,None,None,None,None,None,None,None,None,None,None,None,None,None,None,-73.9669,40.7889,7,None,VRB,25,-3.7,10.00,30.43,30.58,CLR:00,31,3,None,0.00,None,3,-16.1,30,-1.1,30.60,39.6,2016-01-06 09:51,None,None,None,2143,1220,None,None,None,None,None,None,None,None,None,None,None,None,None,None,None,None
.98,2016-01-06 09:18:41,2016-01-06 09:27:58,7.8,0,0,N,None,None,None,None,-73.954139709472656,40.770511627197266,2,1,0.5,None,None,0.3,7,0,-73.966781616210938,40.769821166992187,None,None,2,NY CITY CENTRAL PARK NY US,WBAN:94728,1,FM-15,None,None,None,None,None,None,None,None,None,None,None,None,-9999,-9999,None,None,None,-9999,-9999,None,None,None,None,None,None,None,None,None,None,None,None,None,None,None,None,None,None,None,None,None,None,None,None,-73.9669,40.7889,7,None,VRB,25,-3.7,10.00,30.43,30.58,CLR:00,31,3,None,0.00,None,3,-16.1,30,-1.1,30.60,39.6,2016-01-06 09:51,None,None,None,2143,1220,None,None,None,None,None,None,None,None,None,None,None,None,None,None,None,None
2.70,2016-01-06 09:18:41,2016-01-06 09:33:29,15.36,0,2.56,N,2016-12-31 00:00:00,2016-01-01 00:00:00,New York,10022,-74.000518798828125,40.727180480957031,1,4,0.5,-73.968,40.759,0.3,12,0,-73.975883483886719,40.754173278808594,New York,2,2,NY CITY CENTRAL PARK NY US,WBAN:94728,1,FM-15,None,None,None,None,None,None,None,None,None,None,None,None,-9999,-9999,None,None,None,-9999,-9999,None,None,None,None,None,None,None,None,None,None,None,None,None,None,None,None,None,None,None,None,None,None,None,None,-73.9669,40.7889,7,None,VRB,25,-3.7,10.00,30.43,30.58,CLR:00,31,3,None,0.00,None,3,-16.1,30,-1.1,30.60,39.6,2016-01-06 09:51,None,None,None,2143,1220,None,None,None,None,None,None,None,None,None,None,None,None,None,None,None,None
3.80,2016-01-06 09:18:42,2016-01-06 09:45:40,19.8,0,0,N,2022-04-16 02:00:00,2016-01-01 00:00:00,New York,None,-73.979827880859375,40.785671234130859,2,2,0.5,-73.9651814,40.7745779,0.3,19,0,-74.002113342285156,40.742916107177734,New York,1,1,NY CITY CENTRAL PARK NY US,WBAN:94728,1,FM-15,None,None,None,None,None,None,None,None,None,None,None,None,-9999,-9999,None,None,None,-9999,-9999,None,None,None,None,None,None,None,None,None,None,None,None,None,None,None,None,None,None,None,None,None,None,None,None,-73.9669,40.7889,7,None,VRB,25,-3.7,10.00,30.43,30.58,CLR:00,31,3,None,0.00,None,3,-16.1,30,-1.1,30.60,39.6,2016-01-06 09:51,None,None,None,2143,1220,None,None,None,None,None,None,None,None,None,None,None,None,None,None,None,None
2.15,2016-01-06 09:18:42,2016-01-06 09:41:04,18.36,0,3.06,N,None,None,None,None,-73.994010925292969,40.750118255615234,1,2,0.5,None,None,0.3,14.5,0,-73.96942138671875,40.762870788574219,None,None,2,NY CITY CENTRAL PARK NY US,WBAN:94728,1,FM-15,None,None,None,None,None,None,None,None,None,None,None,None,-9999,-9999,None,None,None,-9999,-9999,None,None,None,None,None,None,None,None,None,None,None,None,None,None,None,None,None,None,None,None,None,None,None,None,-73.9669,40.7889,7,None,VRB,25,-3.7,10.00,30.43,30.58,CLR:00,31,3,None,0.00,None,3,-16.1,30,-1.1,30.60,39.6,2016-01-06 09:51,None,None,None,2143,1220,None,None,None,None,None,None,None,None,None,None,None,None,None,None,None,None
2.38,2016-01-06 09:18:42,2016-01-06 09:36:43,17.25,0,3.45,N,None,None,None,None,-74.002555847167969,40.729007720947266,1,1,0.5,None,None,0.3,13,0,-73.978981018066406,40.753105163574219,None,None,2,NY CITY CENTRAL PARK NY US,WBAN:94728,1,FM-15,None,None,None,None,None,None,None,None,None,None,None,None,-9999,-9999,None,None,None,-9999,-9999,None,None,None,None,None,None,None,None,None,None,None,None,None,None,None,None,None,None,None,None,None,None,None,None,-73.9669,40.7889,7,None,VRB,25,-3.7,10.00,30.43,30.58,CLR:00,31,3,None,0.00,None,3,-16.1,30,-1.1,30.60,39.6,2016-01-06 09:51,None,None,None,2143,1220,None,None,None,None,None,None,None,None,None,None,None,None,None,None,None,None
1.54,2016-01-06 09:18:42,2016-01-06 09:31:15,12.88,0,2.58,N,2016-12-31 00:00:00,2016-01-01 00:00:00,New York,10022,-73.998504638671875,40.681678771972656,1,1,0.5,-73.968,40.759,0.3,9.5,0,-73.988739013671875,40.692901611328125,New York,2,2,NY CITY CENTRAL PARK NY US,WBAN:94728,1,FM-15,None,None,None,None,None,None,None,None,None,None,None,None,-9999,-9999,None,None,None,-9999,-9999,None,None,None,None,None,None,None,None,None,None,None,None,None,None,None,None,None,None,None,None,None,None,None,None,-73.9669,40.7889,7,None,VRB,25,-3.7,10.00,30.43,30.58,CLR:00,31,3,None,0.00,None,3,-16.1,30,-1.1,30.60,39.6,2016-01-06 09:51,None,None,None,2143,1220,None,None,None,None,None,None,None,None,None,None,None,None,None,None,None,None
1.05,2016-01-06 09:18:42,2016-01-06 09:26:23,8.76,0,1.46,N,None,None,None,None,-73.994400024414063,40.755970001220703,1,6,0.5,None,None,0.3,6.5,0,-73.981254577636719,40.759101867675781,None,None,2,NY CITY CENTRAL PARK NY US,WBAN:94728,1,FM-15,None,None,None,None,None,None,None,None,None,None,None,None,-9999,-9999,None,None,None,-9999,-9999,None,None,None,None,None,None,None,None,None,None,None,None,None,None,None,None,None,None,None,None,None,None,None,None,-73.9669,40.7889,7,None,VRB,25,-3.7,10.00,30.43,30.58,CLR:00,31,3,None,0.00,None,3,-16.1,30,-1.1,30.60,39.6,2016-01-06 09:51,None,None,None,2143,1220,None,None,None,None,None,None,None,None,None,None,None,None,None,None,None,None
1.27,2016-01-06 09:18:42,2016-01-06 09:33:44,13.56,0,2.26,N,None,None,None,None,-73.976860046386719,40.755649566650391,1,6,0.5,None,None,0.3,10.5,0,-73.985740661621094,40.767841339111328,None,None,2,NY CITY CENTRAL PARK NY US,WBAN:94728,1,FM-15,None,None,None,None,None,None,None,None,None,None,None,None,-9999,-9999,None,None,None,-9999,-9999,None,None,None,None,None,None,None,None,None,None,None,None,None,None,None,None,None,None,None,None,None,None,None,None,-73.9669,40.7889,7,None,VRB,25,-3.7,10.00,30.43,30.58,CLR:00,31,3,None,0.00,None,3,-16.1,30,-1.1,30.60,39.6,2016-01-06 09:51,None,None,None,2143,1220,None,None,None,None,None,None,None,None,None,None,None,None,None,None,None,None
1.14,2016-01-06 09:18:42,2016-01-06 09:33:55,11.3,0,0,N,None | 2016-07-03 00:00:00,2016-01-01 00:00:00 | 2015-10-08 00:00:00,New York | New York,10019 | 10019,-73.981788635253906,40.728397369384766,2,1,0.5,-73.9803996 | -73.9844951,40.7656668 | 40.7632328,0.3,10.5,0,-73.993675231933594,40.722503662109375,New York | New York,1 | 2,2,NY CITY CENTRAL PARK NY US,WBAN:94728,1,FM-15,None,None,None,None,None,None,None,None,None,None,None,None,-9999,-9999,None,None,None,-9999,-9999,None,None,None,None,None,None,None,None,None,None,None,None,None,None,None,None,None,None,None,None,None,None,None,None,-73.9669,40.7889,7,None,VRB,25,-3.7,10.00,30.43,30.58,CLR:00,31,3,None,0.00,None,3,-16.1,30,-1.1,30.60,39.6,2016-01-06 09:51,None,None,None,2143,1220,None,None,None,None,None,None,None,None,None,None,None,None,None,None,None,None
7.70,2016-01-06 09:18:43,2016-01-06 09:37:43,26.8,0,2.5,N,None | 2016-07-03 00:00:00,2016-01-01 00:00:00 | 2015-10-08 00:00:00,New York | New York,10019 | 10019,-73.9443359375,40.780727386474609,1,1,0.5,-73.9803996 | -73.9844951,40.7656668 | 40.7632328,0.3,23.5,0,-74.007133483886719,40.703853607177734,New York | New York,1 | 2,1,NY CITY CENTRAL PARK NY US,WBAN:94728,1,FM-15,None,None,None,None,None,None,None,None,None,None,None,None,-9999,-9999,None,None,None,-9999,-9999,None,None,None,None,None,None,None,None,None,None,None,None,None,None,None,None,None,None,None,None,None,None,None,None,-73.9669,40.7889,7,None,VRB,25,-3.7,10.00,30.43,30.58,CLR:00,31,3,None,0.00,None,3,-16.1,30,-1.1,30.60,39.6,2016-01-06 09:51,None,None,None,2143,1220,None,None,None,None,None,None,None,None,None,None,None,None,None,None,None,None
.80,2016-01-06 09:18:43,2016-01-06 09:22:28,7.25,0,1.45,N,None,None,None,None,-73.993858337402344,40.745693206787109,1,1,0.5,None,None,0.3,5,0,-74.004783630371094,40.7447509765625,None,None,1,NY CITY CENTRAL PARK NY US,WBAN:94728,1,FM-15,None,None,None,None,None,None,None,None,None,None,None,None,-9999,-9999,None,None,None,-9999,-9999,None,None,None,None,None,None,None,None,None,None,None,None,None,None,None,None,None,None,None,None,None,None,None,None,-73.9669,40.7889,7,None,VRB,25,-3.7,10.00,30.43,30.58,CLR:00,31,3,None,0.00,None,3,-16.1,30,-1.1,30.60,39.6,2016-01-06 09:51,None,None,None,2143,1220,None,None,None,None,None,None,None,None,None,None,None,None,None,None,None,None
1.50,2016-01-06 09:18:43,2016-01-06 09:25:53,9.3,0,1,N,None,2016-01-01 02:00:00,New York,10038,-73.957183837890625,40.766124725341797,1,1,0.5,-74.0081571,40.7090990,0.3,7.5,0,-73.9498291015625,40.78460693359375,New York,0,1,NY CITY CENTRAL PARK NY US,WBAN:94728,1,FM-15,None,None,None,None,None,None,None,None,None,None,None,None,-9999,-9999,None,None,None,-9999,-9999,None,None,None,None,None,None,None,None,None,None,None,None,None,None,None,None,None,None,None,None,None,None,None,None,-73.9669,40.7889,7,None,VRB,25,-3.7,10.00,30.43,30.58,CLR:00,31,3,None,0.00,None,3,-16.1,30,-1.1,30.60,39.6,2016-01-06 09:51,None,None,None,2143,1220,None,None,None,None,None,None,None,None,None,None,None,None,None,None,None,None
1.10,2016-01-06 09:18:44,2016-01-06 09:33:05,12.95,0,2.15,N,None,None,None,None,-74.006637573242188,40.736415863037109,1,2,0.5,None,None,0.3,10,0,-73.989677429199219,40.73443603515625,None,None,1,NY CITY CENTRAL PARK NY US,WBAN:94728,1,FM-15,None,None,None,None,None,None,None,None,None,None,None,None,-9999,-9999,None,None,None,-9999,-9999,None,None,None,None,None,None,None,None,None,None,None,None,None,None,None,None,None,None,None,None,None,None,None,None,-73.9669,40.7889,7,None,VRB,25,-3.7,10.00,30.43,30.58,CLR:00,31,3,None,0.00,None,3,-16.1,30,-1.1,30.60,39.6,2016-01-06 09:51,None,None,None,2143,1220,None,None,None,None,None,None,None,None,None,None,None,None,None,None,None,None
.50,2016-01-06 09:18:44,2016-01-06 09:21:06,5.75,0,0.95,N,None,None,None,None,-73.991584777832031,40.749885559082031,1,1,0.5,None,None,0.3,4,0,-73.996780395507813,40.742397308349609,None,None,1,NY CITY CENTRAL PARK NY US,WBAN:94728,1,FM-15,None,None,None,None,None,None,None,None,None,None,None,None,-9999,-9999,None,None,None,-9999,-9999,None,None,None,None,None,None,None,None,None,None,None,None,None,None,None,None,None,None,None,None,None,None,None,None,-73.9669,40.7889,7,None,VRB,25,-3.7,10.00,30.43,30.58,CLR:00,31,3,None,0.00,None,3,-16.1,30,-1.1,30.60,39.6,2016-01-06 09:51,None,None,None,2143,1220,None,None,None,None,None,None,None,None,None,None,None,None,None,None,None,None
2.30,2016-01-06 09:18:44,2016-01-06 09:35:31,15.35,0,2.55,N,None,2016-01-01 09:00:00,New York,10003,-73.948959350585937,40.781532287597656,1,1,0.5,-73.9870210,40.7308580,0.3,12,0,-73.970718383789063,40.751499176025391,New York,0,1,NY CITY CENTRAL PARK NY US,WBAN:94728,1,FM-15,None,None,None,None,None,None,None,None,None,None,None,None,-9999,-9999,None,None,None,-9999,-9999,None,None,None,None,None,None,None,None,None,None,None,None,None,None,None,None,None,None,None,None,None,None,None,None,-73.9669,40.7889,7,None,VRB,25,-3.7,10.00,30.43,30.58,CLR:00,31,3,None,0.00,None,3,-16.1,30,-1.1,30.60,39.6,2016-01-06 09:51,None,None,None,2143,1220,None,None,None,None,None,None,None,None,None,None,None,None,None,None,None,None
3.56,2016-01-06 09:18:44,2016-01-06 09:37:53,15.3,0,0,N,None,None,None,None,-73.9761962890625,40.715450286865234,2,5,0.5,None,None,0.3,14.5,0,-73.9761962890625,40.715450286865234,None,None,2,NY CITY CENTRAL PARK NY US,WBAN:94728,1,FM-15,None,None,None,None,None,None,None,None,None,None,None,None,-9999,-9999,None,None,None,-9999,-9999,None,None,None,None,None,None,None,None,None,None,None,None,None,None,None,None,None,None,None,None,None,None,None,None,-73.9669,40.7889,7,None,VRB,25,-3.7,10.00,30.43,30.58,CLR:00,31,3,None,0.00,None,3,-16.1,30,-1.1,30.60,39.6,2016-01-06 09:51,None,None,None,2143,1220,None,None,None,None,None,None,None,None,None,None,None,None,None,None,None,None
.67,2016-01-06 09:18:45,2016-01-06 09:24:11,7.88,0,1.58,N,None,None,None,None,-73.965858459472656,40.762405395507813,1,1,0.5,None,None,0.3,5.5,0,-73.956878662109375,40.762577056884766,None,None,2,NY CITY CENTRAL PARK NY US,WBAN:94728,1,FM-15,None,None,None,None,None,None,None,None,None,None,None,None,-9999,-9999,None,None,None,-9999,-9999,None,None,None,None,None,None,None,None,None,None,None,None,None,None,None,None,None,None,None,None,None,None,None,None,-73.9669,40.7889,7,None,VRB,25,-3.7,10.00,30.43,30.58,CLR:00,31,3,None,0.00,None,3,-16.1,30,-1.1,30.60,39.6,2016-01-06 09:51,None,None,None,2143,1220,None,None,None,None,None,None,None,None,None,None,None,None,None,None,None,None
1.06,2016-01-06 09:18:45,2016-01-06 09:25:20,8.3,0,1,N,None | None,2016-01-01 03:00:00 | 2016-01-01 11:00:00,New York | New York,10002 | 10002,-73.967147827148438,40.803680419921875,1,1,0.5,-73.9847 | -73.9847,40.7182 | 40.7182,0.3,6.5,0,-73.97637939453125,40.790481567382813,New York | New York,0 | 0,2,NY CITY CENTRAL PARK NY US,WBAN:94728,1,FM-15,None,None,None,None,None,None,None,None,None,None,None,None,-9999,-9999,None,None,None,-9999,-9999,None,None,None,None,None,None,None,None,None,None,None,None,None,None,None,None,None,None,None,None,None,None,None,None,-73.9669,40.7889,7,None,VRB,25,-3.7,10.00,30.43,30.58,CLR:00,31,3,None,0.00,None,3,-16.1,30,-1.1,30.60,39.6,2016-01-06 09:51,None,None,None,2143,1220,None,None,None,None,None,None,None,None,None,None,None,None,None,None,None,None
.68,2016-01-06 09:18:45,2016-01-06 09:22:01,5.3,0,0,N,None,None,None,None,-73.988311767578125,40.753448486328125,2,1,0.5,None,None,0.3,4.5,0,-73.995018005371094,40.744659423828125,None,None,2,NY CITY CENTRAL PARK NY US,WBAN:94728,1,FM-15,None,None,None,None,None,None,None,None,None,None,None,None,-9999,-9999,None,None,None,-9999,-9999,None,None,None,None,None,None,None,None,None,None,None,None,None,None,None,None,None,None,None,None,None,None,None,None,-73.9669,40.7889,7,None,VRB,25,-3.7,10.00,30.43,30.58,CLR:00,31,3,None,0.00,None,3,-16.1,30,-1.1,30.60,39.6,2016-01-06 09:51,None,None,None,2143,1220,None,None,None,None,None,None,None,None,None,None,None,None,None,None,None,None
1.82,2016-01-06 09:18:45,2016-01-06 09:31:04,12.96,0,2.16,N,None,None,None,None,-73.995803833007812,40.73870849609375,1,1,0.5,None,None,0.3,10,0,-73.99835205078125,40.755599975585938,None,None,2,NY CITY CENTRAL PARK NY US,WBAN:94728,1,FM-15,None,None,None,None,None,None,None,None,None,None,None,None,-9999,-9999,None,None,None,-9999,-9999,None,None,None,None,None,None,None,None,None,None,None,None,None,None,None,None,None,None,None,None,None,None,None,None,-73.9669,40.7889,7,None,VRB,25,-3.7,10.00,30.43,30.58,CLR:00,31,3,None,0.00,None,3,-16.1,30,-1.1,30.60,39.6,2016-01-06 09:51,None,None,None,2143,1220,None,None,None,None,None,None,None,None,None,None,None,None,None,None,None,None
.00,2016-01-06 09:18:45,2016-01-06 09:18:47,60.8,0,8,N,None,None,None,None,0,0,1,1,0.5,None,None,0.3,52,0,0,0,None,None,2,NY CITY CENTRAL PARK NY US,WBAN:94728,2,FM-15,None,None,None,None,None,None,None,None,None,None,None,None,-9999,-9999,None,None,None,-9999,-9999,None,None,None,None,None,None,None,None,None,None,None,None,None,None,None,None,None,None,None,None,None,None,None,None,-73.9669,40.7889,7,None,VRB,25,-3.7,10.00,30.43,30.58,CLR:00,31,3,None,0.00,None,3,-16.1,30,-1.1,30.60,39.6,2016-01-06 09:51,None,None,None,2143,1220,None,None,None,None,None,None,None,None,None,None,None,None,None,None,None,None
1.87,2016-01-06 09:18:45,2016-01-06 09:37:37,16.56,0,2.76,N,None,None,None,None,-73.960716247558594,40.775104522705078,1,3,0.5,None,None,0.3,13,0,-73.978240966796875,40.755210876464844,None,None,2,NY CITY CENTRAL PARK NY US,WBAN:94728,1,FM-15,None,None,None,None,None,None,None,None,None,None,None,None,-9999,-9999,None,None,None,-9999,-9999,None,None,None,None,None,None,None,None,None,None,None,None,None,None,None,None,None,None,None,None,None,None,None,None,-73.9669,40.7889,7,None,VRB,25,-3.7,10.00,30.43,30.58,CLR:00,31,3,None,0.00,None,3,-16.1,30,-1.1,30.60,39.6,2016-01-06 09:51,None,None,None,2143,1220,None,None,None,None,None,None,None,None,None,None,None,None,None,None,None,None
4.70,2016-01-06 09:18:46,2016-01-06 09:32:16,19.55,0,3.25,N,None,None,None,None,-73.977188110351562,40.750118255615234,1,1,0.5,None,None,0.3,15.5,0,-74.007644653320312,40.703525543212891,None,None,1,NY CITY CENTRAL PARK NY US,WBAN:94728,1,FM-15,None,None,None,None,None,None,None,None,None,None,None,None,-9999,-9999,None,None,None,-9999,-9999,None,None,None,None,None,None,None,None,None,None,None,None,None,None,None,None,None,None,None,None,None,None,None,None,-73.9669,40.7889,7,None,VRB,25,-3.7,10.00,30.43,30.58,CLR:00,31,3,None,0.00,None,3,-16.1,30,-1.1,30.60,39.6,2016-01-06 09:51,None,None,None,2143,1220,None,None,None,None,None,None,None,None,None,None,None,None,None,None,None,None
.79,2016-01-06 09:18:46,2016-01-06 09:27:10,9.36,0,1.56,N,None,None,None,None,-73.981246948242188,40.779109954833984,1,2,0.5,None,None,0.3,7,0,-73.9715576171875,40.782848358154297,None,None,2,NY CITY CENTRAL PARK NY US,WBAN:94728,1,FM-15,None,None,None,None,None,None,None,None,None,None,None,None,-9999,-9999,None,None,None,-9999,-9999,None,None,None,None,None,None,None,None,None,None,None,None,None,None,None,None,None,None,None,None,None,None,None,None,-73.9669,40.7889,7,None,VRB,25,-3.7,10.00,30.43,30.58,CLR:00,31,3,None,0.00,None,3,-16.1,30,-1.1,30.60,39.6,2016-01-06 09:51,None,None,None,2143,1220,None,None,None,None,None,None,None,None,None,None,None,None,None,None,None,None
.26,2016-01-06 09:18:46,2016-01-06 09:20:47,4.3,0,0,N,None,2016-01-01 02:00:00,New York,10038,-73.978157043457031,40.753303527832031,1,1,0.5,-74.0081571,40.7090990,0.3,3.5,0,-73.98199462890625,40.754936218261719,New York,0,2,NY CITY CENTRAL PARK NY US,WBAN:94728,1,FM-15,None,None,None,None,None,None,None,None,None,None,None,None,-9999,-9999,None,None,None,-9999,-9999,None,None,None,None,None,None,None,None,None,None,None,None,None,None,None,None,None,None,None,None,None,None,None,None,-73.9669,40.7889,7,None,VRB,25,-3.7,10.00,30.43,30.58,CLR:00,31,3,None,0.00,None,3,-16.1,30,-1.1,30.60,39.6,2016-01-06 09:51,None,None,None,2143,1220,None,None,None,None,None,None,None,None,None,None,None,None,None,None,None,None
1.74,2016-01-06 09:18:46,2016-01-06 09:31:00,12.96,0,2.16,N,None,2016-01-01 00:00:00,New York,10028,-74.013374328613281,40.716682434082031,1,1,0.5,-73.9634699,40.7792134,0.3,10,0,-73.995010375976563,40.72564697265625,New York,2,2,NY CITY CENTRAL PARK NY US,WBAN:94728,1,FM-15,None,None,None,None,None,None,None,None,None,None,None,None,-9999,-9999,None,None,None,-9999,-9999,None,None,None,None,None,None,None,None,None,None,None,None,None,None,None,None,None,None,None,None,None,None,None,None,-73.9669,40.7889,7,None,VRB,25,-3.7,10.00,30.43,30.58,CLR:00,31,3,None,0.00,None,3,-16.1,30,-1.1,30.60,39.6,2016-01-06 09:51,None,None,None,2143,1220,None,None,None,None,None,None,None,None,None,None,None,None,None,None,None,None
3.42,2016-01-06 09:18:46,2016-01-06 09:47:11,21.3,0,2,N,None,None,None,None,-73.993995666503906,40.751155853271484,1,1,0.5,None,None,0.3,18.5,0,-73.953994750976563,40.770530700683594,None,None,2,NY CITY CENTRAL PARK NY US,WBAN:94728,1,FM-15,None,None,None,None,None,None,None,None,None,None,None,None,-9999,-9999,None,None,None,-9999,-9999,None,None,None,None,None,None,None,None,None,None,None,None,None,None,None,None,None,None,None,None,None,None,None,None,-73.9669,40.7889,7,None,VRB,25,-3.7,10.00,30.43,30.58,CLR:00,31,3,None,0.00,None,3,-16.1,30,-1.1,30.60,39.6,2016-01-06 09:51,None,None,None,2143,1220,None,None,None,None,None,None,None,None,None,None,None,None,None,None,None,None
1.20,2016-01-06 09:18:47,2016-01-06 09:26:15,7.8,0,0,N,None,None,None,None,-73.991493225097656,40.727180480957031,2,1,0.5,None,None,0.3,7,0,-73.985000610351563,40.741851806640625,None,None,1,NY CITY CENTRAL PARK NY US,WBAN:94728,1,FM-15,None,None,None,None,None,None,None,None,None,None,None,None,-9999,-9999,None,None,None,-9999,-9999,None,None,None,None,None,None,None,None,None,None,None,None,None,None,None,None,None,None,None,None,None,None,None,None,-73.9669,40.7889,7,None,VRB,25,-3.7,10.00,30.43,30.58,CLR:00,31,3,None,0.00,None,3,-16.1,30,-1.1,30.60,39.6,2016-01-06 09:51,None,None,None,2143,1220,None,None,None,None,None,None,None,None,None,None,None,None,None,None,None,None
.40,2016-01-06 09:18:47,2016-01-06 09:26:22,7.48,0,0.68,N,None,None,None,None,-73.981231689453125,40.747089385986328,1,1,0.5,None,None,0.3,6,0,-73.984245300292969,40.742805480957031,None,None,1,NY CITY CENTRAL PARK NY US,WBAN:94728,1,FM-15,None,None,None,None,None,None,None,None,None,None,None,None,-9999,-9999,None,None,None,-9999,-9999,None,None,None,None,None,None,None,None,None,None,None,None,None,None,None,None,None,None,None,None,None,None,None,None,-73.9669,40.7889,7,None,VRB,25,-3.7,10.00,30.43,30.58,CLR:00,31,3,None,0.00,None,3,-16.1,30,-1.1,30.60,39.6,2016-01-06 09:51,None,None,None,2143,1220,None,None,None,None,None,None,None,None,None,None,None,None,None,None,None,None
1.00,2016-01-06 09:18:47,2016-01-06 09:31:56,11.8,0,1.5,N,None,None,None,None,-73.953971862792969,40.772991180419922,1,1,0.5,None,None,0.3,9.5,0,-73.965690612792969,40.765430450439453,None,None,1,NY CITY CENTRAL PARK NY US,WBAN:94728,1,FM-15,None,None,None,None,None,None,None,None,None,None,None,None,-9999,-9999,None,None,None,-9999,-9999,None,None,None,None,None,None,None,None,None,None,None,None,None,None,None,None,None,None,None,None,None,None,None,None,-73.9669,40.7889,7,None,VRB,25,-3.7,10.00,30.43,30.58,CLR:00,31,3,None,0.00,None,3,-16.1,30,-1.1,30.60,39.6,2016-01-06 09:51,None,None,None,2143,1220,None,None,None,None,None,None,None,None,None,None,None,None,None,None,None,None
2.17,2016-01-06 09:18:47,2016-01-06 09:38:15,17.16,0,2.86,N,None,None,None,None,-73.95794677734375,40.760948181152344,1,1,0.5,None,None,0.3,13.5,0,-73.957733154296875,40.784599304199219,None,None,2,NY CITY CENTRAL PARK NY US,WBAN:94728,1,FM-15,None,None,None,None,None,None,None,None,None,None,None,None,-9999,-9999,None,None,None,-9999,-9999,None,None,None,None,None,None,None,None,None,None,None,None,None,None,None,None,None,None,None,None,None,None,None,None,-73.9669,40.7889,7,None,VRB,25,-3.7,10.00,30.43,30.58,CLR:00,31,3,None,0.00,None,3,-16.1,30,-1.1,30.60,39.6,2016-01-06 09:51,None,None,None,2143,1220,None,None,None,None,None,None,None,None,None,None,None,None,None,None,None,None
.30,2016-01-06 09:18:48,2016-01-06 09:20:25,4.3,0,0,N,2016-12-31 00:00:00,2016-01-01 00:00:00,New York,10022,-73.974838256835938,40.787921905517578,2,1,0.5,-73.968,40.759,0.3,3.5,0,-73.970321655273437,40.790763854980469,New York,2,1,NY CITY CENTRAL PARK NY US,WBAN:94728,1,FM-15,None,None,None,None,None,None,None,None,None,None,None,None,-9999,-9999,None,None,None,-9999,-9999,None,None,None,None,None,None,None,None,None,None,None,None,None,None,None,None,None,None,None,None,None,None,None,None,-73.9669,40.7889,7,None,VRB,25,-3.7,10.00,30.43,30.58,CLR:00,31,3,None,0.00,None,3,-16.1,30,-1.1,30.60,39.6,2016-01-06 09:51,None,None,None,2143,1220,None,None,None,None,None,None,None,None,None,None,None,None,None,None,None,None
1.70,2016-01-06 09:18:48,2016-01-06 09:30:58,12.3,0,2,N,None,2016-01-01 00:00:00,New York,10028,-73.989173889160156,40.747989654541016,1,1,0.5,-73.9634699,40.7792134,0.3,9.5,0,-73.96990966796875,40.762306213378906,New York,2,1,NY CITY CENTRAL PARK NY US,WBAN:94728,1,FM-15,None,None,None,None,None,None,None,None,None,None,None,None,-9999,-9999,None,None,None,-9999,-9999,None,None,None,None,None,None,None,None,None,None,None,None,None,None,None,None,None,None,None,None,None,None,None,None,-73.9669,40.7889,7,None,VRB,25,-3.7,10.00,30.43,30.58,CLR:00,31,3,None,0.00,None,3,-16.1,30,-1.1,30.60,39.6,2016-01-06 09:51,None,None,None,2143,1220,None,None,None,None,None,None,None,None,None,None,None,None,None,None,None,None
1.00,2016-01-06 09:18:48,2016-01-06 09:25:10,7.8,0,1,N,None,None,None,None,-73.952987670898437,40.776741027832031,1,1,0.5,None,None,0.3,6,0,-73.9617919921875,40.763637542724609,None,None,1,NY CITY CENTRAL PARK NY US,WBAN:94728,1,FM-15,None,None,None,None,None,None,None,None,None,None,None,None,-9999,-9999,None,None,None,-9999,-9999,None,None,None,None,None,None,None,None,None,None,None,None,None,None,None,None,None,None,None,None,None,None,None,None,-73.9669,40.7889,7,None,VRB,25,-3.7,10.00,30.43,30.58,CLR:00,31,3,None,0.00,None,3,-16.1,30,-1.1,30.60,39.6,2016-01-06 09:51,None,None,None,2143,1220,None,None,None,None,None,None,None,None,None,None,None,None,None,None,None,None
1.10,2016-01-06 09:18:48,2016-01-06 09:32:28,13.5,0,2.7,N,2016-12-31 00:00:00,2016-01-01 00:00:00,New York,10022,-73.994094848632812,40.751190185546875,1,2,0.5,-73.968,40.759,0.3,10,0,-74.004623413085938,40.741909027099609,New York,2,1,NY CITY CENTRAL PARK NY US,WBAN:94728,1,FM-15,None,None,None,None,None,None,None,None,None,None,None,None,-9999,-9999,None,None,None,-9999,-9999,None,None,None,None,None,None,None,None,None,None,None,None,None,None,None,None,None,None,None,None,None,None,None,None,-73.9669,40.7889,7,None,VRB,25,-3.7,10.00,30.43,30.58,CLR:00,31,3,None,0.00,None,3,-16.1,30,-1.1,30.60,39.6,2016-01-06 09:51,None,None,None,2143,1220,None,None,None,None,None,None,None,None,None,None,None,None,None,None,None,None
1.10,2016-01-06 09:18:48,2016-01-06 09:33:01,10.8,0,0.5,N,2016-12-31 00:00:00,2016-01-01 00:00:00,New York,10022,-73.967315673828125,40.757591247558594,1,1,0.5,-73.968,40.759,0.3,9.5,0,-73.980224609375,40.753055572509766,New York,2,1,NY CITY CENTRAL PARK NY US,WBAN:94728,1,FM-15,None,None,None,None,None,None,None,None,None,None,None,None,-9999,-9999,None,None,None,-9999,-9999,None,None,None,None,None,None,None,None,None,None,None,None,None,None,None,None,None,None,None,None,None,None,None,None,-73.9669,40.7889,7,None,VRB,25,-3.7,10.00,30.43,30.58,CLR:00,31,3,None,0.00,None,3,-16.1,30,-1.1,30.60,39.6,2016-01-06 09:51,None,None,None,2143,1220,None,None,None,None,None,None,None,None,None,None,None,None,None,None,None,None
.75,2016-01-06 09:18:48,2016-01-06 09:21:13,4.8,0,0,N,None,None,None,None,-73.971511840820313,40.787269592285156,2,6,0.5,None,None,0.3,4,0,-73.970489501953125,40.793869018554687,None,None,2,NY CITY CENTRAL PARK NY US,WBAN:94728,1,FM-15,None,None,None,None,None,None,None,None,None,None,None,None,-9999,-9999,None,None,None,-9999,-9999,None,None,None,None,None,None,None,None,None,None,None,None,None,None,None,None,None,None,None,None,None,None,None,None,-73.9669,40.7889,7,None,VRB,25,-3.7,10.00,30.43,30.58,CLR:00,31,3,None,0.00,None,3,-16.1,30,-1.1,30.60,39.6,2016-01-06 09:51,None,None,None,2143,1220,None,None,None,None,None,None,None,None,None,None,None,None,None,None,None,None
2.83,2016-01-06 09:18:48,2016-01-06 09:30:20,15.3,0,3,N,None,None,None,None,-73.904159545898437,40.771560668945313,1,1,0.5,None,None,0.3,11.5,0,-73.875068664550781,40.750930786132813,None,None,2,NY CITY CENTRAL PARK NY US,WBAN:94728,1,FM-15,None,None,None,None,None,None,None,None,None,None,None,None,-9999,-9999,None,None,None,-9999,-9999,None,None,None,None,None,None,None,None,None,None,None,None,None,None,None,None,None,None,None,None,None,None,None,None,-73.9669,40.7889,7,None,VRB,25,-3.7,10.00,30.43,30.58,CLR:00,31,3,None,0.00,None,3,-16.1,30,-1.1,30.60,39.6,2016-01-06 09:51,None,None,None,2143,1220,None,None,None,None,None,None,None,None,None,None,None,None,None,None,None,None
2.47,2016-01-06 09:18:48,2016-01-06 09:41:47,18.8,0,2,N,None,None,None,None,-73.980461120605469,40.730060577392578,1,1,0.5,None,None,0.3,16,0,-73.973419189453125,40.754283905029297,None,None,2,NY CITY CENTRAL PARK NY US,WBAN:94728,1,FM-15,None,None,None,None,None,None,None,None,None,None,None,None,-9999,-9999,None,None,None,-9999,-9999,None,None,None,None,None,None,None,None,None,None,None,None,None,None,None,None,None,None,None,None,None,None,None,None,-73.9669,40.7889,7,None,VRB,25,-3.7,10.00,30.43,30.58,CLR:00,31,3,None,0.00,None,3,-16.1,30,-1.1,30.60,39.6,2016-01-06 09:51,None,None,None,2143,1220,None,None,None,None,None,None,None,None,None,None,None,None,None,None,None,None
1.60,2016-01-06 09:18:48,2016-01-06 09:27:31,10.56,0,1.76,N,None,None,None,None,-74.016326904296875,40.714778900146484,1,1,0.5,None,None,0.3,8,0,-74.001121520996094,40.721111297607422,None,None,2,NY CITY CENTRAL PARK NY US,WBAN:94728,1,FM-15,None,None,None,None,None,None,None,None,None,None,None,None,-9999,-9999,None,None,None,-9999,-9999,None,None,None,None,None,None,None,None,None,None,None,None,None,None,None,None,None,None,None,None,None,None,None,None,-73.9669,40.7889,7,None,VRB,25,-3.7,10.00,30.43,30.58,CLR:00,31,3,None,0.00,None,3,-16.1,30,-1.1,30.60,39.6,2016-01-06 09:51,None,None,None,2143,1220,None,None,None,None,None,None,None,None,None,None,None,None,None,None,None,None
1.89,2016-01-06 09:18:48,2016-01-06 09:27:38,10.8,0,1,N,2016-12-31 00:00:00,2016-01-01 00:00:00,New York,10022,-73.986923217773437,40.701061248779297,1,2,0.5,-73.968,40.759,0.3,9,0,-74.002799987792969,40.717830657958984,New York,2,2,NY CITY CENTRAL PARK NY US,WBAN:94728,1,FM-15,None,None,None,None,None,None,None,None,None,None,None,None,-9999,-9999,None,None,None,-9999,-9999,None,None,None,None,None,None,None,None,None,None,None,None,None,None,None,None,None,None,None,None,None,None,None,None,-73.9669,40.7889,7,None,VRB,25,-3.7,10.00,30.43,30.58,CLR:00,31,3,None,0.00,None,3,-16.1,30,-1.1,30.60,39.6,2016-01-06 09:51,None,None,None,2143,1220,None,None,None,None,None,None,None,None,None,None,None,None,None,None,None,None
2.10,2016-01-06 09:18:49,2016-01-06 09:42:25,19,0,2.7,N,None,2016-01-01 20:00:00,New York,10013,-73.9586181640625,40.777938842773438,1,1,0.5,-74.0050159,40.7208412,0.3,15.5,0,-73.974983215332031,40.752761840820312,New York,0,1,NY CITY CENTRAL PARK NY US,WBAN:94728,1,FM-15,None,None,None,None,None,None,None,None,None,None,None,None,-9999,-9999,None,None,None,-9999,-9999,None,None,None,None,None,None,None,None,None,None,None,None,None,None,None,None,None,None,None,None,None,None,None,None,-73.9669,40.7889,7,None,VRB,25,-3.7,10.00,30.43,30.58,CLR:00,31,3,None,0.00,None,3,-16.1,30,-1.1,30.60,39.6,2016-01-06 09:51,None,None,None,2143,1220,None,None,None,None,None,None,None,None,None,None,None,None,None,None,None,None
3.20,2016-01-06 09:18:49,2016-01-06 09:46:10,20,0,1.2,N,None | None | None,2016-01-01 00:00:00 | 2016-01-01 00:00:00 | 2016-01-01 20:00:00,New York | New York | New York,None | None | 10013,-73.981613159179688,40.746574401855469,1,1,0.5,-74.0064 | -74.0064 | -74.0050159,40.7142 | 40.7142 | 40.7208412,0.3,18,0,-73.953865051269531,40.779579162597656,New York | New York | New York,1 | 1 | 0,1,NY CITY CENTRAL PARK NY US,WBAN:94728,1,FM-15,None,None,None,None,None,None,None,None,None,None,None,None,-9999,-9999,None,None,None,-9999,-9999,None,None,None,None,None,None,None,None,None,None,None,None,None,None,None,None,None,None,None,None,None,None,None,None,-73.9669,40.7889,7,None,VRB,25,-3.7,10.00,30.43,30.58,CLR:00,31,3,None,0.00,None,3,-16.1,30,-1.1,30.60,39.6,2016-01-06 09:51,None,None,None,2143,1220,None,None,None,None,None,None,None,None,None,None,None,None,None,None,None,None
.50,2016-01-06 09:18:49,2016-01-06 09:22:03,5.3,0,0,N,None,None,None,None,-73.984710693359375,40.754104614257813,2,2,0.5,None,None,0.3,4.5,0,-73.979393005371094,40.761604309082031,None,None,1,NY CITY CENTRAL PARK NY US,WBAN:94728,1,FM-15,None,None,None,None,None,None,None,None,None,None,None,None,-9999,-9999,None,None,None,-9999,-9999,None,None,None,None,None,None,None,None,None,None,None,None,None,None,None,None,None,None,None,None,None,None,None,None,-73.9669,40.7889,7,None,VRB,25,-3.7,10.00,30.43,30.58,CLR:00,31,3,None,0.00,None,3,-16.1,30,-1.1,30.60,39.6,2016-01-06 09:51,None,None,None,2143,1220,None,None,None,None,None,None,None,None,None,None,None,None,None,None,None,None
2.70,2016-01-06 09:18:50,2016-01-06 09:41:00,15.8,0,0,N,None,None,None,None,-73.98828125,40.749252319335938,2,1,0.5,None,None,0.3,15,0,-73.989463806152344,40.773048400878906,None,None,1,NY CITY CENTRAL PARK NY US,WBAN:94728,1,FM-15,None,None,None,None,None,None,None,None,None,None,None,None,-9999,-9999,None,None,None,-9999,-9999,None,None,None,None,None,None,None,None,None,None,None,None,None,None,None,None,None,None,None,None,None,None,None,None,-73.9669,40.7889,7,None,VRB,25,-3.7,10.00,30.43,30.58,CLR:00,31,3,None,0.00,None,3,-16.1,30,-1.1,30.60,39.6,2016-01-06 09:51,None,None,None,2143,1220,None,None,None,None,None,None,None,None,None,None,None,None,None,None,None,None
1.60,2016-01-06 09:18:50,2016-01-06 09:27:47,9.8,0,0,N,None | 2016-07-03 00:00:00,2016-01-01 00:00:00 | 2015-10-08 00:00:00,New York | New York,10019 | 10019,-73.980873107910156,40.781730651855469,3,1,0.5,-73.9803996 | -73.9844951,40.7656668 | 40.7632328,0.3,9,0,-73.967849731445312,40.801921844482422,New York | New York,1 | 2,1,NY CITY CENTRAL PARK NY US,WBAN:94728,1,FM-15,None,None,None,None,None,None,None,None,None,None,None,None,-9999,-9999,None,None,None,-9999,-9999,None,None,None,None,None,None,None,None,None,None,None,None,None,None,None,None,None,None,None,None,None,None,None,None,-73.9669,40.7889,7,None,VRB,25,-3.7,10.00,30.43,30.58,CLR:00,31,3,None,0.00,None,3,-16.1,30,-1.1,30.60,39.6,2016-01-06 09:51,None,None,None,2143,1220,None,None,None,None,None,None,None,None,None,None,None,None,None,None,None,None
.90,2016-01-06 09:18:50,2016-01-06 09:27:01,9,0,1.2,N,None,None,None,None,-73.976615905761719,40.750751495361328,1,1,0.5,None,None,0.3,7,0,-73.974899291992187,40.741756439208984,None,None,1,NY CITY CENTRAL PARK NY US,WBAN:94728,1,FM-15,None,None,None,None,None,None,None,None,None,None,None,None,-9999,-9999,None,None,None,-9999,-9999,None,None,None,None,None,None,None,None,None,None,None,None,None,None,None,None,None,None,None,None,None,None,None,None,-73.9669,40.7889,7,None,VRB,25,-3.7,10.00,30.43,30.58,CLR:00,31,3,None,0.00,None,3,-16.1,30,-1.1,30.60,39.6,2016-01-06 09:51,None,None,None,2143,1220,None,None,None,None,None,None,None,None,None,None,None,None,None,None,None,None
2.20,2016-01-06 09:18:50,2016-01-06 09:30:13,12.3,0,1,N,None,None,None,None,-73.998481750488281,40.725879669189453,1,1,0.5,None,None,0.3,10.5,0,-74.0078125,40.751537322998047,None,None,1,NY CITY CENTRAL PARK NY US,WBAN:94728,1,FM-15,None,None,None,None,None,None,None,None,None,None,None,None,-9999,-9999,None,None,None,-9999,-9999,None,None,None,None,None,None,None,None,None,None,None,None,None,None,None,None,None,None,None,None,None,None,None,None,-73.9669,40.7889,7,None,VRB,25,-3.7,10.00,30.43,30.58,CLR:00,31,3,None,0.00,None,3,-16.1,30,-1.1,30.60,39.6,2016-01-06 09:51,None,None,None,2143,1220,None,None,None,None,None,None,None,None,None,None,None,None,None,None,None,None
.85,2016-01-06 09:18:50,2016-01-06 09:27:17,7.8,0,0,N,None,None,None,None,-73.983428955078125,40.765159606933594,2,2,0.5,None,None,0.3,7,0,-73.974128723144531,40.762420654296875,None,None,2,NY CITY CENTRAL PARK NY US,WBAN:94728,1,FM-15,None,None,None,None,None,None,None,None,None,None,None,None,-9999,-9999,None,None,None,-9999,-9999,None,None,None,None,None,None,None,None,None,None,None,None,None,None,None,None,None,None,None,None,None,None,None,None,-73.9669,40.7889,7,None,VRB,25,-3.7,10.00,30.43,30.58,CLR:00,31,3,None,0.00,None,3,-16.1,30,-1.1,30.60,39.6,2016-01-06 09:51,None,None,None,2143,1220,None,None,None,None,None,None,None,None,None,None,None,None,None,None,None,None
1.27,2016-01-06 09:18:50,2016-01-06 09:27:13,8.3,0,0,N,None,None,None,None,-73.964302062988281,40.79718017578125,1,2,0.5,None,None,0.3,7.5,0,-73.953514099121094,40.788307189941406,None,None,2,NY CITY CENTRAL PARK NY US,WBAN:94728,1,FM-15,None,None,None,None,None,None,None,None,None,None,None,None,-9999,-9999,None,None,None,-9999,-9999,None,None,None,None,None,None,None,None,None,None,None,None,None,None,None,None,None,None,None,None,None,None,None,None,-73.9669,40.7889,7,None,VRB,25,-3.7,10.00,30.43,30.58,CLR:00,31,3,None,0.00,None,3,-16.1,30,-1.1,30.60,39.6,2016-01-06 09:51,None,None,None,2143,1220,None,None,None,None,None,None,None,None,None,None,None,None,None,None,None,None
2.36,2016-01-06 09:18:50,2016-01-06 09:38:24,16.44,0,2.14,N,None | 2016-12-31 00:00:00,2016-01-01 00:00:00 | 2016-01-01 00:00:00,New York | New York,10019 | 10022,-73.974288940429688,40.791240692138672,1,1,0.5,-73.9803996 | -73.968,40.7656668 | 40.759,0.3,13.5,0,-73.975753784179688,40.763763427734375,New York | New York,1 | 2,2,NY CITY CENTRAL PARK NY US,WBAN:94728,1,FM-15,None,None,None,None,None,None,None,None,None,None,None,None,-9999,-9999,None,None,None,-9999,-9999,None,None,None,None,None,None,None,None,None,None,None,None,None,None,None,None,None,None,None,None,None,None,None,None,-73.9669,40.7889,7,None,VRB,25,-3.7,10.00,30.43,30.58,CLR:00,31,3,None,0.00,None,3,-16.1,30,-1.1,30.60,39.6,2016-01-06 09:51,None,None,None,2143,1220,None,None,None,None,None,None,None,None,None,None,None,None,None,None,None,None
3.01,2016-01-06 09:18:50,2016-01-06 09:43:10,17.8,0,0,N,None,2016-01-01 12:00:00,New York,10029,-73.972442626953125,40.795982360839844,2,1,0.5,-73.9519050,40.7924950,0.3,17,0,-73.953147888183594,40.769161224365234,New York,0,2,NY CITY CENTRAL PARK NY US,WBAN:94728,1,FM-15,None,None,None,None,None,None,None,None,None,None,None,None,-9999,-9999,None,None,None,-9999,-9999,None,None,None,None,None,None,None,None,None,None,None,None,None,None,None,None,None,None,None,None,None,None,None,None,-73.9669,40.7889,7,None,VRB,25,-3.7,10.00,30.43,30.58,CLR:00,31,3,None,0.00,None,3,-16.1,30,-1.1,30.60,39.6,2016-01-06 09:51,None,None,None,2143,1220,None,None,None,None,None,None,None,None,None,None,None,None,None,None,None,None
1.40,2016-01-06 09:18:51,2016-01-06 09:30:37,11.8,0,2,N,None | 2016-07-03 00:00:00,2016-01-01 00:00:00 | 2015-10-08 00:00:00,New York | New York,10019 | 10019,-73.981521606445313,40.721073150634766,1,1,0.5,-73.9803996 | -73.9844951,40.7656668 | 40.7632328,0.3,9,0,-74.003227233886719,40.726963043212891,New York | New York,1 | 2,1,NY CITY CENTRAL PARK NY US,WBAN:94728,1,FM-15,None,None,None,None,None,None,None,None,None,None,None,None,-9999,-9999,None,None,None,-9999,-9999,None,None,None,None,None,None,None,None,None,None,None,None,None,None,None,None,None,None,None,None,None,None,None,None,-73.9669,40.7889,7,None,VRB,25,-3.7,10.00,30.43,30.58,CLR:00,31,3,None,0.00,None,3,-16.1,30,-1.1,30.60,39.6,2016-01-06 09:51,None,None,None,2143,1220,None,None,None,None,None,None,None,None,None,None,None,None,None,None,None,None
.90,2016-01-06 09:18:51,2016-01-06 09:27:26,10.8,0,3,N,None,None,None,None,-73.972023010253906,40.762638092041016,1,1,0.5,None,None,0.3,7,0,-73.970649719238281,40.754238128662109,None,None,1,NY CITY CENTRAL PARK NY US,WBAN:94728,1,FM-15,None,None,None,None,None,None,None,None,None,None,None,None,-9999,-9999,None,None,None,-9999,-9999,None,None,None,None,None,None,None,None,None,None,None,None,None,None,None,None,None,None,None,None,None,None,None,None,-73.9669,40.7889,7,None,VRB,25,-3.7,10.00,30.43,30.58,CLR:00,31,3,None,0.00,None,3,-16.1,30,-1.1,30.60,39.6,2016-01-06 09:51,None,None,None,2143,1220,None,None,None,None,None,None,None,None,None,None,None,None,None,None,None,None
.32,2016-01-06 09:18:51,2016-01-06 09:21:30,4.3,0,0,N,None,2016-01-01 20:00:00,New York,10013,-73.965286254882813,40.771648406982422,2,1,0.5,-74.0050159,40.7208412,0.3,3.5,0,-73.963470458984375,40.768669128417969,New York,0,2,NY CITY CENTRAL PARK NY US,WBAN:94728,1,FM-15,None,None,None,None,None,None,None,None,None,None,None,None,-9999,-9999,None,None,None,-9999,-9999,None,None,None,None,None,None,None,None,None,None,None,None,None,None,None,None,None,None,None,None,None,None,None,None,-73.9669,40.7889,7,None,VRB,25,-3.7,10.00,30.43,30.58,CLR:00,31,3,None,0.00,None,3,-16.1,30,-1.1,30.60,39.6,2016-01-06 09:51,None,None,None,2143,1220,None,None,None,None,None,None,None,None,None,None,None,None,None,None,None,None
1.85,2016-01-06 09:18:51,2016-01-06 09:37:13,13.3,0,0,N,2016-12-31 00:00:00,2016-01-01 00:00:00,New York,10022,-73.988349914550781,40.769058227539062,2,1,0.5,-73.968,40.759,0.3,12.5,0,-73.993202209472656,40.747959136962891,New York,2,2,NY CITY CENTRAL PARK NY US,WBAN:94728,1,FM-15,None,None,None,None,None,None,None,None,None,None,None,None,-9999,-9999,None,None,None,-9999,-9999,None,None,None,None,None,None,None,None,None,None,None,None,None,None,None,None,None,None,None,None,None,None,None,None,-73.9669,40.7889,7,None,VRB,25,-3.7,10.00,30.43,30.58,CLR:00,31,3,None,0.00,None,3,-16.1,30,-1.1,30.60,39.6,2016-01-06 09:51,None,None,None,2143,1220,None,None,None,None,None,None,None,None,None,None,None,None,None,None,None,None
.90,2016-01-06 09:18:52,2016-01-06 09:25:36,8.76,0,1.46,N,2022-04-16 02:00:00,2016-01-01 00:00:00,New York,None,-73.989608764648437,40.748710632324219,1,1,0.5,-73.9651814,40.7745779,0.3,6.5,0,-73.976844787597656,40.748569488525391,New York,1,1,NY CITY CENTRAL PARK NY US,WBAN:94728,1,FM-15,None,None,None,None,None,None,None,None,None,None,None,None,-9999,-9999,None,None,None,-9999,-9999,None,None,None,None,None,None,None,None,None,None,None,None,None,None,None,None,None,None,None,None,None,None,None,None,-73.9669,40.7889,7,None,VRB,25,-3.7,10.00,30.43,30.58,CLR:00,31,3,None,0.00,None,3,-16.1,30,-1.1,30.60,39.6,2016-01-06 09:51,None,None,None,2143,1220,None,None,None,None,None,None,None,None,None,None,None,None,None,None,None,None
.80,2016-01-06 09:18:52,2016-01-06 09:23:13,5.8,0,0,N,None,None,None,None,-73.961441040039063,40.777828216552734,2,1,0.5,None,None,0.3,5,0,-73.972427368164062,40.781227111816406,None,None,1,NY CITY CENTRAL PARK NY US,WBAN:94728,1,FM-15,None,None,None,None,None,None,None,None,None,None,None,None,-9999,-9999,None,None,None,-9999,-9999,None,None,None,None,None,None,None,None,None,None,None,None,None,None,None,None,None,None,None,None,None,None,None,None,-73.9669,40.7889,7,None,VRB,25,-3.7,10.00,30.43,30.58,CLR:00,31,3,None,0.00,None,3,-16.1,30,-1.1,30.60,39.6,2016-01-06 09:51,None,None,None,2143,1220,None,None,None,None,None,None,None,None,None,None,None,None,None,None,None,None
1.50,2016-01-06 09:18:52,2016-01-06 09:30:26,11.3,0,1,N,None,None,None,None,-73.99029541015625,40.771915435791016,1,1,0.5,None,None,0.3,9.5,0,-73.988655090332031,40.756664276123047,None,None,1,NY CITY CENTRAL PARK NY US,WBAN:94728,1,FM-15,None,None,None,None,None,None,None,None,None,None,None,None,-9999,-9999,None,None,None,-9999,-9999,None,None,None,None,None,None,None,None,None,None,None,None,None,None,None,None,None,None,None,None,None,None,None,None,-73.9669,40.7889,7,None,VRB,25,-3.7,10.00,30.43,30.58,CLR:00,31,3,None,0.00,None,3,-16.1,30,-1.1,30.60,39.6,2016-01-06 09:51,None,None,None,2143,1220,None,None,None,None,None,None,None,None,None,None,None,None,None,None,None,None
.71,2016-01-06 09:18:52,2016-01-06 09:24:07,6.3,0,0,N,None,2016-01-01 00:00:00,New York,10028,-73.976966857910156,40.7646484375,2,2,0.5,-73.9634699,40.7792134,0.3,5.5,0,-73.981910705566406,40.772529602050781,New York,2,2,NY CITY CENTRAL PARK NY US,WBAN:94728,1,FM-15,None,None,None,None,None,None,None,None,None,None,None,None,-9999,-9999,None,None,None,-9999,-9999,None,None,None,None,None,None,None,None,None,None,None,None,None,None,None,None,None,None,None,None,None,None,None,None,-73.9669,40.7889,7,None,VRB,25,-3.7,10.00,30.43,30.58,CLR:00,31,3,None,0.00,None,3,-16.1,30,-1.1,30.60,39.6,2016-01-06 09:51,None,None,None,2143,1220,None,None,None,None,None,None,None,None,None,None,None,None,None,None,None,None
1.55,2016-01-06 09:18:52,2016-01-06 09:35:29,14.16,0,2.36,N,None,None,None,None,0,0,1,1,0.5,None,None,0.3,11,0,0,0,None,None,2,NY CITY CENTRAL PARK NY US,WBAN:94728,1,FM-15,None,None,None,None,None,None,None,None,None,None,None,None,-9999,-9999,None,None,None,-9999,-9999,None,None,None,None,None,None,None,None,None,None,None,None,None,None,None,None,None,None,None,None,None,None,None,None,-73.9669,40.7889,7,None,VRB,25,-3.7,10.00,30.43,30.58,CLR:00,31,3,None,0.00,None,3,-16.1,30,-1.1,30.60,39.6,2016-01-06 09:51,None,None,None,2143,1220,None,None,None,None,None,None,None,None,None,None,None,None,None,None,None,None
1.80,2016-01-06 09:18:53,2016-01-06 09:30:08,12.1,0,1.8,N,None,2016-01-01 00:00:00,New York,10019,-73.97509765625,40.78753662109375,1,1,0.5,-73.9803996,40.7656668,0.3,9.5,0,-73.948677062988281,40.786361694335938,New York,1,1,NY CITY CENTRAL PARK NY US,WBAN:94728,1,FM-15,None,None,None,None,None,None,None,None,None,None,None,None,-9999,-9999,None,None,None,-9999,-9999,None,None,None,None,None,None,None,None,None,None,None,None,None,None,None,None,None,None,None,None,None,None,None,None,-73.9669,40.7889,7,None,VRB,25,-3.7,10.00,30.43,30.58,CLR:00,31,3,None,0.00,None,3,-16.1,30,-1.1,30.60,39.6,2016-01-06 09:51,None,None,None,2143,1220,None,None,None,None,None,None,None,None,None,None,None,None,None,None,None,None
1.30,2016-01-06 09:18:53,2016-01-06 09:29:17,11.6,0,2.3,N,None,None,None,None,-73.991340637207031,40.74981689453125,1,1,0.5,None,None,0.3,8.5,0,-73.978652954101563,40.758892059326172,None,None,1,NY CITY CENTRAL PARK NY US,WBAN:94728,1,FM-15,None,None,None,None,None,None,None,None,None,None,None,None,-9999,-9999,None,None,None,-9999,-9999,None,None,None,None,None,None,None,None,None,None,None,None,None,None,None,None,None,None,None,None,None,None,None,None,-73.9669,40.7889,7,None,VRB,25,-3.7,10.00,30.43,30.58,CLR:00,31,3,None,0.00,None,3,-16.1,30,-1.1,30.60,39.6,2016-01-06 09:51,None,None,None,2143,1220,None,None,None,None,None,None,None,None,None,None,None,None,None,None,None,None
3.80,2016-01-06 09:18:53,2016-01-06 09:39:56,20.3,0,2,N,None,2016-01-01 12:00:00,New York,10029,-73.987060546875,40.722305297851563,1,1,0.5,-73.9519050,40.7924950,0.3,17.5,0,-73.968971252441406,40.759075164794922,New York,0,1,NY CITY CENTRAL PARK NY US,WBAN:94728,1,FM-15,None,None,None,None,None,None,None,None,None,None,None,None,-9999,-9999,None,None,None,-9999,-9999,None,None,None,None,None,None,None,None,None,None,None,None,None,None,None,None,None,None,None,None,None,None,None,None,-73.9669,40.7889,7,None,VRB,25,-3.7,10.00,30.43,30.58,CLR:00,31,3,None,0.00,None,3,-16.1,30,-1.1,30.60,39.6,2016-01-06 09:51,None,None,None,2143,1220,None,None,None,None,None,None,None,None,None,None,None,None,None,None,None,None
.97,2016-01-06 09:18:53,2016-01-06 09:24:05,8.19,0,1.89,N,None | 2016-07-03 00:00:00,2016-01-01 00:00:00 | 2015-10-08 00:00:00,New York | New York,10019 | 10019,-73.994422912597656,40.756656646728516,1,2,0.5,-73.9803996 | -73.9844951,40.7656668 | 40.7632328,0.3,5.5,0,-74.005691528320313,40.750835418701172,New York | New York,1 | 2,2,NY CITY CENTRAL PARK NY US,WBAN:94728,1,FM-15,None,None,None,None,None,None,None,None,None,None,None,None,-9999,-9999,None,None,None,-9999,-9999,None,None,None,None,None,None,None,None,None,None,None,None,None,None,None,None,None,None,None,None,None,None,None,None,-73.9669,40.7889,7,None,VRB,25,-3.7,10.00,30.43,30.58,CLR:00,31,3,None,0.00,None,3,-16.1,30,-1.1,30.60,39.6,2016-01-06 09:51,None,None,None,2143,1220,None,None,None,None,None,None,None,None,None,None,None,None,None,None,None,None
4.35,2016-01-06 09:18:53,2016-01-06 09:46:09,22.8,0,1,N,2016-12-31 00:00:00,2016-01-01 00:00:00,New York,10022,-73.961456298828125,40.760246276855469,1,1,0.5,-73.968,40.759,0.3,21,0,-73.998786926269531,40.738151550292969,New York,2,2,NY CITY CENTRAL PARK NY US,WBAN:94728,1,FM-15,None,None,None,None,None,None,None,None,None,None,None,None,-9999,-9999,None,None,None,-9999,-9999,None,None,None,None,None,None,None,None,None,None,None,None,None,None,None,None,None,None,None,None,None,None,None,None,-73.9669,40.7889,7,None,VRB,25,-3.7,10.00,30.43,30.58,CLR:00,31,3,None,0.00,None,3,-16.1,30,-1.1,30.60,39.6,2016-01-06 09:51,None,None,None,2143,1220,None,None,None,None,None,None,None,None,None,None,None,None,None,None,None,None
2.71,2016-01-06 09:18:53,2016-01-06 09:34:14,15.96,0,2.66,N,None,None,None,None,-73.960952758789063,40.781089782714844,1,1,0.5,None,None,0.3,12.5,0,-73.960952758789063,40.781089782714844,None,None,2,NY CITY CENTRAL PARK NY US,WBAN:94728,1,FM-15,None,None,None,None,None,None,None,None,None,None,None,None,-9999,-9999,None,None,None,-9999,-9999,None,None,None,None,None,None,None,None,None,None,None,None,None,None,None,None,None,None,None,None,None,None,None,None,-73.9669,40.7889,7,None,VRB,25,-3.7,10.00,30.43,30.58,CLR:00,31,3,None,0.00,None,3,-16.1,30,-1.1,30.60,39.6,2016-01-06 09:51,None,None,None,2143,1220,None,None,None,None,None,None,None,None,None,None,None,None,None,None,None,None
4.90,2016-01-06 09:18:53,2016-01-06 09:47:19,26.16,0,4.36,N,None,None,None,None,-73.98223876953125,40.7647705078125,1,1,0.5,None,None,0.3,21,0,-74.014122009277344,40.712669372558594,None,None,2,NY CITY CENTRAL PARK NY US,WBAN:94728,1,FM-15,None,None,None,None,None,None,None,None,None,None,None,None,-9999,-9999,None,None,None,-9999,-9999,None,None,None,None,None,None,None,None,None,None,None,None,None,None,None,None,None,None,None,None,None,None,None,None,-73.9669,40.7889,7,None,VRB,25,-3.7,10.00,30.43,30.58,CLR:00,31,3,None,0.00,None,3,-16.1,30,-1.1,30.60,39.6,2016-01-06 09:51,None,None,None,2143,1220,None,None,None,None,None,None,None,None,None,None,None,None,None,None,None,None
3.23,2016-01-06 09:18:53,2016-01-06 09:49:58,17.3,0,0,N,None,2016-01-01 00:00:00,New York,10028,-73.983383178710938,40.738998413085938,2,1,0.5,-73.9634699,40.7792134,0.3,16.5,0,-73.998420715332031,40.757671356201172,New York,2,2,NY CITY CENTRAL PARK NY US,WBAN:94728,1,FM-15,None,None,None,None,None,None,None,None,None,None,None,None,-9999,-9999,None,None,None,-9999,-9999,None,None,None,None,None,None,None,None,None,None,None,None,None,None,None,None,None,None,None,None,None,None,None,None,-73.9669,40.7889,7,None,VRB,25,-3.7,10.00,30.43,30.58,CLR:00,31,3,None,0.00,None,3,-16.1,30,-1.1,30.60,39.6,2016-01-06 09:51,None,None,None,2143,1220,None,None,None,None,None,None,None,None,None,None,None,None,None,None,None,None
1.00,2016-01-06 09:18:54,2016-01-06 09:29:45,12.05,0,2.75,N,None | None | None,2016-01-01 00:00:00 | 2016-01-01 00:00:00 | 2016-01-01 02:00:00,New York | New York | New York,None | None | 10038,-73.996879577636719,40.737560272216797,1,1,0.5,-74.0064 | -74.0064 | -74.0081571,40.7142 | 40.7142 | 40.7090990,0.3,8.5,0,-73.982742309570313,40.736156463623047,New York | New York | New York,1 | 1 | 0,1,NY CITY CENTRAL PARK NY US,WBAN:94728,1,FM-15,None,None,None,None,None,None,None,None,None,None,None,None,-9999,-9999,None,None,None,-9999,-9999,None,None,None,None,None,None,None,None,None,None,None,None,None,None,None,None,None,None,None,None,None,None,None,None,-73.9669,40.7889,7,None,VRB,25,-3.7,10.00,30.43,30.58,CLR:00,31,3,None,0.00,None,3,-16.1,30,-1.1,30.60,39.6,2016-01-06 09:51,None,None,None,2143,1220,None,None,None,None,None,None,None,None,None,None,None,None,None,None,None,None
7.80,2016-01-06 09:18:54,2016-01-06 09:41:32,32.15,0,5.35,N,None,None,None,None,-73.981590270996094,40.73248291015625,1,1,0.5,None,None,0.3,26,0,-73.949752807617188,40.812110900878906,None,None,1,NY CITY CENTRAL PARK NY US,WBAN:94728,1,FM-15,None,None,None,None,None,None,None,None,None,None,None,None,-9999,-9999,None,None,None,-9999,-9999,None,None,None,None,None,None,None,None,None,None,None,None,None,None,None,None,None,None,None,None,None,None,None,None,-73.9669,40.7889,7,None,VRB,25,-3.7,10.00,30.43,30.58,CLR:00,31,3,None,0.00,None,3,-16.1,30,-1.1,30.60,39.6,2016-01-06 09:51,None,None,None,2143,1220,None,None,None,None,None,None,None,None,None,None,None,None,None,None,None,None
1.92,2016-01-06 09:18:54,2016-01-06 09:28:31,8.8,0,0,N,None,2016-01-01 09:00:00,New York,10003,-73.978019714355469,40.763908386230469,2,1,0.5,-73.9870210,40.7308580,0.3,8,0,-73.966743469238281,40.770591735839844,New York,0,2,NY CITY CENTRAL PARK NY US,WBAN:94728,1,FM-15,None,None,None,None,None,None,None,None,None,None,None,None,-9999,-9999,None,None,None,-9999,-9999,None,None,None,None,None,None,None,None,None,None,None,None,None,None,None,None,None,None,None,None,None,None,None,None,-73.9669,40.7889,7,None,VRB,25,-3.7,10.00,30.43,30.58,CLR:00,31,3,None,0.00,None,3,-16.1,30,-1.1,30.60,39.6,2016-01-06 09:51,None,None,None,2143,1220,None,None,None,None,None,None,None,None,None,None,None,None,None,None,None,None
12.93,2016-01-06 09:18:54,2016-01-06 10:08:47,62.81,5.54,10.47,N,None,None,None,None,-74.000770568847656,40.762310028076172,1,2,0.5,None,None,0.3,46,0,-73.865028381347656,40.770580291748047,None,None,2,NY CITY CENTRAL PARK NY US,WBAN:94728,1,FM-15,None,None,None,None,None,None,None,None,None,None,None,None,-9999,-9999,None,None,None,-9999,-9999,None,None,None,None,None,None,None,None,None,None,None,None,None,None,None,None,None,None,None,None,None,None,None,None,-73.9669,40.7889,7,None,VRB,25,-3.7,10.00,30.43,30.58,CLR:00,31,3,None,0.00,None,3,-16.1,30,-1.1,30.60,39.6,2016-01-06 09:51,None,None,None,2143,1220,None,None,None,None,None,None,None,None,None,None,None,None,None,None,None,None
.60,2016-01-06 09:18:55,2016-01-06 09:29:30,9.3,0,1,N,2022-04-16 02:00:00,2016-01-01 00:00:00,New York,None,-73.996627807617188,40.715206146240234,1,1,0.5,-73.9651814,40.7745779,0.3,7.5,0,-73.992767333984375,40.723545074462891,New York,1,1,NY CITY CENTRAL PARK NY US,WBAN:94728,1,FM-15,None,None,None,None,None,None,None,None,None,None,None,None,-9999,-9999,None,None,None,-9999,-9999,None,None,None,None,None,None,None,None,None,None,None,None,None,None,None,None,None,None,None,None,None,None,None,None,-73.9669,40.7889,7,None,VRB,25,-3.7,10.00,30.43,30.58,CLR:00,31,3,None,0.00,None,3,-16.1,30,-1.1,30.60,39.6,2016-01-06 09:51,None,None,None,2143,1220,None,None,None,None,None,None,None,None,None,None,None,None,None,None,None,None
.68,2016-01-06 09:18:55,2016-01-06 09:26:00,8.16,0,1.36,N,None,None,None,None,-73.989852905273438,40.756721496582031,1,5,0.5,None,None,0.3,6,0,-73.982696533203125,40.760932922363281,None,None,2,NY CITY CENTRAL PARK NY US,WBAN:94728,1,FM-15,None,None,None,None,None,None,None,None,None,None,None,None,-9999,-9999,None,None,None,-9999,-9999,None,None,None,None,None,None,None,None,None,None,None,None,None,None,None,None,None,None,None,None,None,None,None,None,-73.9669,40.7889,7,None,VRB,25,-3.7,10.00,30.43,30.58,CLR:00,31,3,None,0.00,None,3,-16.1,30,-1.1,30.60,39.6,2016-01-06 09:51,None,None,None,2143,1220,None,None,None,None,None,None,None,None,None,None,None,None,None,None,None,None
1.40,2016-01-06 09:18:56,2016-01-06 09:32:38,12.35,0,2.05,N,None,None,None,None,-73.994964599609375,40.733192443847656,1,1,0.5,None,None,0.3,9.5,0,-73.976837158203125,40.739227294921875,None,None,1,NY CITY CENTRAL PARK NY US,WBAN:94728,1,FM-15,None,None,None,None,None,None,None,None,None,None,None,None,-9999,-9999,None,None,None,-9999,-9999,None,None,None,None,None,None,None,None,None,None,None,None,None,None,None,None,None,None,None,None,None,None,None,None,-73.9669,40.7889,7,None,VRB,25,-3.7,10.00,30.43,30.58,CLR:00,31,3,None,0.00,None,3,-16.1,30,-1.1,30.60,39.6,2016-01-06 09:51,None,None,None,2143,1220,None,None,None,None,None,None,None,None,None,None,None,None,None,None,None,None
1.90,2016-01-06 09:18:56,2016-01-06 09:38:43,16.3,0,2,N,None | 2016-07-03 00:00:00,2016-01-01 00:00:00 | 2015-10-08 00:00:00,New York | New York,10019 | 10019,-73.989410400390625,40.772724151611328,1,2,0.5,-73.9803996 | -73.9844951,40.7656668 | 40.7632328,0.3,13.5,0,-73.979766845703125,40.75457763671875,New York | New York,1 | 2,1,NY CITY CENTRAL PARK NY US,WBAN:94728,1,FM-15,None,None,None,None,None,None,None,None,None,None,None,None,-9999,-9999,None,None,None,-9999,-9999,None,None,None,None,None,None,None,None,None,None,None,None,None,None,None,None,None,None,None,None,None,None,None,None,-73.9669,40.7889,7,None,VRB,25,-3.7,10.00,30.43,30.58,CLR:00,31,3,None,0.00,None,3,-16.1,30,-1.1,30.60,39.6,2016-01-06 09:51,None,None,None,2143,1220,None,None,None,None,None,None,None,None,None,None,None,None,None,None,None,None
.50,2016-01-06 09:18:56,2016-01-06 09:20:37,5.16,0,0.86,N,None,None,None,None,-73.957893371582031,40.780517578125,1,1,0.5,None,None,0.3,3.5,0,-73.963485717773438,40.777301788330078,None,None,2,NY CITY CENTRAL PARK NY US,WBAN:94728,1,FM-15,None,None,None,None,None,None,None,None,None,None,None,None,-9999,-9999,None,None,None,-9999,-9999,None,None,None,None,None,None,None,None,None,None,None,None,None,None,None,None,None,None,None,None,None,None,None,None,-73.9669,40.7889,7,None,VRB,25,-3.7,10.00,30.43,30.58,CLR:00,31,3,None,0.00,None,3,-16.1,30,-1.1,30.60,39.6,2016-01-06 09:51,None,None,None,2143,1220,None,None,None,None,None,None,None,None,None,None,None,None,None,None,None,None
3.87,2016-01-06 09:18:56,2016-01-06 09:41:07,18.3,0,0,N,None,None,None,None,-73.990531921386719,40.756221771240234,2,1,0.5,None,None,0.3,17.5,0,-74.01129150390625,40.715240478515625,None,None,2,NY CITY CENTRAL PARK NY US,WBAN:94728,1,FM-15,None,None,None,None,None,None,None,None,None,None,None,None,-9999,-9999,None,None,None,-9999,-9999,None,None,None,None,None,None,None,None,None,None,None,None,None,None,None,None,None,None,None,None,None,None,None,None,-73.9669,40.7889,7,None,VRB,25,-3.7,10.00,30.43,30.58,CLR:00,31,3,None,0.00,None,3,-16.1,30,-1.1,30.60,39.6,2016-01-06 09:51,None,None,None,2143,1220,None,None,None,None,None,None,None,None,None,None,None,None,None,None,None,None
1.00,2016-01-06 09:18:56,2016-01-06 09:27:11,7.3,0,0,N,2022-04-16 02:00:00 | None,2016-01-01 00:00:00 | 2016-01-01 00:00:00,New York | New York,None | 10028,-74.004753112792969,40.717178344726562,2,1,0.5,-73.9651814 | -73.9634699,40.7745779 | 40.7792134,0.3,6.5,0,-74.007072448730469,40.729351043701172,New York | New York,1 | 2,2,NY CITY CENTRAL PARK NY US,WBAN:94728,1,FM-15,None,None,None,None,None,None,None,None,None,None,None,None,-9999,-9999,None,None,None,-9999,-9999,None,None,None,None,None,None,None,None,None,None,None,None,None,None,None,None,None,None,None,None,None,None,None,None,-73.9669,40.7889,7,None,VRB,25,-3.7,10.00,30.43,30.58,CLR:00,31,3,None,0.00,None,3,-16.1,30,-1.1,30.60,39.6,2016-01-06 09:51,None,None,None,2143,1220,None,None,None,None,None,None,None,None,None,None,None,None,None,None,None,None
.90,2016-01-06 09:18:57,2016-01-06 09:29:23,8.8,0,0,N,None | None | None,2016-01-01 00:00:00 | 2016-01-01 00:00:00 | 2016-01-01 02:00:00,New York | New York | New York,None | None | 10038,-73.965232849121094,40.775123596191406,2,1,0.5,-74.0064 | -74.0064 | -74.0081571,40.7142 | 40.7142 | 40.7090990,0.3,8,0,-73.966201782226563,40.765018463134766,New York | New York | New York,1 | 1 | 0,1,NY CITY CENTRAL PARK NY US,WBAN:94728,1,FM-15,None,None,None,None,None,None,None,None,None,None,None,None,-9999,-9999,None,None,None,-9999,-9999,None,None,None,None,None,None,None,None,None,None,None,None,None,None,None,None,None,None,None,None,None,None,None,None,-73.9669,40.7889,7,None,VRB,25,-3.7,10.00,30.43,30.58,CLR:00,31,3,None,0.00,None,3,-16.1,30,-1.1,30.60,39.6,2016-01-06 09:51,None,None,None,2143,1220,None,None,None,None,None,None,None,None,None,None,None,None,None,None,None,None
1.10,2016-01-06 09:18:57,2016-01-06 09:23:46,8.5,0,1.7,N,None,None,None,None,-73.978240966796875,40.773113250732422,1,1,0.5,None,None,0.3,6,0,-73.971488952636719,40.786403656005859,None,None,1,NY CITY CENTRAL PARK NY US,WBAN:94728,1,FM-15,None,None,None,None,None,None,None,None,None,None,None,None,-9999,-9999,None,None,None,-9999,-9999,None,None,None,None,None,None,None,None,None,None,None,None,None,None,None,None,None,None,None,None,None,None,None,None,-73.9669,40.7889,7,None,VRB,25,-3.7,10.00,30.43,30.58,CLR:00,31,3,None,0.00,None,3,-16.1,30,-1.1,30.60,39.6,2016-01-06 09:51,None,None,None,2143,1220,None,None,None,None,None,None,None,None,None,None,None,None,None,None,None,None
1.10,2016-01-06 09:18:57,2016-01-06 09:31:48,12.85,0,2.55,N,2016-12-31 00:00:00,2016-01-01 00:00:00,New York,10022,-73.961441040039063,40.759956359863281,1,1,0.5,-73.968,40.759,0.3,9.5,0,-73.971435546875,40.751991271972656,New York,2,1,NY CITY CENTRAL PARK NY US,WBAN:94728,1,FM-15,None,None,None,None,None,None,None,None,None,None,None,None,-9999,-9999,None,None,None,-9999,-9999,None,None,None,None,None,None,None,None,None,None,None,None,None,None,None,None,None,None,None,None,None,None,None,None,-73.9669,40.7889,7,None,VRB,25,-3.7,10.00,30.43,30.58,CLR:00,31,3,None,0.00,None,3,-16.1,30,-1.1,30.60,39.6,2016-01-06 09:51,None,None,None,2143,1220,None,None,None,None,None,None,None,None,None,None,None,None,None,None,None,None
1.20,2016-01-06 09:18:57,2016-01-06 09:30:24,9.8,0,0,N,None,None,None,None,-73.982315063476563,40.747539520263672,2,1,0.5,None,None,0.3,9,0,-73.979393005371094,40.761451721191406,None,None,1,NY CITY CENTRAL PARK NY US,WBAN:94728,1,FM-15,None,None,None,None,None,None,None,None,None,None,None,None,-9999,-9999,None,None,None,-9999,-9999,None,None,None,None,None,None,None,None,None,None,None,None,None,None,None,None,None,None,None,None,None,None,None,None,-73.9669,40.7889,7,None,VRB,25,-3.7,10.00,30.43,30.58,CLR:00,31,3,None,0.00,None,3,-16.1,30,-1.1,30.60,39.6,2016-01-06 09:51,None,None,None,2143,1220,None,None,None,None,None,None,None,None,None,None,None,None,None,None,None,None
1.52,2016-01-06 09:18:57,2016-01-06 09:32:22,10.8,0,0,N,None,None,None,None,-73.960563659667969,40.766029357910156,2,1,0.5,None,None,0.3,10,0,-73.974372863769531,40.746711730957031,None,None,2,NY CITY CENTRAL PARK NY US,WBAN:94728,1,FM-15,None,None,None,None,None,None,None,None,None,None,None,None,-9999,-9999,None,None,None,-9999,-9999,None,None,None,None,None,None,None,None,None,None,None,None,None,None,None,None,None,None,None,None,None,None,None,None,-73.9669,40.7889,7,None,VRB,25,-3.7,10.00,30.43,30.58,CLR:00,31,3,None,0.00,None,3,-16.1,30,-1.1,30.60,39.6,2016-01-06 09:51,None,None,None,2143,1220,None,None,None,None,None,None,None,None,None,None,None,None,None,None,None,None
1.33,2016-01-06 09:18:57,2016-01-06 09:24:45,7.3,0,0,N,None | 2016-07-03 00:00:00,2016-01-01 00:00:00 | 2015-10-08 00:00:00,New York | New York,10019 | 10019,-73.990127563476563,40.719329833984375,2,1,0.5,-73.9803996 | -73.9844951,40.7656668 | 40.7632328,0.3,6.5,0,-73.980987548828125,40.733951568603516,New York | New York,1 | 2,2,NY CITY CENTRAL PARK NY US,WBAN:94728,1,FM-15,None,None,None,None,None,None,None,None,None,None,None,None,-9999,-9999,None,None,None,-9999,-9999,None,None,None,None,None,None,None,None,None,None,None,None,None,None,None,None,None,None,None,None,None,None,None,None,-73.9669,40.7889,7,None,VRB,25,-3.7,10.00,30.43,30.58,CLR:00,31,3,None,0.00,None,3,-16.1,30,-1.1,30.60,39.6,2016-01-06 09:51,None,None,None,2143,1220,None,None,None,None,None,None,None,None,None,None,None,None,None,None,None,None
2.80,2016-01-06 09:18:57,2016-01-06 09:41:34,19.56,0,3.26,N,None,None,None,None,-73.970626831054687,40.788330078125,1,6,0.5,None,None,0.3,15.5,0,-73.977447509765625,40.756729125976563,None,None,2,NY CITY CENTRAL PARK NY US,WBAN:94728,1,FM-15,None,None,None,None,None,None,None,None,None,None,None,None,-9999,-9999,None,None,None,-9999,-9999,None,None,None,None,None,None,None,None,None,None,None,None,None,None,None,None,None,None,None,None,None,None,None,None,-73.9669,40.7889,7,None,VRB,25,-3.7,10.00,30.43,30.58,CLR:00,31,3,None,0.00,None,3,-16.1,30,-1.1,30.60,39.6,2016-01-06 09:51,None,None,None,2143,1220,None,None,None,None,None,None,None,None,None,None,None,None,None,None,None,None
1.46,2016-01-06 09:18:57,2016-01-06 09:36:37,13.8,0,1,N,None,2016-01-01 09:00:00,New York,10003,-73.975837707519531,40.740680694580078,1,1,0.5,-73.9870210,40.7308580,0.3,12,0,-73.969192504882813,40.7576904296875,New York,0,2,NY CITY CENTRAL PARK NY US,WBAN:94728,1,FM-15,None,None,None,None,None,None,None,None,None,None,None,None,-9999,-9999,None,None,None,-9999,-9999,None,None,None,None,None,None,None,None,None,None,None,None,None,None,None,None,None,None,None,None,None,None,None,None,-73.9669,40.7889,7,None,VRB,25,-3.7,10.00,30.43,30.58,CLR:00,31,3,None,0.00,None,3,-16.1,30,-1.1,30.60,39.6,2016-01-06 09:51,None,None,None,2143,1220,None,None,None,None,None,None,None,None,None,None,None,None,None,None,None,None
.70,2016-01-06 09:18:58,2016-01-06 09:30:45,11.15,0,1.85,N,None,None,None,None,-73.975028991699219,40.741847991943359,1,1,0.5,None,None,0.3,8.5,0,-73.973541259765625,40.750091552734375,None,None,1,NY CITY CENTRAL PARK NY US,WBAN:94728,1,FM-15,None,None,None,None,None,None,None,None,None,None,None,None,-9999,-9999,None,None,None,-9999,-9999,None,None,None,None,None,None,None,None,None,None,None,None,None,None,None,None,None,None,None,None,None,None,None,None,-73.9669,40.7889,7,None,VRB,25,-3.7,10.00,30.43,30.58,CLR:00,31,3,None,0.00,None,3,-16.1,30,-1.1,30.60,39.6,2016-01-06 09:51,None,None,None,2143,1220,None,None,None,None,None,None,None,None,None,None,None,None,None,None,None,None
2.00,2016-01-06 09:18:58,2016-01-06 09:37:22,16.56,0,2.76,N,2016-12-31 00:00:00,2016-01-01 00:00:00,New York,10022,-73.990875244140625,40.734626770019531,1,1,0.5,-73.968,40.759,0.3,13,0,-74.011634826660156,40.714996337890625,New York,2,2,NY CITY CENTRAL PARK NY US,WBAN:94728,1,FM-15,None,None,None,None,None,None,None,None,None,None,None,None,-9999,-9999,None,None,None,-9999,-9999,None,None,None,None,None,None,None,None,None,None,None,None,None,None,None,None,None,None,None,None,None,None,None,None,-73.9669,40.7889,7,None,VRB,25,-3.7,10.00,30.43,30.58,CLR:00,31,3,None,0.00,None,3,-16.1,30,-1.1,30.60,39.6,2016-01-06 09:51,None,None,None,2143,1220,None,None,None,None,None,None,None,None,None,None,None,None,None,None,None,None
.89,2016-01-06 09:18:58,2016-01-06 09:32:53,13.39,0,3.09,N,None,None,None,None,-73.98388671875,40.744289398193359,1,1,0.5,None,None,0.3,9.5,0,-73.986618041992188,40.753139495849609,None,None,2,NY CITY CENTRAL PARK NY US,WBAN:94728,1,FM-15,None,None,None,None,None,None,None,None,None,None,None,None,-9999,-9999,None,None,None,-9999,-9999,None,None,None,None,None,None,None,None,None,None,None,None,None,None,None,None,None,None,None,None,None,None,None,None,-73.9669,40.7889,7,None,VRB,25,-3.7,10.00,30.43,30.58,CLR:00,31,3,None,0.00,None,3,-16.1,30,-1.1,30.60,39.6,2016-01-06 09:51,None,None,None,2143,1220,None,None,None,None,None,None,None,None,None,None,None,None,None,None,None,None
2.75,2016-01-06 09:18:59,2016-01-06 09:45:19,21.36,0,3.56,N,None | None | None,2016-01-01 00:00:00 | 2016-01-01 00:00:00 | 2016-01-01 02:00:00,New York | New York | New York,None | None | 10038,-73.980430603027344,40.782371520996094,1,1,0.5,-74.0064 | -74.0064 | -74.0081571,40.7142 | 40.7142 | 40.7090990,0.3,17,0,-73.978141784667969,40.753768920898438,New York | New York | New York,1 | 1 | 0,2,NY CITY CENTRAL PARK NY US,WBAN:94728,1,FM-15,None,None,None,None,None,None,None,None,None,None,None,None,-9999,-9999,None,None,None,-9999,-9999,None,None,None,None,None,None,None,None,None,None,None,None,None,None,None,None,None,None,None,None,None,None,None,None,-73.9669,40.7889,7,None,VRB,25,-3.7,10.00,30.43,30.58,CLR:00,31,3,None,0.00,None,3,-16.1,30,-1.1,30.60,39.6,2016-01-06 09:51,None,None,None,2143,1220,None,None,None,None,None,None,None,None,None,None,None,None,None,None,None,None
.45,2016-01-06 09:18:59,2016-01-06 09:29:55,10.56,0,1.76,N,None,None,None,None,-73.965766906738281,40.754417419433594,1,1,0.5,None,None,0.3,8,0,-73.968009948730469,40.758823394775391,None,None,2,NY CITY CENTRAL PARK NY US,WBAN:94728,1,FM-15,None,None,None,None,None,None,None,None,None,None,None,None,-9999,-9999,None,None,None,-9999,-9999,None,None,None,None,None,None,None,None,None,None,None,None,None,None,None,None,None,None,None,None,None,None,None,None,-73.9669,40.7889,7,None,VRB,25,-3.7,10.00,30.43,30.58,CLR:00,31,3,None,0.00,None,3,-16.1,30,-1.1,30.60,39.6,2016-01-06 09:51,None,None,None,2143,1220,None,None,None,None,None,None,None,None,None,None,None,None,None,None,None,None
1.10,2016-01-06 09:19:00,2016-01-06 09:27:37,9.35,0,1.55,N,None,None,None,None,-73.95697021484375,40.770603179931641,1,1,0.5,None,None,0.3,7,0,-73.969940185546875,40.76275634765625,None,None,1,NY CITY CENTRAL PARK NY US,WBAN:94728,1,FM-15,None,None,None,None,None,None,None,None,None,None,None,None,-9999,-9999,None,None,None,-9999,-9999,None,None,None,None,None,None,None,None,None,None,None,None,None,None,None,None,None,None,None,None,None,None,None,None,-73.9669,40.7889,7,None,VRB,25,-3.7,10.00,30.43,30.58,CLR:00,31,3,None,0.00,None,3,-16.1,30,-1.1,30.60,39.6,2016-01-06 09:51,None,None,None,2143,1220,None,None,None,None,None,None,None,None,None,None,None,None,None,None,None,None
2.10,2016-01-06 09:19:00,2016-01-06 09:40:12,17.75,0,2.95,N,2016-12-31 00:00:00,2016-01-01 00:00:00,New York,10022,-73.95928955078125,40.769149780273437,1,1,0.5,-73.968,40.759,0.3,14,0,-73.979408264160156,40.745418548583984,New York,2,1,NY CITY CENTRAL PARK NY US,WBAN:94728,1,FM-15,None,None,None,None,None,None,None,None,None,None,None,None,-9999,-9999,None,None,None,-9999,-9999,None,None,None,None,None,None,None,None,None,None,None,None,None,None,None,None,None,None,None,None,None,None,None,None,-73.9669,40.7889,7,None,VRB,25,-3.7,10.00,30.43,30.58,CLR:00,31,3,None,0.00,None,3,-16.1,30,-1.1,30.60,39.6,2016-01-06 09:51,None,None,None,2143,1220,None,None,None,None,None,None,None,None,None,None,None,None,None,None,None,None
4.95,2016-01-06 09:19:00,2016-01-06 09:51:54,24.8,0,0,N,2016-12-31 00:00:00,2016-01-01 00:00:00,New York,10022,-73.945724487304687,40.781906127929688,2,6,0.5,-73.968,40.759,0.3,24,0,-73.990325927734375,40.740230560302734,New York,2,2,NY CITY CENTRAL PARK NY US,WBAN:94728,1,FM-15,None,None,None,None,None,None,None,None,None,None,None,None,-9999,-9999,None,None,None,-9999,-9999,None,None,None,None,None,None,None,None,None,None,None,None,None,None,None,None,None,None,None,None,None,None,None,None,-73.9669,40.7889,7,None,VRB,25,-3.7,10.00,30.43,30.58,CLR:00,31,3,None,0.00,None,3,-16.1,30,-1.1,30.60,39.6,2016-01-06 09:51,None,None,None,2143,1220,None,None,None,None,None,None,None,None,None,None,None,None,None,None,None,None
.37,2016-01-06 09:19:00,2016-01-06 09:22:59,5.8,0,0.5,N,None,None,None,None,-73.999443054199219,40.733737945556641,1,1,0.5,None,None,0.3,4.5,0,-73.998329162597656,40.738037109375,None,None,2,NY CITY CENTRAL PARK NY US,WBAN:94728,1,FM-15,None,None,None,None,None,None,None,None,None,None,None,None,-9999,-9999,None,None,None,-9999,-9999,None,None,None,None,None,None,None,None,None,None,None,None,None,None,None,None,None,None,None,None,None,None,None,None,-73.9669,40.7889,7,None,VRB,25,-3.7,10.00,30.43,30.58,CLR:00,31,3,None,0.00,None,3,-16.1,30,-1.1,30.60,39.6,2016-01-06 09:51,None,None,None,2143,1220,None,None,None,None,None,None,None,None,None,None,None,None,None,None,None,None
.51,2016-01-06 09:19:00,2016-01-06 09:25:17,7.56,0,1.26,N,None,None,None,None,-73.985221862792969,40.731868743896484,1,1,0.5,None,None,0.3,5.5,0,-73.993659973144531,40.735126495361328,None,None,2,NY CITY CENTRAL PARK NY US,WBAN:94728,1,FM-15,None,None,None,None,None,None,None,None,None,None,None,None,-9999,-9999,None,None,None,-9999,-9999,None,None,None,None,None,None,None,None,None,None,None,None,None,None,None,None,None,None,None,None,None,None,None,None,-73.9669,40.7889,7,None,VRB,25,-3.7,10.00,30.43,30.58,CLR:00,31,3,None,0.00,None,3,-16.1,30,-1.1,30.60,39.6,2016-01-06 09:51,None,None,None,2143,1220,None,None,None,None,None,None,None,None,None,None,None,None,None,None,None,None
.50,2016-01-06 09:19:01,2016-01-06 09:20:41,5.15,0,0.85,N,None,None,None,None,-73.978431701660156,40.772628784179688,1,1,0.5,None,None,0.3,3.5,0,-73.97406005859375,40.778583526611328,None,None,1,NY CITY CENTRAL PARK NY US,WBAN:94728,1,FM-15,None,None,None,None,None,None,None,None,None,None,None,None,-9999,-9999,None,None,None,-9999,-9999,None,None,None,None,None,None,None,None,None,None,None,None,None,None,None,None,None,None,None,None,None,None,None,None,-73.9669,40.7889,7,None,VRB,25,-3.7,10.00,30.43,30.58,CLR:00,31,3,None,0.00,None,3,-16.1,30,-1.1,30.60,39.6,2016-01-06 09:51,None,None,None,2143,1220,None,None,None,None,None,None,None,None,None,None,None,None,None,None,None,None
2.40,2016-01-06 09:19:01,2016-01-06 09:39:47,16.8,0,2,N,None,2016-01-01 09:00:00,New York,10003,-73.950027465820312,40.784507751464844,1,1,0.5,-73.9870210,40.7308580,0.3,14,0,-73.973381042480469,40.757556915283203,New York,0,1,NY CITY CENTRAL PARK NY US,WBAN:94728,1,FM-15,None,None,None,None,None,None,None,None,None,None,None,None,-9999,-9999,None,None,None,-9999,-9999,None,None,None,None,None,None,None,None,None,None,None,None,None,None,None,None,None,None,None,None,None,None,None,None,-73.9669,40.7889,7,None,VRB,25,-3.7,10.00,30.43,30.58,CLR:00,31,3,None,0.00,None,3,-16.1,30,-1.1,30.60,39.6,2016-01-06 09:51,None,None,None,2143,1220,None,None,None,None,None,None,None,None,None,None,None,None,None,None,None,None
1.90,2016-01-06 09:19:01,2016-01-06 09:30:51,11.3,0,1,N,None,None,None,None,-73.981460571289063,40.764274597167969,1,1,0.5,None,None,0.3,9.5,0,-73.980842590332031,40.745086669921875,None,None,1,NY CITY CENTRAL PARK NY US,WBAN:94728,1,FM-15,None,None,None,None,None,None,None,None,None,None,None,None,-9999,-9999,None,None,None,-9999,-9999,None,None,None,None,None,None,None,None,None,None,None,None,None,None,None,None,None,None,None,None,None,None,None,None,-73.9669,40.7889,7,None,VRB,25,-3.7,10.00,30.43,30.58,CLR:00,31,3,None,0.00,None,3,-16.1,30,-1.1,30.60,39.6,2016-01-06 09:51,None,None,None,2143,1220,None,None,None,None,None,None,None,None,None,None,None,None,None,None,None,None
1.30,2016-01-06 09:19:01,2016-01-06 09:30:59,9.8,0,0,N,2016-12-31 00:00:00,2016-01-01 00:00:00,New York,10022,-73.986137390136719,40.762142181396484,2,2,0.5,-73.968,40.759,0.3,9,0,-73.974143981933594,40.750617980957031,New York,2,1,NY CITY CENTRAL PARK NY US,WBAN:94728,1,FM-15,None,None,None,None,None,None,None,None,None,None,None,None,-9999,-9999,None,None,None,-9999,-9999,None,None,None,None,None,None,None,None,None,None,None,None,None,None,None,None,None,None,None,None,None,None,None,None,-73.9669,40.7889,7,None,VRB,25,-3.7,10.00,30.43,30.58,CLR:00,31,3,None,0.00,None,3,-16.1,30,-1.1,30.60,39.6,2016-01-06 09:51,None,None,None,2143,1220,None,None,None,None,None,None,None,None,None,None,None,None,None,None,None,None
1.83,2016-01-06 09:19:01,2016-01-06 09:31:34,11.3,0,1,N,None,None,None,None,-73.981002807617187,40.76007080078125,1,5,0.5,None,None,0.3,9.5,0,-73.991912841796875,40.737918853759766,None,None,2,NY CITY CENTRAL PARK NY US,WBAN:94728,1,FM-15,None,None,None,None,None,None,None,None,None,None,None,None,-9999,-9999,None,None,None,-9999,-9999,None,None,None,None,None,None,None,None,None,None,None,None,None,None,None,None,None,None,None,None,None,None,None,None,-73.9669,40.7889,7,None,VRB,25,-3.7,10.00,30.43,30.58,CLR:00,31,3,None,0.00,None,3,-16.1,30,-1.1,30.60,39.6,2016-01-06 09:51,None,None,None,2143,1220,None,None,None,None,None,None,None,None,None,None,None,None,None,None,None,None
.50,2016-01-06 09:19:02,2016-01-06 09:22:07,5.75,0,0.95,N,None,None,None,None,-74.016403198242187,40.714752197265625,1,1,0.5,None,None,0.3,4,0,-74.00958251953125,40.718776702880859,None,None,1,NY CITY CENTRAL PARK NY US,WBAN:94728,1,FM-15,None,None,None,None,None,None,None,None,None,None,None,None,-9999,-9999,None,None,None,-9999,-9999,None,None,None,None,None,None,None,None,None,None,None,None,None,None,None,None,None,None,None,None,None,None,None,None,-73.9669,40.7889,7,None,VRB,25,-3.7,10.00,30.43,30.58,CLR:00,31,3,None,0.00,None,3,-16.1,30,-1.1,30.60,39.6,2016-01-06 09:51,None,None,None,2143,1220,None,None,None,None,None,None,None,None,None,None,None,None,None,None,None,None
2.30,2016-01-06 09:19:02,2016-01-06 09:47:13,22.85,0,4.55,N,None,None,None,None,-73.963623046875,40.758693695068359,1,1,0.5,None,None,0.3,17.5,0,-73.991561889648438,40.749916076660156,None,None,1,NY CITY CENTRAL PARK NY US,WBAN:94728,1,FM-15,None,None,None,None,None,None,None,None,None,None,None,None,-9999,-9999,None,None,None,-9999,-9999,None,None,None,None,None,None,None,None,None,None,None,None,None,None,None,None,None,None,None,None,None,None,None,None,-73.9669,40.7889,7,None,VRB,25,-3.7,10.00,30.43,30.58,CLR:00,31,3,None,0.00,None,3,-16.1,30,-1.1,30.60,39.6,2016-01-06 09:51,None,None,None,2143,1220,None,None,None,None,None,None,None,None,None,None,None,None,None,None,None,None
1.70,2016-01-06 09:19:02,2016-01-06 09:32:20,10.8,0,0,N,None | None | None,2016-01-01 00:00:00 | 2016-01-01 00:00:00 | 2016-01-01 20:00:00,New York | New York | New York,None | None | 10013,-73.975265502929688,40.751056671142578,2,1,0.5,-74.0064 | -74.0064 | -74.0050159,40.7142 | 40.7142 | 40.7208412,0.3,10,0,-73.955780029296875,40.765964508056641,New York | New York | New York,1 | 1 | 0,1,NY CITY CENTRAL PARK NY US,WBAN:94728,1,FM-15,None,None,None,None,None,None,None,None,None,None,None,None,-9999,-9999,None,None,None,-9999,-9999,None,None,None,None,None,None,None,None,None,None,None,None,None,None,None,None,None,None,None,None,None,None,None,None,-73.9669,40.7889,7,None,VRB,25,-3.7,10.00,30.43,30.58,CLR:00,31,3,None,0.00,None,3,-16.1,30,-1.1,30.60,39.6,2016-01-06 09:51,None,None,None,2143,1220,None,None,None,None,None,None,None,None,None,None,None,None,None,None,None,None
8.60,2016-01-06 09:19:02,2016-01-06 09:50:34,44.2,5.54,7.36,N,None,None,None,None,-73.870933532714844,40.773757934570313,1,1,0.5,None,None,0.3,30.5,0,-73.982757568359375,40.742805480957031,None,None,1,NY CITY CENTRAL PARK NY US,WBAN:94728,1,FM-15,None,None,None,None,None,None,None,None,None,None,None,None,-9999,-9999,None,None,None,-9999,-9999,None,None,None,None,None,None,None,None,None,None,None,None,None,None,None,None,None,None,None,None,None,None,None,None,-73.9669,40.7889,7,None,VRB,25,-3.7,10.00,30.43,30.58,CLR:00,31,3,None,0.00,None,3,-16.1,30,-1.1,30.60,39.6,2016-01-06 09:51,None,None,None,2143,1220,None,None,None,None,None,None,None,None,None,None,None,None,None,None,None,None
.72,2016-01-06 09:19:02,2016-01-06 09:22:25,5.3,0,0,N,None,None,None,None,-73.96221923828125,40.767578125,2,2,0.5,None,None,0.3,4.5,0,-73.955558776855469,40.776950836181641,None,None,2,NY CITY CENTRAL PARK NY US,WBAN:94728,1,FM-15,None,None,None,None,None,None,None,None,None,None,None,None,-9999,-9999,None,None,None,-9999,-9999,None,None,None,None,None,None,None,None,None,None,None,None,None,None,None,None,None,None,None,None,None,None,None,None,-73.9669,40.7889,7,None,VRB,25,-3.7,10.00,30.43,30.58,CLR:00,31,3,None,0.00,None,3,-16.1,30,-1.1,30.60,39.6,2016-01-06 09:51,None,None,None,2143,1220,None,None,None,None,None,None,None,None,None,None,None,None,None,None,None,None
.86,2016-01-06 09:19:02,2016-01-06 09:26:00,6.8,0,0,N,None,None,None,None,-73.972389221191406,40.756881713867188,2,1,0.5,None,None,0.3,6,0,-73.983619689941406,40.762191772460937,None,None,2,NY CITY CENTRAL PARK NY US,WBAN:94728,1,FM-15,None,None,None,None,None,None,None,None,None,None,None,None,-9999,-9999,None,None,None,-9999,-9999,None,None,None,None,None,None,None,None,None,None,None,None,None,None,None,None,None,None,None,None,None,None,None,None,-73.9669,40.7889,7,None,VRB,25,-3.7,10.00,30.43,30.58,CLR:00,31,3,None,0.00,None,3,-16.1,30,-1.1,30.60,39.6,2016-01-06 09:51,None,None,None,2143,1220,None,None,None,None,None,None,None,None,None,None,None,None,None,None,None,None
.00,2016-01-06 09:19:02,2016-01-06 09:19:06,65.8,0,0,N,None,2016-01-01 00:00:00,New York,10028,-74.005180358886719,40.706001281738281,2,1,0.5,-73.9634699,40.7792134,0.3,65,0,-74.005180358886719,40.705986022949219,New York,2,2,NY CITY CENTRAL PARK NY US,WBAN:94728,5,FM-15,None,None,None,None,None,None,None,None,None,None,None,None,-9999,-9999,None,None,None,-9999,-9999,None,None,None,None,None,None,None,None,None,None,None,None,None,None,None,None,None,None,None,None,None,None,None,None,-73.9669,40.7889,7,None,VRB,25,-3.7,10.00,30.43,30.58,CLR:00,31,3,None,0.00,None,3,-16.1,30,-1.1,30.60,39.6,2016-01-06 09:51,None,None,None,2143,1220,None,None,None,None,None,None,None,None,None,None,None,None,None,None,None,None
1.72,2016-01-06 09:19:02,2016-01-06 09:36:21,15.36,0,2.56,N,None | 2016-07-03 00:00:00,2016-01-01 00:00:00 | 2015-10-08 00:00:00,New York | New York,10019 | 10019,-73.945953369140625,40.775455474853516,1,6,0.5,-73.9803996 | -73.9844951,40.7656668 | 40.7632328,0.3,12,0,-73.966453552246094,40.764575958251953,New York | New York,1 | 2,2,NY CITY CENTRAL PARK NY US,WBAN:94728,1,FM-15,None,None,None,None,None,None,None,None,None,None,None,None,-9999,-9999,None,None,None,-9999,-9999,None,None,None,None,None,None,None,None,None,None,None,None,None,None,None,None,None,None,None,None,None,None,None,None,-73.9669,40.7889,7,None,VRB,25,-3.7,10.00,30.43,30.58,CLR:00,31,3,None,0.00,None,3,-16.1,30,-1.1,30.60,39.6,2016-01-06 09:51,None,None,None,2143,1220,None,None,None,None,None,None,None,None,None,None,None,None,None,None,None,None
2.53,2016-01-06 09:19:02,2016-01-06 09:39:03,14.8,0,0,N,None,2016-01-01 02:00:00,New York,10038,-73.99066162109375,40.756080627441406,2,2,0.5,-74.0081571,40.7090990,0.3,14,0,-73.958396911621094,40.764652252197266,New York,0,2,NY CITY CENTRAL PARK NY US,WBAN:94728,1,FM-15,None,None,None,None,None,None,None,None,None,None,None,None,-9999,-9999,None,None,None,-9999,-9999,None,None,None,None,None,None,None,None,None,None,None,None,None,None,None,None,None,None,None,None,None,None,None,None,-73.9669,40.7889,7,None,VRB,25,-3.7,10.00,30.43,30.58,CLR:00,31,3,None,0.00,None,3,-16.1,30,-1.1,30.60,39.6,2016-01-06 09:51,None,None,None,2143,1220,None,None,None,None,None,None,None,None,None,None,None,None,None,None,None,None
.54,2016-01-06 09:19:02,2016-01-06 09:23:48,6.96,0,1.16,N,2016-12-31 00:00:00,2016-01-01 00:00:00,New York,10022,-73.96630859375,40.765422821044922,1,1,0.5,-73.968,40.759,0.3,5,0,-73.970390319824219,40.758312225341797,New York,2,2,NY CITY CENTRAL PARK NY US,WBAN:94728,1,FM-15,None,None,None,None,None,None,None,None,None,None,None,None,-9999,-9999,None,None,None,-9999,-9999,None,None,None,None,None,None,None,None,None,None,None,None,None,None,None,None,None,None,None,None,None,None,None,None,-73.9669,40.7889,7,None,VRB,25,-3.7,10.00,30.43,30.58,CLR:00,31,3,None,0.00,None,3,-16.1,30,-1.1,30.60,39.6,2016-01-06 09:51,None,None,None,2143,1220,None,None,None,None,None,None,None,None,None,None,None,None,None,None,None,None
2.08,2016-01-06 09:19:02,2016-01-06 09:38:55,17.16,0,2.86,N,None,None,None,None,-73.953681945800781,40.766696929931641,1,1,0.5,None,None,0.3,13.5,0,-73.981796264648437,40.763141632080078,None,None,2,NY CITY CENTRAL PARK NY US,WBAN:94728,1,FM-15,None,None,None,None,None,None,None,None,None,None,None,None,-9999,-9999,None,None,None,-9999,-9999,None,None,None,None,None,None,None,None,None,None,None,None,None,None,None,None,None,None,None,None,None,None,None,None,-73.9669,40.7889,7,None,VRB,25,-3.7,10.00,30.43,30.58,CLR:00,31,3,None,0.00,None,3,-16.1,30,-1.1,30.60,39.6,2016-01-06 09:51,None,None,None,2143,1220,None,None,None,None,None,None,None,None,None,None,None,None,None,None,None,None
.82,2016-01-06 09:19:02,2016-01-06 09:26:20,7.3,0,0,N,2016-12-31 00:00:00,2016-01-01 00:00:00,New York,10022,-73.979034423828125,40.750995635986328,2,1,0.5,-73.968,40.759,0.3,6.5,0,-73.985771179199219,40.740734100341797,New York,2,2,NY CITY CENTRAL PARK NY US,WBAN:94728,1,FM-15,None,None,None,None,None,None,None,None,None,None,None,None,-9999,-9999,None,None,None,-9999,-9999,None,None,None,None,None,None,None,None,None,None,None,None,None,None,None,None,None,None,None,None,None,None,None,None,-73.9669,40.7889,7,None,VRB,25,-3.7,10.00,30.43,30.58,CLR:00,31,3,None,0.00,None,3,-16.1,30,-1.1,30.60,39.6,2016-01-06 09:51,None,None,None,2143,1220,None,None,None,None,None,None,None,None,None,None,None,None,None,None,None,None
2.17,2016-01-06 09:19:02,2016-01-06 09:37:52,14.3,0,0,N,None | 2016-07-03 00:00:00,2016-01-01 00:00:00 | 2015-10-08 00:00:00,New York | New York,10019 | 10019,-73.9703369140625,40.783821105957031,2,1,0.5,-73.9803996 | -73.9844951,40.7656668 | 40.7632328,0.3,13.5,0,-73.975364685058594,40.761039733886719,New York | New York,1 | 2,2,NY CITY CENTRAL PARK NY US,WBAN:94728,1,FM-15,None,None,None,None,None,None,None,None,None,None,None,None,-9999,-9999,None,None,None,-9999,-9999,None,None,None,None,None,None,None,None,None,None,None,None,None,None,None,None,None,None,None,None,None,None,None,None,-73.9669,40.7889,7,None,VRB,25,-3.7,10.00,30.43,30.58,CLR:00,31,3,None,0.00,None,3,-16.1,30,-1.1,30.60,39.6,2016-01-06 09:51,None,None,None,2143,1220,None,None,None,None,None,None,None,None,None,None,None,None,None,None,None,None
.70,2016-01-06 09:19:03,2016-01-06 09:22:20,5.3,0,0,N,None,None,None,None,-74.008804321289063,40.719463348388672,2,1,0.5,None,None,0.3,4.5,0,-74.007095336914063,40.728633880615234,None,None,1,NY CITY CENTRAL PARK NY US,WBAN:94728,1,FM-15,None,None,None,None,None,None,None,None,None,None,None,None,-9999,-9999,None,None,None,-9999,-9999,None,None,None,None,None,None,None,None,None,None,None,None,None,None,None,None,None,None,None,None,None,None,None,None,-73.9669,40.7889,7,None,VRB,25,-3.7,10.00,30.43,30.58,CLR:00,31,3,None,0.00,None,3,-16.1,30,-1.1,30.60,39.6,2016-01-06 09:51,None,None,None,2143,1220,None,None,None,None,None,None,None,None,None,None,None,None,None,None,None,None
2.00,2016-01-06 09:19:03,2016-01-06 09:25:55,9.3,0,0,N,None | 2016-12-31 00:00:00,2016-01-01 00:00:00 | 2016-01-01 00:00:00,New York | New York,10019 | 10022,-73.872802734375,40.773834228515625,2,1,0.5,-73.9803996 | -73.968,40.7656668 | 40.759,0.3,8.5,0,-73.906646728515625,40.770034790039063,New York | New York,1 | 2,1,NY CITY CENTRAL PARK NY US,WBAN:94728,1,FM-15,None,None,None,None,None,None,None,None,None,None,None,None,-9999,-9999,None,None,None,-9999,-9999,None,None,None,None,None,None,None,None,None,None,None,None,None,None,None,None,None,None,None,None,None,None,None,None,-73.9669,40.7889,7,None,VRB,25,-3.7,10.00,30.43,30.58,CLR:00,31,3,None,0.00,None,3,-16.1,30,-1.1,30.60,39.6,2016-01-06 09:51,None,None,None,2143,1220,None,None,None,None,None,None,None,None,None,None,None,None,None,None,None,None
1.60,2016-01-06 09:19:03,2016-01-06 09:29:44,11.75,0,1.95,N,None,None,None,None,-73.967666625976562,40.802829742431641,1,1,0.5,None,None,0.3,9,0,-73.981246948242188,40.781215667724609,None,None,1,NY CITY CENTRAL PARK NY US,WBAN:94728,1,FM-15,None,None,None,None,None,None,None,None,None,None,None,None,-9999,-9999,None,None,None,-9999,-9999,None,None,None,None,None,None,None,None,None,None,None,None,None,None,None,None,None,None,None,None,None,None,None,None,-73.9669,40.7889,7,None,VRB,25,-3.7,10.00,30.43,30.58,CLR:00,31,3,None,0.00,None,3,-16.1,30,-1.1,30.60,39.6,2016-01-06 09:51,None,None,None,2143,1220,None,None,None,None,None,None,None,None,None,None,None,None,None,None,None,None
1.70,2016-01-06 09:19:03,2016-01-06 09:29:34,12.35,0,2.05,N,None,None,None,None,-74.006233215332031,40.748584747314453,1,1,0.5,None,None,0.3,9.5,0,-74.005035400390625,40.728992462158203,None,None,1,NY CITY CENTRAL PARK NY US,WBAN:94728,1,FM-15,None,None,None,None,None,None,None,None,None,None,None,None,-9999,-9999,None,None,None,-9999,-9999,None,None,None,None,None,None,None,None,None,None,None,None,None,None,None,None,None,None,None,None,None,None,None,None,-73.9669,40.7889,7,None,VRB,25,-3.7,10.00,30.43,30.58,CLR:00,31,3,None,0.00,None,3,-16.1,30,-1.1,30.60,39.6,2016-01-06 09:51,None,None,None,2143,1220,None,None,None,None,None,None,None,None,None,None,None,None,None,None,None,None
4.76,2016-01-06 09:19:03,2016-01-06 09:35:13,17.8,0,0,N,None,None,None,None,-73.970069885253906,40.752681732177734,2,2,0.5,None,None,0.3,17,0,-74.005950927734375,40.706108093261719,None,None,2,NY CITY CENTRAL PARK NY US,WBAN:94728,1,FM-15,None,None,None,None,None,None,None,None,None,None,None,None,-9999,-9999,None,None,None,-9999,-9999,None,None,None,None,None,None,None,None,None,None,None,None,None,None,None,None,None,None,None,None,None,None,None,None,-73.9669,40.7889,7,None,VRB,25,-3.7,10.00,30.43,30.58,CLR:00,31,3,None,0.00,None,3,-16.1,30,-1.1,30.60,39.6,2016-01-06 09:51,None,None,None,2143,1220,None,None,None,None,None,None,None,None,None,None,None,None,None,None,None,None
4.18,2016-01-06 09:19:03,2016-01-06 09:35:13,16.3,0,0,N,None,None,None,None,-73.967460632324219,40.803230285644531,2,4,0.5,None,None,0.3,15.5,0,-74.00396728515625,40.7589111328125,None,None,2,NY CITY CENTRAL PARK NY US,WBAN:94728,1,FM-15,None,None,None,None,None,None,None,None,None,None,None,None,-9999,-9999,None,None,None,-9999,-9999,None,None,None,None,None,None,None,None,None,None,None,None,None,None,None,None,None,None,None,None,None,None,None,None,-73.9669,40.7889,7,None,VRB,25,-3.7,10.00,30.43,30.58,CLR:00,31,3,None,0.00,None,3,-16.1,30,-1.1,30.60,39.6,2016-01-06 09:51,None,None,None,2143,1220,None,None,None,None,None,None,None,None,None,None,None,None,None,None,None,None
