STATION,STATION_NAME,ELEVATION,LATITUDE,LONGITUDE,DATE,REPORTTPYE,HOURLYSKYCONDITIONS,HOURLYVISIBILITY,HOURLYPRSENTWEATHERTYPE,HOURLYDRYBULBTEMPF,HOURLYDRYBULBTEMPC,HOURLYWETBULBTEMPF,HOURLYWETBULBTEMPC,HOURLYDewPointTempF,HOURLYDewPointTempC,HOURLYRelativeHumidity,HOURLYWindSpeed,HOURLYWindDirection,HOURLYWindGustSpeed,HOURLYStationPressure,HOURLYPressureTendency,HOURLYPressureChange,HOURLYSeaLevelPressure,HOURLYPrecip,HOURLYAltimeterSetting,DAILYMaximumDryBulbTemp,DAILYMinimumDryBulbTemp,DAILYAverageDryBulbTemp,DAILYDeptFromNormalAverageTemp,DAILYAverageRelativeHumidity,DAILYAverageDewPointTemp,DAILYAverageWetBulbTemp,DAILYHeatingDegreeDays,DAILYCoolingDegreeDays,DAILYSunrise,DAILYSunset,DAILYWeather,DAILYPrecip,DAILYSnowfall,DAILYSnowDepth,DAILYAverageStationPressure,DAILYAverageSeaLevelPressure,DAILYAverageWindSpeed,DAILYPeakWindSpeed,PeakWindDirection,DAILYSustainedWindSpeed,DAILYSustainedWindDirection,MonthlyMaximumTemp,MonthlyMinimumTemp,MonthlyMeanTemp,MonthlyAverageRH,MonthlyDewpointTemp,MonthlyWetBulbTemp,MonthlyAvgHeatingDegreeDays,MonthlyAvgCoolingDegreeDays,MonthlyStationPressure,MonthlySeaLevelPressure,MonthlyAverageWindSpeed,MonthlyTotalSnowfall,MonthlyDeptFromNormalMaximumTemp,MonthlyDeptFromNormalMinimumTemp,MonthlyDeptFromNormalAverageTemp,MonthlyDeptFromNormalPrecip,MonthlyTotalLiquidPrecip,MonthlyGreatestPrecip,MonthlyGreatestPrecipDate,MonthlyGreatestSnowfall,MonthlyGreatestSnowfallDate,MonthlyGreatestSnowDepth,MonthlyGreatestSnowDepthDate,MonthlyDaysWithGT90Temp,MonthlyDaysWithLT32Temp,MonthlyDaysWithGT32Temp,MonthlyDaysWithLT0Temp,MonthlyDaysWithGT001Precip,MonthlyDaysWithGT010Precip,MonthlyDaysWithGT1Snow,MonthlyMaxSeaLevelPressureValue,MonthlyMaxSeaLevelPressureDate,MonthlyMaxSeaLevelPressureTime,MonthlyMinSeaLevelPressureValue,MonthlyMinSeaLevelPressureDate,MonthlyMinSeaLevelPressureTime,MonthlyTotalHeatingDegreeDays,MonthlyTotalCoolingDegreeDays,MonthlyDeptFromNormalHeatingDD,MonthlyDeptFromNormalCoolingDD,MonthlyTotalSeasonToDateHeatingDD,MonthlyTotalSeasonToDateCoolingDD
WBAN:94728,NY CITY CENTRAL PARK NY US,39.6,40.7889,-73.9669,2016-01-01 00:51,FM-15,OVC:08 37,10.00,,42,5.6,36,2.4,25,-3.9,51,5,VRB,,29.91,8,,30.06,0.00,30.08,,,,,,,,,,1220,2139,,,,,,,,,,,,,,,,,,,,,,,,,,,,,,,,,,,,,,,,,,,-9999,-9999,,-9999,-9999,,,,,,
WBAN:94728,NY CITY CENTRAL PARK NY US,39.6,40.7889,-73.9669,2016-01-01 01:51,FM-15,OVC:08 36,10.00,,41,5.0,36,2.0,25,-3.9,53,3,VRB,,29.91,,,30.06,0.00,30.08,,,,,,,,,,1220,2139,,,,,,,,,,,,,,,,,,,,,,,,,,,,,,,,,,,,,,,,,,,-9999,-9999,,-9999,-9999,,,,,,
WBAN:94728,NY CITY CENTRAL PARK NY US,39.6,40.7889,-73.9669,2016-01-01 02:51,FM-15,OVC:08 34,10.00,,41,5.0,36,2.1,26,-3.3,55,5,280,,29.91,,,30.06,0.00,30.08,,,,,,,,,,1220,2139,,,,,,,,,,,,,,,,,,,,,,,,,,,,,,,,,,,,,,,,,,,-9999,-9999,,-9999,-9999,,,,,,
WBAN:94728,NY CITY CENTRAL PARK NY US,39.6,40.7889,-73.9669,2016-01-01 03:51,FM-15,OVC:08 31,10.00,,41,5.0,36,2.1,26,-3.3,55,9,280,,29.91,6,,30.06,0.00,30.08,,,,,,,,,,1220,2139,,,,,,,,,,,,,,,,,,,,,,,,,,,,,,,,,,,,,,,,,,,-9999,-9999,,-9999,-9999,,,,,,
WBAN:94728,NY CITY CENTRAL PARK NY US,39.6,40.7889,-73.9669,2016-01-01 04:51,FM-15,OVC:08 44,10.00,,40,4.4,35,1.7,26,-3.3,58,10,270,16,29.89,,,30.04,0.00,30.06,,,,,,,,,,1220,2139,,,,,,,,,,,,,,,,,,,,,,,,,,,,,,,,,,,,,,,,,,,-9999,-9999,,-9999,-9999,,,,,,
WBAN:94728,NY CITY CENTRAL PARK NY US,39.6,40.7889,-73.9669,2016-01-01 05:51,FM-15,OVC:08 35,10.00,,40,4.4,35,1.7,26,-3.3,58,7,290,,29.90,,,30.05,0.00,30.07,,,,,,,,,,1220,2139,,,,,,,,,,,,,,,,,,,,,,,,,,,,,,,,,,,,,,,,,,,-9999,-9999,,-9999,-9999,,,,,,
WBAN:94728,NY CITY CENTRAL PARK NY US,39.6,40.7889,-73.9669,2016-01-01 06:51,FM-15,OVC:08 36,10.00,,39,3.9,34,1.3,26,-3.3,60,0,000,,29.91,5,,30.06,0.00,30.08,,,,,,,,,,1220,2139,,,,,,,,,,,,,,,,,,,,,,,,,,,,,,,,,,,,,,,,,,,-9999,-9999,,-9999,-9999,,,,,,
WBAN:94728,NY CITY CENTRAL PARK NY US,39.6,40.7889,-73.9669,2016-01-01 07:51,FM-15,OVC:08 36,10.00,,39,3.9,34,1.2,25,-3.9,57,7,280,,29.91,,,30.05,0.00,30.08,,,,,,,,,,1220,2139,,,,,,,,,,,,,,,,,,,,,,,,,,,,,,,,,,,,,,,,,,,-9999,-9999,,-9999,-9999,,,,,,
WBAN:94728,NY CITY CENTRAL PARK NY US,39.6,40.7889,-73.9669,2016-01-01 08:51,FM-15,FEW:02 38,10.00,,39,3.9,34,1.1,24,-4.4,55,7,260,,29.92,,,30.06,0.00,30.09,,,,,,,,,,1220,2139,,,,,,,,,,,,,,,,,,,,,,,,,,,,,,,,,,,,,,,,,,,-9999,-9999,,-9999,-9999,,,,,,
WBAN:94728,NY CITY CENTRAL PARK NY US,39.6,40.7889,-73.9669,2016-01-01 09:51,FM-15,OVC:08 35,10.00,,40,4.4,35,1.6,25,-3.9,55,5,290,,29.92,3,,30.06,0.00,30.09,,,,,,,,,,1220,2139,,,,,,,,,,,,,,,,,,,,,,,,,,,,,,,,,,,,,,,,,,,-9999,-9999,,-9999,-9999,,,,,,
WBAN:94728,NY CITY CENTRAL PARK NY US,39.6,40.7889,-73.9669,2016-01-01 10:51,FM-15,OVC:08 34,10.00,,40,4.4,35,1.5,24,-4.4,53,6,VRB,20,29.90,,,30.05,0.00,30.07,,,,,,,,,,1220,2139,,,,,,,,,,,,,,,,,,,,,,,,,,,,,,,,,,,,,,,,,,,-9999,-9999,,-9999,-9999,,,,,,
WBAN:94728,NY CITY CENTRAL PARK NY US,39.6,40.7889,-73.9669,2016-01-01 11:51,FM-15,OVC:08 36,10.00,,40,4.4,35,1.4,23,-5.0,51,9,270,,29.87,,,30.02,0.00,30.04,,,,,,,,,,1220,2139,,,,,,,,,,,,,,,,,,,,,,,,,,,,,,,,,,,,,,,,,,,-9999,-9999,,-9999,-9999,,,,,,
WBAN:94728,NY CITY CENTRAL PARK NY US,39.6,40.7889,-73.9669,2016-01-01 12:51,FM-15,OVC:08 37,10.00,,40,4.4,35,1.4,23,-5.0,51,14,280,20,29.84,8,,29.99,0.00,30.01,,,,,,,,,,1220,2139,,,,,,,,,,,,,,,,,,,,,,,,,,,,,,,,,,,,,,,,,,,-9999,-9999,,-9999,-9999,,,,,,
WBAN:94728,NY CITY CENTRAL PARK NY US,39.6,40.7889,-73.9669,2016-01-01 13:51,FM-15,OVC:08 40,10.00,,40,4.4,35,1.4,23,-5.0,51,7,VRB,22,29.83,,,29.97,0.00,30.00,,,,,,,,,,1220,2139,,,,,,,,,,,,,,,,,,,,,,,,,,,,,,,,,,,,,,,,,,,-9999,-9999,,-9999,-9999,,,,,,
WBAN:94728,NY CITY CENTRAL PARK NY US,39.6,40.7889,-73.9669,2016-01-01 14:51,FM-15,BKN:07 39 OVC:08 47,10.00,,39,3.9,33,0.8,21,-6.1,48,11,VRB,26,29.83,,,29.98,0.00,30.00,,,,,,,,,,1220,2139,,,,,,,,,,,,,,,,,,,,,,,,,,,,,,,,,,,,,,,,,,,-9999,-9999,,-9999,-9999,,,,,,
WBAN:94728,NY CITY CENTRAL PARK NY US,39.6,40.7889,-73.9669,2016-01-01 15:51,FM-15,OVC:08 60,10.00,,39,3.9,33,0.8,20,-6.7,46,,,,29.83,6,,29.97,0.00,30.00,,,,,,,,,,1220,2139,,,,,,,,,,,,,,,,,,,,,,,,,,,,,,,,,,,,,,,,,,,-9999,-9999,,-9999,-9999,,,,,,
WBAN:94728,NY CITY CENTRAL PARK NY US,39.6,40.7889,-73.9669,2016-01-01 16:51,FM-15,CLR:00,10.00,,38,3.3,33,0.3,20,-6.7,48,11,280,18,29.82,,,29.97,0.00,29.99,,,,,,,,,,1220,2139,,,,,,,,,,,,,,,,,,,,,,,,,,,,,,,,,,,,,,,,,,,-9999,-9999,,-9999,-9999,,,,,,
WBAN:94728,NY CITY CENTRAL PARK NY US,39.6,40.7889,-73.9669,2016-01-01 17:51,FM-15,CLR:00,10.00,,38,3.3,33,0.3,20,-6.7,48,8,300,20,29.84,,,29.99,0.00,30.01,,,,,,,,,,1220,2139,,,,,,,,,,,,,,,,,,,,,,,,,,,,,,,,,,,,,,,,,,,-9999,-9999,,-9999,-9999,,,,,,
WBAN:94728,NY CITY CENTRAL PARK NY US,39.6,40.7889,-73.9669,2016-01-01 18:51,FM-15,FEW:02 60,10.00,,37,2.8,32,-0.1,20,-6.7,50,13,290,18,29.86,3,,30.00,0.00,30.03,,,,,,,,,,1220,2139,,,,,,,,,,,,,,,,,,,,,,,,,,,,,,,,,,,,,,,,,,,-9999,-9999,,-9999,-9999,,,,,,
WBAN:94728,NY CITY CENTRAL PARK NY US,39.6,40.7889,-73.9669,2016-01-01 19:51,FM-15,CLR:00,10.00,,37,2.8,32,-0.2,19,-7.2,48,9,280,16,29.87,,,30.02,0.00,30.04,,,,,,,,,,1220,2140,,,,,,,,,,,,,,,,,,,,,,,,,,,,,,,,,,,,,,,,,,,-9999,-9999,,-9999,-9999,,,,,,
WBAN:94728,NY CITY CENTRAL PARK NY US,39.6,40.7889,-73.9669,2016-01-01 20:51,FM-15,CLR:00,10.00,,36,2.2,31,-0.6,19,-7.2,50,7,290,,29.88,,,30.03,0.00,30.05,,,,,,,,,,1220,2140,,,,,,,,,,,,,,,,,,,,,,,,,,,,,,,,,,,,,,,,,,,-9999,-9999,,-9999,-9999,,,,,,
WBAN:94728,NY CITY CENTRAL PARK NY US,39.6,40.7889,-73.9669,2016-01-01 21:51,FM-15,CLR:00,10.00,,35,1.7,30,-0.9,20,-6.7,54,,,,29.88,0,,30.02,0.00,30.05,,,,,,,,,,1220,2140,,,,,,,,,,,,,,,,,,,,,,,,,,,,,,,,,,,,,,,,,,,-9999,-9999,,-9999,-9999,,,,,,
WBAN:94728,NY CITY CENTRAL PARK NY US,39.6,40.7889,-73.9669,2016-01-01 22:51,FM-15,CLR:00,10.00,,35,1.7,30,-1.0,19,-7.2,52,6,VRB,,29.88,,,30.03,0.00,30.05,,,,,,,,,,1220,2140,,,,,,,,,,,,,,,,,,,,,,,,,,,,,,,,,,,,,,,,,,,-9999,-9999,,-9999,-9999,,,,,,
WBAN:94728,NY CITY CENTRAL PARK NY US,39.6,40.7889,-73.9669,2016-01-01 23:51,FM-15,CLR:00,10.00,,35,1.7,30,-1.2,16,-8.9,46,9,270,20,29.88,,,30.03,0.00,30.05,42,34,38,4.7,,,,27,0,1220,2140,,,,,,,,,,,,,,,,,,,,,,,,,,,,,,,,,,,,,,,,,,,-9999,-9999,,-9999,-9999,,,,,,
WBAN:94728,NY CITY CENTRAL PARK NY US,39.6,40.7889,-73.9669,2016-01-01 23:59,SOD,,,,,,,,,,,,,,,,,,,,42,34,38,4.7,52,23,33,27,0,1220,2140,,0.00,0.0,0,29.88,30.02,7.6,26,300,17,290,,,,,,,,,,,,,,,,,,,,,,,,,,,,,,,,-9999,-9999,,-9999,-9999,,,,,,
WBAN:94728,NY CITY CENTRAL PARK NY US,39.6,40.7889,-73.9669,2016-01-02 00:51,FM-15,BKN:07 60,10.00,,34,1.1,29,-1.7,15,-9.4,46,6,VRB,18,29.88,0,,30.02,0.00,30.05,,,,,,,,,,1220,2140,,,,,,,,,,,,,,,,,,,,,,,,,,,,,,,,,,,,,,,,,,,-9999,-9999,,-9999,-9999,,,,,,
WBAN:94728,NY CITY CENTRAL PARK NY US,39.6,40.7889,-73.9669,2016-01-02 01:51,FM-15,CLR:00,10.00,,34,1.1,29,-1.7,16,-8.9,48,8,VRB,16,29.88,,,30.02,0.00,30.05,,,,,,,,,,1220,2140,,,,,,,,,,,,,,,,,,,,,,,,,,,,,,,,,,,,,,,,,,,-9999,-9999,,-9999,-9999,,,,,,
WBAN:94728,NY CITY CENTRAL PARK NY US,39.6,40.7889,-73.9669,2016-01-02 02:51,FM-15,CLR:00,10.00,,34,1.1,29,-1.6,17,-8.3,50,8,290,,29.90,,,30.04,0.00,30.07,,,,,,,,,,1220,2140,,,,,,,,,,,,,,,,,,,,,,,,,,,,,,,,,,,,,,,,,,,-9999,-9999,,-9999,-9999,,,,,,
WBAN:94728,NY CITY CENTRAL PARK NY US,39.6,40.7889,-73.9669,2016-01-02 03:51,FM-15,CLR:00,10.00,,34,1.1,29,-1.6,17,-8.3,50,14,280,21,29.88,0,,30.03,0.00,30.05,,,,,,,,,,1220,2140,,,,,,,,,,,,,,,,,,,,,,,,,,,,,,,,,,,,,,,,,,,-9999,-9999,,-9999,-9999,,,,,,
WBAN:94728,NY CITY CENTRAL PARK NY US,39.6,40.7889,-73.9669,2016-01-02 04:51,FM-15,CLR:00,10.00,,33,0.6,28,-2.0,18,-7.8,54,10,280,16,29.89,,,30.04,0.00,30.06,,,,,,,,,,1220,2140,,,,,,,,,,,,,,,,,,,,,,,,,,,,,,,,,,,,,,,,,,,-9999,-9999,,-9999,-9999,,,,,,
WBAN:94728,NY CITY CENTRAL PARK NY US,39.6,40.7889,-73.9669,2016-01-02 05:51,FM-15,CLR:00,10.00,,33,0.6,28,-2.0,18,-7.8,54,9,270,,29.90,,,30.05,0.00,30.07,,,,,,,,,,1220,2140,,,,,,,,,,,,,,,,,,,,,,,,,,,,,,,,,,,,,,,,,,,-9999,-9999,,-9999,-9999,,,,,,
WBAN:94728,NY CITY CENTRAL PARK NY US,39.6,40.7889,-73.9669,2016-01-02 06:51,FM-15,SCT:04 60,10.00,,33,0.6,28,-2.0,18,-7.8,54,0,000,,29.91,3,,30.06,0.00,30.08,,,,,,,,,,1220,2140,,,,,,,,,,,,,,,,,,,,,,,,,,,,,,,,,,,,,,,,,,,-9999,-9999,,-9999,-9999,,,,,,
WBAN:94728,NY CITY CENTRAL PARK NY US,39.6,40.7889,-73.9669,2016-01-02 07:51,FM-15,OVC:08 50,10.00,,34,1.1,29,-1.5,18,-7.8,52,5,270,,29.92,,,30.07,0.00,30.09,,,,,,,,,,1220,2140,,,,,,,,,,,,,,,,,,,,,,,,,,,,,,,,,,,,,,,,,,,-9999,-9999,,-9999,-9999,,,,,,
WBAN:94728,NY CITY CENTRAL PARK NY US,39.6,40.7889,-73.9669,2016-01-02 08:51,FM-15,OVC:08 45,10.00,,34,1.1,29,-1.6,17,-8.3,50,7,260,,29.94,,,30.09,0.00,30.11,,,,,,,,,,1220,2140,,,,,,,,,,,,,,,,,,,,,,,,,,,,,,,,,,,,,,,,,,,-9999,-9999,,-9999,-9999,,,,,,
WBAN:94728,NY CITY CENTRAL PARK NY US,39.6,40.7889,-73.9669,2016-01-02 09:51,FM-15,OVC:08 44,10.00,,35,1.7,30,-1.2,17,-8.3,48,6,VRB,,29.95,2,,30.10,0.00,30.12,,,,,,,,,,1220,2140,,,,,,,,,,,,,,,,,,,,,,,,,,,,,,,,,,,,,,,,,,,-9999,-9999,,-9999,-9999,,,,,,
WBAN:94728,NY CITY CENTRAL PARK NY US,39.6,40.7889,-73.9669,2016-01-02 10:51,FM-15,OVC:08 43,10.00,,37,2.8,32,-0.2,18,-7.8,46,6,VRB,,29.93,,,30.08,0.00,30.10,,,,,,,,,,1220,2140,,,,,,,,,,,,,,,,,,,,,,,,,,,,,,,,,,,,,,,,,,,-9999,-9999,,-9999,-9999,,,,,,
WBAN:94728,NY CITY CENTRAL PARK NY US,39.6,40.7889,-73.9669,2016-01-02 11:51,FM-15,SCT:04 41,10.00,,37,2.8,32,-0.3,17,-8.3,44,5,VRB,16,29.90,,,30.05,0.00,30.07,,,,,,,,,,1220,2140,,,,,,,,,,,,,,,,,,,,,,,,,,,,,,,,,,,,,,,,,,,-9999,-9999,,-9999,-9999,,,,,,
WBAN:94728,NY CITY CENTRAL PARK NY US,39.6,40.7889,-73.9669,2016-01-02 12:51,FM-15,SCT:04 43,10.00,,38,3.3,32,0.2,17,-8.3,43,8,VRB,,29.86,8,,30.01,0.00,30.03,,,,,,,,,,1220,2140,,,,,,,,,,,,,,,,,,,,,,,,,,,,,,,,,,,,,,,,,,,-9999,-9999,,-9999,-9999,,,,,,
WBAN:94728,NY CITY CENTRAL PARK NY US,39.6,40.7889,-73.9669,2016-01-02 13:51,FM-15,CLR:00,10.00,,39,3.9,33,0.7,18,-7.8,43,8,250,,29.84,,,29.99,0.00,30.01,,,,,,,,,,1220,2140,,,,,,,,,,,,,,,,,,,,,,,,,,,,,,,,,,,,,,,,,,,-9999,-9999,,-9999,-9999,,,,,,
WBAN:94728,NY CITY CENTRAL PARK NY US,39.6,40.7889,-73.9669,2016-01-02 14:51,FM-15,CLR:00,10.00,,39,3.9,33,0.7,19,-7.2,45,9,290,17,29.83,,,29.98,0.00,30.00,,,,,,,,,,1220,2140,,,,,,,,,,,,,,,,,,,,,,,,,,,,,,,,,,,,,,,,,,,-9999,-9999,,-9999,-9999,,,,,,
WBAN:94728,NY CITY CENTRAL PARK NY US,39.6,40.7889,-73.9669,2016-01-02 15:51,FM-15,OVC:08 46,10.00,,40,4.4,34,1.2,19,-7.2,43,7,290,,29.84,5,,29.99,0.00,30.01,,,,,,,,,,1220,2140,,,,,,,,,,,,,,,,,,,,,,,,,,,,,,,,,,,,,,,,,,,-9999,-9999,,-9999,-9999,,,,,,
WBAN:94728,NY CITY CENTRAL PARK NY US,39.6,40.7889,-73.9669,2016-01-02 16:51,FM-15,OVC:08 48,10.00,,39,3.9,33,0.7,18,-7.8,43,7,VRB,,29.85,,,30.00,0.00,30.02,,,,,,,,,,1220,2140,,,,,,,,,,,,,,,,,,,,,,,,,,,,,,,,,,,,,,,,,,,-9999,-9999,,-9999,-9999,,,,,,
WBAN:94728,NY CITY CENTRAL PARK NY US,39.6,40.7889,-73.9669,2016-01-02 17:51,FM-15,CLR:00,10.00,,37,2.8,32,-0.3,17,-8.3,44,6,310,17,29.86,,,30.01,0.00,30.03,,,,,,,,,,1220,2140,,,,,,,,,,,,,,,,,,,,,,,,,,,,,,,,,,,,,,,,,,,-9999,-9999,,-9999,-9999,,,,,,
WBAN:94728,NY CITY CENTRAL PARK NY US,39.6,40.7889,-73.9669,2016-01-02 18:51,FM-15,CLR:00,10.00,,36,2.2,31,-0.7,17,-8.3,46,0,000,,29.86,1,,30.01,0.00,30.03,,,,,,,,,,1220,2140,,,,,,,,,,,,,,,,,,,,,,,,,,,,,,,,,,,,,,,,,,,-9999,-9999,,-9999,-9999,,,,,,
WBAN:94728,NY CITY CENTRAL PARK NY US,39.6,40.7889,-73.9669,2016-01-02 19:51,FM-15,CLR:00,10.00,,36,2.2,31,-0.7,17,-8.3,46,7,290,,29.86,,,30.01,0.00,30.03,,,,,,,,,,1220,2141,,,,,,,,,,,,,,,,,,,,,,,,,,,,,,,,,,,,,,,,,,,-9999,-9999,,-9999,-9999,,,,,,
WBAN:94728,NY CITY CENTRAL PARK NY US,39.6,40.7889,-73.9669,2016-01-02 20:51,FM-15,CLR:00,10.00,,35,1.7,30,-1.1,18,-7.8,50,5,240,,29.85,,,30.00,0.00,30.02,,,,,,,,,,1220,2141,,,,,,,,,,,,,,,,,,,,,,,,,,,,,,,,,,,,,,,,,,,-9999,-9999,,-9999,-9999,,,,,,
WBAN:94728,NY CITY CENTRAL PARK NY US,39.6,40.7889,-73.9669,2016-01-02 21:51,FM-15,CLR:00,10.00,,36,2.2,31,-0.7,18,-7.8,48,,,,29.83,8,,29.99,0.00,30.00,,,,,,,,,,1220,2141,,,,,,,,,,,,,,,,,,,,,,,,,,,,,,,,,,,,,,,,,,,-9999,-9999,,-9999,-9999,,,,,,
WBAN:94728,NY CITY CENTRAL PARK NY US,39.6,40.7889,-73.9669,2016-01-02 22:51,FM-15,CLR:00,10.00,,35,1.7,30,-1.0,19,-7.2,52,7,VRB,,29.82,,,29.97,0.00,29.99,,,,,,,,,,1220,2141,,,,,,,,,,,,,,,,,,,,,,,,,,,,,,,,,,,,,,,,,,,-9999,-9999,,-9999,-9999,,,,,,
WBAN:94728,NY CITY CENTRAL PARK NY US,39.6,40.7889,-73.9669,2016-01-02 23:51,FM-15,CLR:00,10.00,,36,2.2,31,-0.5,20,-6.7,52,8,250,,29.81,,,29.96,0.00,29.98,40,32,36,2.9,,,,29,0,1220,2141,,,,,,,,,,,,,,,,,,,,,,,,,,,,,,,,,,,,,,,,,,,-9999,-9999,,-9999,-9999,,,,,,
WBAN:94728,NY CITY CENTRAL PARK NY US,39.6,40.7889,-73.9669,2016-01-02 23:59,SOD,,,,,,,,,,,,,,,,,,,,40,32,36,2.9,48,18,30,29,0,1220,2141,,0.00,0.0,0,29.88,30.02,6.7,23,270,15,290,,,,,,,,,,,,,,,,,,,,,,,,,,,,,,,,-9999,-9999,,-9999,-9999,,,,,,
WBAN:94728,NY CITY CENTRAL PARK NY US,39.6,40.7889,-73.9669,2016-01-03 00:51,FM-15,CLR:00,10.00,,35,1.7,30,-1.0,20,-6.7,54,0,000,,29.79,8,,29.94,0.00,29.96,,,,,,,,,,1220,2141,,,,,,,,,,,,,,,,,,,,,,,,,,,,,,,,,,,,,,,,,,,-9999,-9999,,-9999,-9999,,,,,,
WBAN:94728,NY CITY CENTRAL PARK NY US,39.6,40.7889,-73.9669,2016-01-03 01:51,FM-15,CLR:00,10.00,,36,2.2,31,-0.5,20,-6.7,52,11,260,,29.77,,,29.92,0.00,29.94,,,,,,,,,,1220,2141,,,,,,,,,,,,,,,,,,,,,,,,,,,,,,,,,,,,,,,,,,,-9999,-9999,,-9999,-9999,,,,,,
WBAN:94728,NY CITY CENTRAL PARK NY US,39.6,40.7889,-73.9669,2016-01-03 02:51,FM-15,CLR:00,10.00,,36,2.2,31,-0.5,20,-6.7,52,7,240,16,29.74,,,29.89,0.00,29.91,,,,,,,,,,1220,2141,,,,,,,,,,,,,,,,,,,,,,,,,,,,,,,,,,,,,,,,,,,-9999,-9999,,-9999,-9999,,,,,,
WBAN:94728,NY CITY CENTRAL PARK NY US,39.6,40.7889,-73.9669,2016-01-03 03:51,FM-15,CLR:00,10.00,,36,2.2,31,-0.5,20,-6.7,52,,,,29.71,8,,29.86,0.00,29.88,,,,,,,,,,1220,2141,,,,,,,,,,,,,,,,,,,,,,,,,,,,,,,,,,,,,,,,,,,-9999,-9999,,-9999,-9999,,,,,,
WBAN:94728,NY CITY CENTRAL PARK NY US,39.6,40.7889,-73.9669,2016-01-03 04:51,FM-15,CLR:00,10.00,,37,2.8,32,-0.1,20,-6.7,50,7,VRB,24,29.71,,,29.86,0.00,29.88,,,,,,,,,,1220,2141,,,,,,,,,,,,,,,,,,,,,,,,,,,,,,,,,,,,,,,,,,,-9999,-9999,,-9999,-9999,,,,,,
WBAN:94728,NY CITY CENTRAL PARK NY US,39.6,40.7889,-73.9669,2016-01-03 05:51,FM-15,CLR:00,10.00,,36,2.2,31,-0.5,20,-6.7,52,5,VRB,,29.69,,,29.84,0.00,29.86,,,,,,,,,,1220,2141,,,,,,,,,,,,,,,,,,,,,,,,,,,,,,,,,,,,,,,,,,,-9999,-9999,,-9999,-9999,,,,,,
WBAN:94728,NY CITY CENTRAL PARK NY US,39.6,40.7889,-73.9669,2016-01-03 06:51,FM-15,CLR:00,10.00,,35,1.7,30,-0.9,21,-6.1,57,5,250,,29.70,5,,29.85,0.00,29.87,,,,,,,,,,1220,2141,,,,,,,,,,,,,,,,,,,,,,,,,,,,,,,,,,,,,,,,,,,-9999,-9999,,-9999,-9999,,,,,,
WBAN:94728,NY CITY CENTRAL PARK NY US,39.6,40.7889,-73.9669,2016-01-03 07:51,FM-15,CLR:00,10.00,,36,2.2,31,-0.5,21,-6.1,55,5,VRB,,29.70,,,29.85,0.00,29.87,,,,,,,,,,1220,2141,,,,,,,,,,,,,,,,,,,,,,,,,,,,,,,,,,,,,,,,,,,-9999,-9999,,-9999,-9999,,,,,,
WBAN:94728,NY CITY CENTRAL PARK NY US,39.6,40.7889,-73.9669,2016-01-03 08:51,FM-15,CLR:00,10.00,,38,3.3,33,0.4,21,-6.1,51,10,240,17,29.70,,,29.85,0.00,29.87,,,,,,,,,,1220,2141,,,,,,,,,,,,,,,,,,,,,,,,,,,,,,,,,,,,,,,,,,,-9999,-9999,,-9999,-9999,,,,,,
WBAN:94728,NY CITY CENTRAL PARK NY US,39.6,40.7889,-73.9669,2016-01-03 09:51,FM-15,CLR:00,10.00,,39,3.9,33,0.8,21,-6.1,48,,,,29.71,3,,29.86,0.00,29.88,,,,,,,,,,1220,2141,,,,,,,,,,,,,,,,,,,,,,,,,,,,,,,,,,,,,,,,,,,-9999,-9999,,-9999,-9999,,,,,,
WBAN:94728,NY CITY CENTRAL PARK NY US,39.6,40.7889,-73.9669,2016-01-03 10:51,FM-15,CLR:00,10.00,,43,6.1,37,2.6,20,-6.7,40,6,VRB,16,29.69,,,29.83,0.00,29.86,,,,,,,,,,1220,2141,,,,,,,,,,,,,,,,,,,,,,,,,,,,,,,,,,,,,,,,,,,-9999,-9999,,-9999,-9999,,,,,,
WBAN:94728,NY CITY CENTRAL PARK NY US,39.6,40.7889,-73.9669,2016-01-03 11:51,FM-15,CLR:00,10.00,,44,6.7,38,3.1,19,-7.2,37,11,290,22,29.66,,,29.81,0.00,29.83,,,,,,,,,,1220,2141,,,,,,,,,,,,,,,,,,,,,,,,,,,,,,,,,,,,,,,,,,,-9999,-9999,,-9999,-9999,,,,,,
WBAN:94728,NY CITY CENTRAL PARK NY US,39.6,40.7889,-73.9669,2016-01-03 12:51,FM-15,CLR:00,10.00,,44,6.7,38,3.1,20,-6.7,38,,,,29.64,6,,29.79,0.00,29.81,,,,,,,,,,1220,2141,,,,,,,,,,,,,,,,,,,,,,,,,,,,,,,,,,,,,,,,,,,-9999,-9999,,-9999,-9999,,,,,,
WBAN:94728,NY CITY CENTRAL PARK NY US,39.6,40.7889,-73.9669,2016-01-03 13:51,FM-15,CLR:00,10.00,,44,6.7,38,3.1,21,-6.1,40,8,280,18,29.65,,,29.80,0.00,29.82,,,,,,,,,,1220,2141,,,,,,,,,,,,,,,,,,,,,,,,,,,,,,,,,,,,,,,,,,,-9999,-9999,,-9999,-9999,,,,,,
WBAN:94728,NY CITY CENTRAL PARK NY US,39.6,40.7889,-73.9669,2016-01-03 14:51,FM-15,BKN:07 49,10.00,,42,5.6,36,2.2,21,-6.1,43,10,VRB,21,29.66,,,29.81,0.00,29.83,,,,,,,,,,1220,2141,,,,,,,,,,,,,,,,,,,,,,,,,,,,,,,,,,,,,,,,,,,-9999,-9999,,-9999,-9999,,,,,,
WBAN:94728,NY CITY CENTRAL PARK NY US,39.6,40.7889,-73.9669,2016-01-03 15:51,FM-15,CLR:00,10.00,,41,5.0,35,1.7,20,-6.7,43,9,VRB,16,29.68,1,,29.82,0.00,29.84,,,,,,,,,,1220,2141,,,,,,,,,,,,,,,,,,,,,,,,,,,,,,,,,,,,,,,,,,,-9999,-9999,,-9999,-9999,,,,,,
WBAN:94728,NY CITY CENTRAL PARK NY US,39.6,40.7889,-73.9669,2016-01-03 16:51,FM-15,OVC:08 49,10.00,,41,5.0,35,1.7,21,-6.1,45,11,290,,29.69,,,29.84,0.00,29.86,,,,,,,,,,1220,2141,,,,,,,,,,,,,,,,,,,,,,,,,,,,,,,,,,,,,,,,,,,-9999,-9999,,-9999,-9999,,,,,,
WBAN:94728,NY CITY CENTRAL PARK NY US,39.6,40.7889,-73.9669,2016-01-03 17:51,FM-15,BKN:07 50,10.00,,41,5.0,35,1.7,21,-6.1,45,7,290,,29.71,,,29.86,0.00,29.88,,,,,,,,,,1220,2141,,,,,,,,,,,,,,,,,,,,,,,,,,,,,,,,,,,,,,,,,,,-9999,-9999,,-9999,-9999,,,,,,
WBAN:94728,NY CITY CENTRAL PARK NY US,39.6,40.7889,-73.9669,2016-01-03 18:51,FM-15,CLR:00,10.00,,40,4.4,34,1.3,21,-6.1,47,9,280,,29.73,3,,29.88,0.00,29.90,,,,,,,,,,1220,2141,,,,,,,,,,,,,,,,,,,,,,,,,,,,,,,,,,,,,,,,,,,-9999,-9999,,-9999,-9999,,,,,,
WBAN:94728,NY CITY CENTRAL PARK NY US,39.6,40.7889,-73.9669,2016-01-03 19:51,FM-15,CLR:00,10.00,,39,3.9,34,0.9,22,-5.6,50,8,290,,29.74,,,29.89,0.00,29.91,,,,,,,,,,1220,2142,,,,,,,,,,,,,,,,,,,,,,,,,,,,,,,,,,,,,,,,,,,-9999,-9999,,-9999,-9999,,,,,,
WBAN:94728,NY CITY CENTRAL PARK NY US,39.6,40.7889,-73.9669,2016-01-03 20:51,FM-15,CLR:00,10.00,,38,3.3,33,0.5,22,-5.6,52,10,290,,29.73,,,29.88,0.00,29.90,,,,,,,,,,1220,2142,,,,,,,,,,,,,,,,,,,,,,,,,,,,,,,,,,,,,,,,,,,-9999,-9999,,-9999,-9999,,,,,,
WBAN:94728,NY CITY CENTRAL PARK NY US,39.6,40.7889,-73.9669,2016-01-03 21:51,FM-15,CLR:00,10.00,,37,2.8,32,0.1,22,-5.6,54,9,280,,29.74,1,,29.88,0.00,29.91,,,,,,,,,,1220,2142,,,,,,,,,,,,,,,,,,,,,,,,,,,,,,,,,,,,,,,,,,,-9999,-9999,,-9999,-9999,,,,,,
WBAN:94728,NY CITY CENTRAL PARK NY US,39.6,40.7889,-73.9669,2016-01-03 22:51,FM-15,FEW:02 60,10.00,,37,2.8,32,0.2,23,-5.0,57,9,280,,29.74,,,29.89,0.00,29.91,,,,,,,,,,1220,2142,,,,,,,,,,,,,,,,,,,,,,,,,,,,,,,,,,,,,,,,,,,-9999,-9999,,-9999,-9999,,,,,,
WBAN:94728,NY CITY CENTRAL PARK NY US,39.6,40.7889,-73.9669,2016-01-03 23:51,FM-15,FEW:02 60,10.00,,36,2.2,32,-0.3,23,-5.0,59,7,VRB,,29.73,,,29.88,0.00,29.90,45,35,40,7.0,,,,25,0,1220,2142,,,,,,,,,,,,,,,,,,,,,,,,,,,,,,,,,,,,,,,,,,,-9999,-9999,,-9999,-9999,,,,,,
WBAN:94728,NY CITY CENTRAL PARK NY US,39.6,40.7889,-73.9669,2016-01-03 23:59,SOD,,,,,,,,,,,,,,,,,,,,45,35,40,7.0,49,21,32,25,0,1220,2142,,0.00,0.0,0,29.71,29.85,7.9,26,240,17,270,,,,,,,,,,,,,,,,,,,,,,,,,,,,,,,,-9999,-9999,,-9999,-9999,,,,,,
WBAN:94728,NY CITY CENTRAL PARK NY US,39.6,40.7889,-73.9669,2016-01-04 00:51,FM-15,FEW:02 65,10.00,,36,2.2,32,-0.3,23,-5.0,59,5,VRB,,29.72,8,,29.87,0.00,29.89,,,,,,,,,,1220,2142,,,,,,,,,,,,,,,,,,,,,,,,,,,,,,,,,,,,,,,,,,,-9999,-9999,,-9999,-9999,,,,,,
WBAN:94728,NY CITY CENTRAL PARK NY US,39.6,40.7889,-73.9669,2016-01-04 01:51,FM-15,OVC:08 60,10.00,,36,2.2,32,-0.3,23,-5.0,59,6,VRB,,29.74,,,29.88,0.00,29.91,,,,,,,,,,1220,2142,,,,,,,,,,,,,,,,,,,,,,,,,,,,,,,,,,,,,,,,,,,-9999,-9999,,-9999,-9999,,,,,,
WBAN:94728,NY CITY CENTRAL PARK NY US,39.6,40.7889,-73.9669,2016-01-04 02:51,FM-15,OVC:08 65,10.00,,35,1.7,30,-1.0,19,-7.2,52,3,VRB,,29.75,,,29.90,0.00,29.92,,,,,,,,,,1220,2142,,,,,,,,,,,,,,,,,,,,,,,,,,,,,,,,,,,,,,,,,,,-9999,-9999,,-9999,-9999,,,,,,
WBAN:94728,NY CITY CENTRAL PARK NY US,39.6,40.7889,-73.9669,2016-01-04 03:51,FM-15,OVC:08 65,10.00,,34,1.1,29,-1.6,17,-8.3,50,5,VRB,,29.74,0,,29.89,0.00,29.91,,,,,,,,,,1220,2142,,,,,,,,,,,,,,,,,,,,,,,,,,,,,,,,,,,,,,,,,,,-9999,-9999,,-9999,-9999,,,,,,
WBAN:94728,NY CITY CENTRAL PARK NY US,39.6,40.7889,-73.9669,2016-01-04 04:51,FM-15,OVC:08 65,10.00,,33,0.6,28,-2.2,15,-9.4,47,9,310,20,29.75,,,29.90,0.00,29.92,,,,,,,,,,1220,2142,,,,,,,,,,,,,,,,,,,,,,,,,,,,,,,,,,,,,,,,,,,-9999,-9999,,-9999,-9999,,,,,,
WBAN:94728,NY CITY CENTRAL PARK NY US,39.6,40.7889,-73.9669,2016-01-04 05:51,FM-15,FEW:02 60,10.00,,31,-0.6,27,-3.0,15,-9.4,52,10,310,21,29.78,,,29.94,0.00,29.95,,,,,,,,,,1220,2142,,,,,,,,,,,,,,,,,,,,,,,,,,,,,,,,,,,,,,,,,,,-9999,-9999,,-9999,-9999,,,,,,
WBAN:94728,NY CITY CENTRAL PARK NY US,39.6,40.7889,-73.9669,2016-01-04 06:51,FM-15,BKN:07 38,10.00,,30,-1.1,26,-3.5,14,-10.0,51,11,310,21,29.81,3,,29.96,0.00,29.98,,,,,,,,,,1220,2142,,,,,,,,,,,,,,,,,,,,,,,,,,,,,,,,,,,,,,,,,,,-9999,-9999,,-9999,-9999,,,,,,
WBAN:94728,NY CITY CENTRAL PARK NY US,39.6,40.7889,-73.9669,2016-01-04 07:51,FM-15,OVC:08 37,10.00,,29,-1.7,25,-4.1,13,-10.6,51,7,VRB,,29.83,,,29.98,0.00,30.00,,,,,,,,,,1220,2142,,,,,,,,,,,,,,,,,,,,,,,,,,,,,,,,,,,,,,,,,,,-9999,-9999,,-9999,-9999,,,,,,
WBAN:94728,NY CITY CENTRAL PARK NY US,39.6,40.7889,-73.9669,2016-01-04 08:51,FM-15,OVC:08 33,10.00,,29,-1.7,25,-4.0,13,-10.6,51,7,VRB,,29.86,,,30.01,0.00,30.03,,,,,,,,,,1220,2142,,,,,,,,,,,,,,,,,,,,,,,,,,,,,,,,,,,,,,,,,,,-9999,-9999,,-9999,-9999,,,,,,
WBAN:94728,NY CITY CENTRAL PARK NY US,39.6,40.7889,-73.9669,2016-01-04 09:51,FM-15,FEW:02 43,10.00,,28,-2.2,23,-4.7,8,-13.3,43,5,VRB,,29.89,3,,30.04,0.00,30.06,,,,,,,,,,1220,2142,,,,,,,,,,,,,,,,,,,,,,,,,,,,,,,,,,,,,,,,,,,-9999,-9999,,-9999,-9999,,,,,,
WBAN:94728,NY CITY CENTRAL PARK NY US,39.6,40.7889,-73.9669,2016-01-04 10:51,FM-15,CLR:00,10.00,,28,-2.2,23,-4.7,8,-13.3,43,11,VRB,20,29.89,,,30.04,0.00,30.06,,,,,,,,,,1220,2142,,,,,,,,,,,,,,,,,,,,,,,,,,,,,,,,,,,,,,,,,,,-9999,-9999,,-9999,-9999,,,,,,
WBAN:94728,NY CITY CENTRAL PARK NY US,39.6,40.7889,-73.9669,2016-01-04 11:51,FM-15,CLR:00,10.00,,28,-2.2,23,-4.8,5,-15.0,37,9,VRB,,29.87,,,30.02,0.00,30.04,,,,,,,,,,1220,2142,,,,,,,,,,,,,,,,,,,,,,,,,,,,,,,,,,,,,,,,,,,-9999,-9999,,-9999,-9999,,,,,,
WBAN:94728,NY CITY CENTRAL PARK NY US,39.6,40.7889,-73.9669,2016-01-04 12:51,FM-15,CLR:00,10.00,,30,-1.1,25,-3.7,2,-16.7,30,,,,29.86,8,,30.01,0.00,30.03,,,,,,,,,,1220,2142,,,,,,,,,,,,,,,,,,,,,,,,,,,,,,,,,,,,,,,,,,,-9999,-9999,,-9999,-9999,,,,,,
WBAN:94728,NY CITY CENTRAL PARK NY US,39.6,40.7889,-73.9669,2016-01-04 13:51,FM-15,CLR:00,10.00,,28,-2.2,23,-4.7,1,-17.2,31,5,VRB,23,29.87,,,30.02,0.00,30.04,,,,,,,,,,1220,2142,,,,,,,,,,,,,,,,,,,,,,,,,,,,,,,,,,,,,,,,,,,-9999,-9999,,-9999,-9999,,,,,,
WBAN:94728,NY CITY CENTRAL PARK NY US,39.6,40.7889,-73.9669,2016-01-04 14:51,FM-15,CLR:00,10.00,,28,-2.2,24,-4.7,0,-17.8,29,6,VRB,20,29.90,,,30.05,0.00,30.07,,,,,,,,,,1220,2142,,,,,,,,,,,,,,,,,,,,,,,,,,,,,,,,,,,,,,,,,,,-9999,-9999,,-9999,-9999,,,,,,
WBAN:94728,NY CITY CENTRAL PARK NY US,39.6,40.7889,-73.9669,2016-01-04 15:51,FM-15,CLR:00,10.00,,26,-3.3,22,-5.7,5,-15.0,40,11,040,21,29.93,3,,30.09,0.00,30.10,,,,,,,,,,1220,2142,,,,,,,,,,,,,,,,,,,,,,,,,,,,,,,,,,,,,,,,,,,-9999,-9999,,-9999,-9999,,,,,,
WBAN:94728,NY CITY CENTRAL PARK NY US,39.6,40.7889,-73.9669,2016-01-04 16:51,FM-15,CLR:00,10.00,,23,-5.0,19,-7.2,4,-15.6,44,11,VRB,22,29.98,,,30.14,0.00,30.15,,,,,,,,,,1220,2142,,,,,,,,,,,,,,,,,,,,,,,,,,,,,,,,,,,,,,,,,,,-9999,-9999,,-9999,-9999,,,,,,
WBAN:94728,NY CITY CENTRAL PARK NY US,39.6,40.7889,-73.9669,2016-01-04 17:51,FM-15,CLR:00,10.00,,21,-6.1,17,-8.1,3,-16.1,45,13,VRB,25,30.03,,,30.18,0.00,30.20,,,,,,,,,,1220,2142,,,,,,,,,,,,,,,,,,,,,,,,,,,,,,,,,,,,,,,,,,,-9999,-9999,,-9999,-9999,,,,,,
WBAN:94728,NY CITY CENTRAL PARK NY US,39.6,40.7889,-73.9669,2016-01-04 18:51,FM-15,CLR:00,10.00,,20,-6.7,16,-8.7,1,-17.2,43,,,,30.08,1,,30.23,0.00,30.25,,,,,,,,,,1220,2142,,,,,,,,,,,,,,,,,,,,,,,,,,,,,,,,,,,,,,,,,,,-9999,-9999,,-9999,-9999,,,,,,
WBAN:94728,NY CITY CENTRAL PARK NY US,39.6,40.7889,-73.9669,2016-01-04 19:51,FM-15,OVC:08 50,10.00,,19,-7.2,16,-9.1,2,-16.7,47,13,VRB,24,30.11,,,30.27,0.00,30.28,,,,,,,,,,1220,2143,,,,,,,,,,,,,,,,,,,,,,,,,,,,,,,,,,,,,,,,,,,-9999,-9999,,-9999,-9999,,,,,,
WBAN:94728,NY CITY CENTRAL PARK NY US,39.6,40.7889,-73.9669,2016-01-04 20:51,FM-15,FEW:02 55,10.00,,18,-7.8,15,-9.6,2,-16.7,49,10,VRB,25,30.14,,,30.29,0.00,30.31,,,,,,,,,,1220,2143,,,,,,,,,,,,,,,,,,,,,,,,,,,,,,,,,,,,,,,,,,,-9999,-9999,,-9999,-9999,,,,,,
WBAN:94728,NY CITY CENTRAL PARK NY US,39.6,40.7889,-73.9669,2016-01-04 21:51,FM-15,CLR:00,10.00,,17,-8.3,14,-10.1,0,-17.8,47,9,VRB,21,30.17,1,,30.32,0.00,30.34,,,,,,,,,,1220,2143,,,,,,,,,,,,,,,,,,,,,,,,,,,,,,,,,,,,,,,,,,,-9999,-9999,,-9999,-9999,,,,,,
WBAN:94728,NY CITY CENTRAL PARK NY US,39.6,40.7889,-73.9669,2016-01-04 22:51,FM-15,CLR:00,10.00,,15,-9.4,12,-11.0,0,-17.8,51,13,010,24,30.20,,,30.35,0.00,30.37,,,,,,,,,,1220,2143,,,,,,,,,,,,,,,,,,,,,,,,,,,,,,,,,,,,,,,,,,,-9999,-9999,,-9999,-9999,,,,,,
WBAN:94728,NY CITY CENTRAL PARK NY US,39.6,40.7889,-73.9669,2016-01-04 23:51,FM-15,OVC:08 50,10.00,,15,-9.4,12,-11.0,0,-17.8,51,9,VRB,24,30.22,,,30.37,0.00,30.39,36,14,25,-7.9,,,,40,0,1220,2143,,,,,,,,,,,,,,,,,,,,,,,,,,,,,,,,,,,,,,,,,,,-9999,-9999,,-9999,-9999,,,,,,
WBAN:94728,NY CITY CENTRAL PARK NY US,39.6,40.7889,-73.9669,2016-01-04 23:59,SOD,,,,,,,,,,,,,,,,,,,,36,14,25,-7.9,45,8,21,40,0,1220,2143,,0.00,0.0,0,29.87,30.07,8.6,31,040,21,040,,,,,,,,,,,,,,,,,,,,,,,,,,,,,,,,-9999,-9999,,-9999,-9999,,,,,,
WBAN:94728,NY CITY CENTRAL PARK NY US,39.6,40.7889,-73.9669,2016-01-05 00:51,FM-15,CLR:00,10.00,,13,-10.6,10,-12.0,-1,-18.3,54,14,VRB,24,30.23,1,,30.39,0.00,30.40,,,,,,,,,,1220,2143,,,,,,,,,,,,,,,,,,,,,,,,,,,,,,,,,,,,,,,,,,,-9999,-9999,,-9999,-9999,,,,,,
WBAN:94728,NY CITY CENTRAL PARK NY US,39.6,40.7889,-73.9669,2016-01-05 01:51,FM-15,CLR:00,10.00,,13,-10.6,10,-12.0,-1,-18.3,54,8,VRB,17,30.27,,,30.42,0.00,30.44,,,,,,,,,,1220,2143,,,,,,,,,,,,,,,,,,,,,,,,,,,,,,,,,,,,,,,,,,,-9999,-9999,,-9999,-9999,,,,,,
WBAN:94728,NY CITY CENTRAL PARK NY US,39.6,40.7889,-73.9669,2016-01-05 02:51,FM-15,CLR:00,10.00,,12,-11.1,10,-12.5,-1,-18.3,56,5,VRB,21,30.31,,,30.46,0.00,30.48,,,,,,,,,,1220,2143,,,,,,,,,,,,,,,,,,,,,,,,,,,,,,,,,,,,,,,,,,,-9999,-9999,,-9999,-9999,,,,,,
WBAN:94728,NY CITY CENTRAL PARK NY US,39.6,40.7889,-73.9669,2016-01-05 03:51,FM-15,CLR:00,10.00,,12,-11.1,10,-12.5,-2,-18.9,53,7,VRB,23,30.32,1,,30.47,0.00,30.49,,,,,,,,,,1220,2143,,,,,,,,,,,,,,,,,,,,,,,,,,,,,,,,,,,,,,,,,,,-9999,-9999,,-9999,-9999,,,,,,
WBAN:94728,NY CITY CENTRAL PARK NY US,39.6,40.7889,-73.9669,2016-01-05 04:51,FM-15,CLR:00,10.00,,12,-11.1,9,-12.5,-3,-19.4,51,5,VRB,23,30.33,,,30.48,0.00,30.50,,,,,,,,,,1220,2143,,,,,,,,,,,,,,,,,,,,,,,,,,,,,,,,,,,,,,,,,,,-9999,-9999,,-9999,-9999,,,,,,
WBAN:94728,NY CITY CENTRAL PARK NY US,39.6,40.7889,-73.9669,2016-01-05 05:51,FM-15,CLR:00,10.00,,11,-11.7,9,-13.0,-3,-19.4,53,10,VRB,21,30.36,,,30.52,0.00,30.53,,,,,,,,,,1220,2143,,,,,,,,,,,,,,,,,,,,,,,,,,,,,,,,,,,,,,,,,,,-9999,-9999,,-9999,-9999,,,,,,
WBAN:94728,NY CITY CENTRAL PARK NY US,39.6,40.7889,-73.9669,2016-01-05 06:51,FM-15,CLR:00,10.00,,11,-11.7,9,-13.0,-3,-19.4,53,,,,30.39,3,,30.54,0.00,30.56,,,,,,,,,,1220,2143,,,,,,,,,,,,,,,,,,,,,,,,,,,,,,,,,,,,,,,,,,,-9999,-9999,,-9999,-9999,,,,,,
WBAN:94728,NY CITY CENTRAL PARK NY US,39.6,40.7889,-73.9669,2016-01-05 07:51,FM-15,CLR:00,10.00,,12,-11.1,10,-12.5,-2,-18.9,53,6,VRB,,30.39,,,30.54,0.00,30.56,,,,,,,,,,1220,2143,,,,,,,,,,,,,,,,,,,,,,,,,,,,,,,,,,,,,,,,,,,-9999,-9999,,-9999,-9999,,,,,,
WBAN:94728,NY CITY CENTRAL PARK NY US,39.6,40.7889,-73.9669,2016-01-05 08:51,FM-15,CLR:00,10.00,,13,-10.6,10,-12.1,-4,-20.0,46,13,VRB,20,30.43,,,30.58,0.00,30.60,,,,,,,,,,1220,2143,,,,,,,,,,,,,,,,,,,,,,,,,,,,,,,,,,,,,,,,,,,-9999,-9999,,-9999,-9999,,,,,,
WBAN:94728,NY CITY CENTRAL PARK NY US,39.6,40.7889,-73.9669,2016-01-05 09:51,FM-15,CLR:00,10.00,,17,-8.3,14,-10.1,-2,-18.9,43,,,,30.45,3,,30.61,0.00,30.62,,,,,,,,,,1220,2143,,,,,,,,,,,,,,,,,,,,,,,,,,,,,,,,,,,,,,,,,,,-9999,-9999,,-9999,-9999,,,,,,
WBAN:94728,NY CITY CENTRAL PARK NY US,39.6,40.7889,-73.9669,2016-01-05 10:51,FM-15,CLR:00,10.00,,19,-7.2,15,-9.2,-4,-20.0,36,7,VRB,16,30.45,,,30.60,0.00,30.62,,,,,,,,,,1220,2143,,,,,,,,,,,,,,,,,,,,,,,,,,,,,,,,,,,,,,,,,,,-9999,-9999,,-9999,-9999,,,,,,
WBAN:94728,NY CITY CENTRAL PARK NY US,39.6,40.7889,-73.9669,2016-01-05 11:51,FM-15,CLR:00,10.00,,22,-5.6,18,-7.6,-5,-20.6,30,10,040,18,30.44,,,30.60,0.00,30.61,,,,,,,,,,1220,2143,,,,,,,,,,,,,,,,,,,,,,,,,,,,,,,,,,,,,,,,,,,-9999,-9999,,-9999,-9999,,,,,,
WBAN:94728,NY CITY CENTRAL PARK NY US,39.6,40.7889,-73.9669,2016-01-05 12:51,FM-15,CLR:00,10.00,,25,-3.9,21,-6.0,-6,-21.1,25,7,VRB,,30.43,8,,30.58,0.00,30.60,,,,,,,,,,1220,2143,,,,,,,,,,,,,,,,,,,,,,,,,,,,,,,,,,,,,,,,,,,-9999,-9999,,-9999,-9999,,,,,,
WBAN:94728,NY CITY CENTRAL PARK NY US,39.6,40.7889,-73.9669,2016-01-05 13:51,FM-15,CLR:00,10.00,,27,-2.8,23,-5.0,-6,-21.1,23,6,VRB,,30.42,,,30.57,0.00,30.59,,,,,,,,,,1220,2143,,,,,,,,,,,,,,,,,,,,,,,,,,,,,,,,,,,,,,,,,,,-9999,-9999,,-9999,-9999,,,,,,
WBAN:94728,NY CITY CENTRAL PARK NY US,39.6,40.7889,-73.9669,2016-01-05 14:51,FM-15,CLR:00,10.00,,28,-2.2,24,-4.5,-4,-20.0,24,5,300,,30.42,,,30.58,0.00,30.59,,,,,,,,,,1220,2143,,,,,,,,,,,,,,,,,,,,,,,,,,,,,,,,,,,,,,,,,,,-9999,-9999,,-9999,-9999,,,,,,
WBAN:94728,NY CITY CENTRAL PARK NY US,39.6,40.7889,-73.9669,2016-01-05 15:51,FM-15,CLR:00,10.00,,28,-2.2,24,-4.6,-3,-19.4,26,0,000,,30.43,3,,30.59,0.00,30.60,,,,,,,,,,1220,2143,,,,,,,,,,,,,,,,,,,,,,,,,,,,,,,,,,,,,,,,,,,-9999,-9999,,-9999,-9999,,,,,,
WBAN:94728,NY CITY CENTRAL PARK NY US,39.6,40.7889,-73.9669,2016-01-05 16:51,FM-15,CLR:00,10.00,,28,-2.2,24,-4.5,-4,-20.0,24,0,000,,30.45,,,30.60,0.00,30.62,,,,,,,,,,1220,2143,,,,,,,,,,,,,,,,,,,,,,,,,,,,,,,,,,,,,,,,,,,-9999,-9999,,-9999,-9999,,,,,,
WBAN:94728,NY CITY CENTRAL PARK NY US,39.6,40.7889,-73.9669,2016-01-05 17:51,FM-15,CLR:00,10.00,,27,-2.8,23,-5.1,-3,-19.4,27,0,000,,30.46,,,30.61,0.00,30.63,,,,,,,,,,1220,2143,,,,,,,,,,,,,,,,,,,,,,,,,,,,,,,,,,,,,,,,,,,-9999,-9999,,-9999,-9999,,,,,,
WBAN:94728,NY CITY CENTRAL PARK NY US,39.6,40.7889,-73.9669,2016-01-05 18:51,FM-15,CLR:00,10.00,,27,-2.8,23,-5.1,-3,-19.4,27,0,000,,30.47,1,,30.62,0.00,30.64,,,,,,,,,,1220,2143,,,,,,,,,,,,,,,,,,,,,,,,,,,,,,,,,,,,,,,,,,,-9999,-9999,,-9999,-9999,,,,,,
WBAN:94728,NY CITY CENTRAL PARK NY US,39.6,40.7889,-73.9669,2016-01-05 19:51,FM-15,CLR:00,10.00,,28,-2.2,24,-4.6,-2,-18.9,27,0,000,,30.47,,,30.62,0.00,30.64,,,,,,,,,,1220,2143,,,,,,,,,,,,,,,,,,,,,,,,,,,,,,,,,,,,,,,,,,,-9999,-9999,,-9999,-9999,,,,,,
WBAN:94728,NY CITY CENTRAL PARK NY US,39.6,40.7889,-73.9669,2016-01-05 20:51,FM-15,CLR:00,10.00,,29,-1.7,25,-4.1,-2,-18.9,26,3,290,,30.47,,,30.62,0.00,30.64,,,,,,,,,,1220,2143,,,,,,,,,,,,,,,,,,,,,,,,,,,,,,,,,,,,,,,,,,,-9999,-9999,,-9999,-9999,,,,,,
WBAN:94728,NY CITY CENTRAL PARK NY US,39.6,40.7889,-73.9669,2016-01-05 21:51,FM-15,CLR:00,10.00,,28,-2.2,24,-4.7,0,-17.8,29,3,VRB,,30.46,8,,30.61,0.00,30.63,,,,,,,,,,1220,2143,,,,,,,,,,,,,,,,,,,,,,,,,,,,,,,,,,,,,,,,,,,-9999,-9999,,-9999,-9999,,,,,,
WBAN:94728,NY CITY CENTRAL PARK NY US,39.6,40.7889,-73.9669,2016-01-05 22:51,FM-15,CLR:00,10.00,,28,-2.2,24,-4.7,0,-17.8,29,0,000,,30.46,,,30.61,0.00,30.63,,,,,,,,,,1220,2143,,,,,,,,,,,,,,,,,,,,,,,,,,,,,,,,,,,,,,,,,,,-9999,-9999,,-9999,-9999,,,,,,
WBAN:94728,NY CITY CENTRAL PARK NY US,39.6,40.7889,-73.9669,2016-01-05 23:51,FM-15,CLR:00,10.00,,27,-2.8,23,-5.2,1,-17.2,32,3,280,,30.44,,,30.59,0.00,30.61,29,11,20,-12.8,,,,45,0,1220,2143,,,,,,,,,,,,,,,,,,,,,,,,,,,,,,,,,,,,,,,,,,,-9999,-9999,,-9999,-9999,,,,,,
WBAN:94728,NY CITY CENTRAL PARK NY US,39.6,40.7889,-73.9669,2016-01-05 23:59,SOD,,,,,,,,,,,,,,,,,,,,29,11,20,-12.8,37,-2,16,45,0,1220,2143,,0.00,0.0,0,30.41,30.56,5.1,30,020,20,010,,,,,,,,,,,,,,,,,,,,,,,,,,,,,,,,-9999,-9999,,-9999,-9999,,,,,,
WBAN:94728,NY CITY CENTRAL PARK NY US,39.6,40.7889,-73.9669,2016-01-06 00:51,FM-15,CLR:00,10.00,,28,-2.2,24,-4.7,1,-17.2,31,3,290,,30.43,8,,30.58,0.00,30.60,,,,,,,,,,1220,2143,,,,,,,,,,,,,,,,,,,,,,,,,,,,,,,,,,,,,,,,,,,-9999,-9999,,-9999,-9999,,,,,,
WBAN:94728,NY CITY CENTRAL PARK NY US,39.6,40.7889,-73.9669,2016-01-06 01:51,FM-15,CLR:00,10.00,,27,-2.8,23,-5.2,4,-15.6,37,0,000,,30.43,,,30.58,0.00,30.60,,,,,,,,,,1220,2143,,,,,,,,,,,,,,,,,,,,,,,,,,,,,,,,,,,,,,,,,,,-9999,-9999,,-9999,-9999,,,,,,
WBAN:94728,NY CITY CENTRAL PARK NY US,39.6,40.7889,-73.9669,2016-01-06 02:51,FM-15,CLR:00,10.00,,26,-3.3,22,-5.7,5,-15.0,40,0,000,,30.42,,,30.57,0.00,30.59,,,,,,,,,,1220,2143,,,,,,,,,,,,,,,,,,,,,,,,,,,,,,,,,,,,,,,,,,,-9999,-9999,,-9999,-9999,,,,,,
WBAN:94728,NY CITY CENTRAL PARK NY US,39.6,40.7889,-73.9669,2016-01-06 03:51,FM-15,CLR:00,10.00,,26,-3.3,22,-5.7,7,-13.9,44,3,320,,30.41,8,,30.56,0.00,30.58,,,,,,,,,,1220,2143,,,,,,,,,,,,,,,,,,,,,,,,,,,,,,,,,,,,,,,,,,,-9999,-9999,,-9999,-9999,,,,,,
WBAN:94728,NY CITY CENTRAL PARK NY US,39.6,40.7889,-73.9669,2016-01-06 04:51,FM-15,CLR:00,10.00,,25,-3.9,21,-6.0,9,-12.8,50,0,000,,30.41,,,30.56,0.00,30.58,,,,,,,,,,1220,2143,,,,,,,,,,,,,,,,,,,,,,,,,,,,,,,,,,,,,,,,,,,-9999,-9999,,-9999,-9999,,,,,,
WBAN:94728,NY CITY CENTRAL PARK NY US,39.6,40.7889,-73.9669,2016-01-06 05:51,FM-15,CLR:00,10.00,,26,-3.3,22,-5.6,8,-13.3,46,3,290,,30.42,,,30.57,0.00,30.59,,,,,,,,,,1220,2143,,,,,,,,,,,,,,,,,,,,,,,,,,,,,,,,,,,,,,,,,,,-9999,-9999,,-9999,-9999,,,,,,
WBAN:94728,NY CITY CENTRAL PARK NY US,39.6,40.7889,-73.9669,2016-01-06 06:51,FM-15,CLR:00,10.00,,26,-3.3,22,-5.6,8,-13.3,46,0,000,,30.42,3,,30.57,0.00,30.59,,,,,,,,,,1220,2143,,,,,,,,,,,,,,,,,,,,,,,,,,,,,,,,,,,,,,,,,,,-9999,-9999,,-9999,-9999,,,,,,
WBAN:94728,NY CITY CENTRAL PARK NY US,39.6,40.7889,-73.9669,2016-01-06 07:51,FM-15,CLR:00,10.00,,27,-2.8,23,-5.2,6,-14.4,41,0,000,,30.42,,,30.57,0.00,30.59,,,,,,,,,,1220,2143,,,,,,,,,,,,,,,,,,,,,,,,,,,,,,,,,,,,,,,,,,,-9999,-9999,,-9999,-9999,,,,,,
WBAN:94728,NY CITY CENTRAL PARK NY US,39.6,40.7889,-73.9669,2016-01-06 08:51,FM-15,CLR:00,10.00,,30,-1.1,25,-3.7,3,-16.1,31,3,VRB,,30.42,,,30.58,0.00,30.59,,,,,,,,,,1220,2143,,,,,,,,,,,,,,,,,,,,,,,,,,,,,,,,,,,,,,,,,,,-9999,-9999,,-9999,-9999,,,,,,
WBAN:94728,NY CITY CENTRAL PARK NY US,39.6,40.7889,-73.9669,2016-01-06 09:51,FM-15,CLR:00,10.00,,30,-1.1,25,-3.7,3,-16.1,31,7,VRB,,30.43,3,,30.58,0.00,30.60,,,,,,,,,,1220,2143,,,,,,,,,,,,,,,,,,,,,,,,,,,,,,,,,,,,,,,,,,,-9999,-9999,,-9999,-9999,,,,,,
WBAN:94728,NY CITY CENTRAL PARK NY US,39.6,40.7889,-73.9669,2016-01-06 10:51,FM-15,CLR:00,10.00,,33,0.6,28,-2.1,2,-16.7,26,7,250,,30.42,,,30.57,0.00,30.59,,,,,,,,,,1220,2143,,,,,,,,,,,,,,,,,,,,,,,,,,,,,,,,,,,,,,,,,,,-9999,-9999,,-9999,-9999,,,,,,
WBAN:94728,NY CITY CENTRAL PARK NY US,39.6,40.7889,-73.9669,2016-01-06 11:51,FM-15,CLR:00,10.00,,36,2.2,31,-0.4,1,-17.2,22,0,000,,30.38,,,30.53,0.00,30.55,,,,,,,,,,1220,2143,,,,,,,,,,,,,,,,,,,,,,,,,,,,,,,,,,,,,,,,,,,-9999,-9999,,-9999,-9999,,,,,,
WBAN:94728,NY CITY CENTRAL PARK NY US,39.6,40.7889,-73.9669,2016-01-06 12:51,FM-15,CLR:00,10.00,,38,3.3,33,0.7,1,-17.2,21,0,000,,30.34,8,,30.49,0.00,30.51,,,,,,,,,,1220,2143,,,,,,,,,,,,,,,,,,,,,,,,,,,,,,,,,,,,,,,,,,,-9999,-9999,,-9999,-9999,,,,,,
WBAN:94728,NY CITY CENTRAL PARK NY US,39.6,40.7889,-73.9669,2016-01-06 13:51,FM-15,CLR:00,10.00,,40,4.4,36,2.0,0,-17.8,18,5,VRB,,30.30,,,30.46,0.00,30.47,,,,,,,,,,1220,2143,,,,,,,,,,,,,,,,,,,,,,,,,,,,,,,,,,,,,,,,,,,-9999,-9999,,-9999,-9999,,,,,,
WBAN:94728,NY CITY CENTRAL PARK NY US,39.6,40.7889,-73.9669,2016-01-06 14:51,FM-15,CLR:00,10.00,,40,4.4,36,2.1,-1,-18.3,18,5,240,,30.30,,,30.45,0.00,30.47,,,,,,,,,,1220,2143,,,,,,,,,,,,,,,,,,,,,,,,,,,,,,,,,,,,,,,,,,,-9999,-9999,,-9999,-9999,,,,,,
WBAN:94728,NY CITY CENTRAL PARK NY US,39.6,40.7889,-73.9669,2016-01-06 15:51,FM-15,CLR:00,10.00,,39,3.9,34,1.3,1,-17.2,20,3,210,,30.29,6,,30.44,0.00,30.46,,,,,,,,,,1220,2143,,,,,,,,,,,,,,,,,,,,,,,,,,,,,,,,,,,,,,,,,,,-9999,-9999,,-9999,-9999,,,,,,
WBAN:94728,NY CITY CENTRAL PARK NY US,39.6,40.7889,-73.9669,2016-01-06 16:51,FM-15,CLR:00,10.00,,38,3.3,33,0.6,3,-16.1,23,3,240,,30.28,,,30.43,0.00,30.45,,,,,,,,,,1220,2143,,,,,,,,,,,,,,,,,,,,,,,,,,,,,,,,,,,,,,,,,,,-9999,-9999,,-9999,-9999,,,,,,
WBAN:94728,NY CITY CENTRAL PARK NY US,39.6,40.7889,-73.9669,2016-01-06 17:51,FM-15,CLR:00,10.00,,38,3.3,33,0.4,6,-14.4,26,8,230,,30.28,,,30.43,0.00,30.45,,,,,,,,,,1220,2143,,,,,,,,,,,,,,,,,,,,,,,,,,,,,,,,,,,,,,,,,,,-9999,-9999,,-9999,-9999,,,,,,
WBAN:94728,NY CITY CENTRAL PARK NY US,39.6,40.7889,-73.9669,2016-01-06 18:51,FM-15,CLR:00,10.00,,37,2.8,32,0.0,4,-15.6,25,6,VRB,,30.28,6,,30.43,0.00,30.45,,,,,,,,,,1220,2143,,,,,,,,,,,,,,,,,,,,,,,,,,,,,,,,,,,,,,,,,,,-9999,-9999,,-9999,-9999,,,,,,
WBAN:94728,NY CITY CENTRAL PARK NY US,39.6,40.7889,-73.9669,2016-01-06 19:51,FM-15,CLR:00,10.00,,36,2.2,31,-0.7,6,-14.4,28,7,240,,30.29,,,30.44,0.00,30.46,,,,,,,,,,1220,2144,,,,,,,,,,,,,,,,,,,,,,,,,,,,,,,,,,,,,,,,,,,-9999,-9999,,-9999,-9999,,,,,,
WBAN:94728,NY CITY CENTRAL PARK NY US,39.6,40.7889,-73.9669,2016-01-06 20:51,FM-15,CLR:00,10.00,,37,2.8,32,0.0,4,-15.6,25,9,260,,30.29,,,30.44,0.00,30.46,,,,,,,,,,1220,2144,,,,,,,,,,,,,,,,,,,,,,,,,,,,,,,,,,,,,,,,,,,-9999,-9999,,-9999,-9999,,,,,,
WBAN:94728,NY CITY CENTRAL PARK NY US,39.6,40.7889,-73.9669,2016-01-06 21:51,FM-15,CLR:00,10.00,,36,2.2,31,-0.7,5,-15.0,27,6,270,,30.27,8,,30.43,0.00,30.44,,,,,,,,,,1220,2144,,,,,,,,,,,,,,,,,,,,,,,,,,,,,,,,,,,,,,,,,,,-9999,-9999,,-9999,-9999,,,,,,
WBAN:94728,NY CITY CENTRAL PARK NY US,39.6,40.7889,-73.9669,2016-01-06 22:51,FM-15,CLR:00,10.00,,35,1.7,30,-1.3,9,-12.8,34,6,270,,30.27,,,30.42,0.00,30.44,,,,,,,,,,1220,2144,,,,,,,,,,,,,,,,,,,,,,,,,,,,,,,,,,,,,,,,,,,-9999,-9999,,-9999,-9999,,,,,,
WBAN:94728,NY CITY CENTRAL PARK NY US,39.6,40.7889,-73.9669,2016-01-06 23:51,FM-15,CLR:00,10.00,,34,1.1,29,-1.8,6,-14.4,31,0,000,,30.26,,,30.41,0.00,30.43,41,25,33,0.3,,,,32,0,1220,2144,,,,,,,,,,,,,,,,,,,,,,,,,,,,,,,,,,,,,,,,,,,-9999,-9999,,-9999,-9999,,,,,,